{
"type": "FeatureCollection",
"name": "ALTO_RENO_TERME",
"crs": { "type": "name", "properties": { "name": "urn:ogc:def:crs:OGC:1.3:CRS84" } },
"features": [
{ "type": "Feature", "properties": { "CITY_NAME": "ALTO_RENO_TERME", "strokeColor": "#70ACCC", "RGB": "112, 172, 204" }, "geometry": { "type": "LineString", "coordinates": [ [ 10.975268844533089, 44.158837032893075 ], [ 10.975297768565692, 44.15869086074516 ], [ 10.975424996007167, 44.158592433161743 ], [ 10.975525784807431, 44.158474766730578 ], [ 10.975538974003223, 44.158401943923224 ], [ 10.975545456169648, 44.158269022645172 ], [ 10.975540473829104, 44.158120542474123 ], [ 10.975529657666872, 44.157984542473727 ], [ 10.975500694237656, 44.157750373341301 ], [ 10.975474389671263, 44.157665287267108 ] ] } },
{ "type": "Feature", "properties": { "CITY_NAME": "ALTO_RENO_TERME", "strokeColor": "#70ACCC", "RGB": "112, 172, 204" }, "geometry": { "type": "LineString", "coordinates": [ [ 10.969179187220748, 44.159363757738099 ], [ 10.969229008377228, 44.159291830022688 ], [ 10.969283510155947, 44.159175129312608 ] ] } },
{ "type": "Feature", "properties": { "CITY_NAME": "ALTO_RENO_TERME", "strokeColor": "#70ACCC", "RGB": "112, 172, 204" }, "geometry": { "type": "LineString", "coordinates": [ [ 10.977448262550269, 44.155691566591038 ], [ 10.977514646745343, 44.155421521562495 ], [ 10.9775557232197, 44.155420818364298 ] ] } },
{ "type": "Feature", "properties": { "CITY_NAME": "ALTO_RENO_TERME", "strokeColor": "#70ACCC", "RGB": "112, 172, 204" }, "geometry": { "type": "LineString", "coordinates": [ [ 10.969283510155947, 44.159175129312608 ], [ 10.969349072493237, 44.159014053352649 ], [ 10.969376549697891, 44.158932612882886 ], [ 10.969605220937009, 44.158417187194196 ], [ 10.969656202403534, 44.158356113209393 ], [ 10.969746699102263, 44.158266566883739 ] ] } },
{ "type": "Feature", "properties": { "CITY_NAME": "ALTO_RENO_TERME", "strokeColor": "#70ACCC", "RGB": "112, 172, 204" }, "geometry": { "type": "LineString", "coordinates": [ [ 10.988881332952104, 44.141895739778953 ], [ 10.989101248787199, 44.141618439958108 ] ] } },
{ "type": "Feature", "properties": { "CITY_NAME": "ALTO_RENO_TERME", "strokeColor": "#70ACCC", "RGB": "112, 172, 204" }, "geometry": { "type": "LineString", "coordinates": [ [ 10.990734746327183, 44.138986608355161 ], [ 10.991016638475614, 44.138503031571638 ], [ 10.991031801486312, 44.138387179766731 ], [ 10.991013214803965, 44.138310447917128 ], [ 10.990954780878345, 44.13819847660973 ], [ 10.990731364786773, 44.137930828294223 ], [ 10.990640734480003, 44.137816455130107 ] ] } },
{ "type": "Feature", "properties": { "CITY_NAME": "ALTO_RENO_TERME", "strokeColor": "#70ACCC", "RGB": "112, 172, 204" }, "geometry": { "type": "LineString", "coordinates": [ [ 10.977417816140704, 44.153361822551666 ], [ 10.97749541917897, 44.153220483277643 ], [ 10.977510397796657, 44.153073830781878 ] ] } },
{ "type": "Feature", "properties": { "CITY_NAME": "ALTO_RENO_TERME", "strokeColor": "#70ACCC", "RGB": "112, 172, 204" }, "geometry": { "type": "LineString", "coordinates": [ [ 10.969874061408781, 44.158238822847238 ], [ 10.970387208516138, 44.158143769173378 ] ] } },
{ "type": "Feature", "properties": { "CITY_NAME": "ALTO_RENO_TERME", "strokeColor": "#70ACCC", "RGB": "112, 172, 204" }, "geometry": { "type": "LineString", "coordinates": [ [ 10.989391249241436, 44.1411697491505 ], [ 10.989525757459369, 44.140956277446179 ], [ 10.989585215803025, 44.140825512085456 ], [ 10.989768977371753, 44.140498211783303 ], [ 10.989899341778628, 44.140328711016714 ], [ 10.990240582410829, 44.139970797564217 ] ] } },
{ "type": "Feature", "properties": { "CITY_NAME": "ALTO_RENO_TERME", "strokeColor": "#70ACCC", "RGB": "112, 172, 204" }, "geometry": { "type": "LineString", "coordinates": [ [ 10.967827838860936, 44.15965363940127 ], [ 10.968672197174673, 44.159521229020193 ], [ 10.96889027896029, 44.159495258690313 ] ] } },
{ "type": "Feature", "properties": { "CITY_NAME": "ALTO_RENO_TERME", "strokeColor": "#70ACCC", "RGB": "112, 172, 204" }, "geometry": { "type": "LineString", "coordinates": [ [ 10.977684539380348, 44.155423817522205 ], [ 10.9775557232197, 44.155420818364298 ] ] } },
{ "type": "Feature", "properties": { "CITY_NAME": "ALTO_RENO_TERME", "strokeColor": "#70ACCC", "RGB": "112, 172, 204" }, "geometry": { "type": "LineString", "coordinates": [ [ 10.970387208516138, 44.158143769173378 ], [ 10.970461818472328, 44.157923415818715 ], [ 10.970526424119738, 44.157747487050635 ], [ 10.970617348101248, 44.157524578798522 ], [ 10.970686649736951, 44.1573790641838 ], [ 10.970957743211898, 44.157063019945113 ], [ 10.971291314347901, 44.156824289255887 ], [ 10.97163163738675, 44.156672402831056 ], [ 10.971768483136923, 44.15663849508455 ] ] } },
{ "type": "Feature", "properties": { "CITY_NAME": "ALTO_RENO_TERME", "strokeColor": "#70ACCC", "RGB": "112, 172, 204" }, "geometry": { "type": "LineString", "coordinates": [ [ 10.977510397796657, 44.153073830781878 ], [ 10.977748960118712, 44.152698884291553 ], [ 10.977796710030931, 44.152641299979337 ], [ 10.977854025849716, 44.152572671524915 ] ] } },
{ "type": "Feature", "properties": { "CITY_NAME": "ALTO_RENO_TERME", "strokeColor": "#70ACCC", "RGB": "112, 172, 204" }, "geometry": { "type": "LineString", "coordinates": [ [ 10.989622138649434, 44.135866760829622 ], [ 10.989521032866364, 44.135619742558873 ], [ 10.989433177025354, 44.135375305044448 ] ] } },
{ "type": "Feature", "properties": { "CITY_NAME": "ALTO_RENO_TERME", "strokeColor": "#70ACCC", "RGB": "112, 172, 204" }, "geometry": { "type": "LineString", "coordinates": [ [ 10.990910115480915, 44.13198840616046 ], [ 10.991021062606197, 44.131728842007234 ] ] } },
{ "type": "Feature", "properties": { "CITY_NAME": "ALTO_RENO_TERME", "strokeColor": "#70ACCC", "RGB": "112, 172, 204" }, "geometry": { "type": "LineString", "coordinates": [ [ 10.967827838860936, 44.15965363940127 ], [ 10.967845805478156, 44.159760689896814 ], [ 10.968031777102389, 44.1606135415187 ] ] } },
{ "type": "Feature", "properties": { "CITY_NAME": "ALTO_RENO_TERME", "strokeColor": "#70ACCC", "RGB": "112, 172, 204" }, "geometry": { "type": "LineString", "coordinates": [ [ 10.977854025849716, 44.152572671524915 ], [ 10.978017255465302, 44.152521830851285 ], [ 10.978438331929404, 44.152401221902011 ], [ 10.978974521624906, 44.152263993813143 ], [ 10.979806375524158, 44.152105490783853 ], [ 10.979935980511975, 44.152086562884449 ], [ 10.980243058610558, 44.152029889314505 ], [ 10.980362234657299, 44.151981549473966 ], [ 10.980474550309344, 44.151903040246886 ], [ 10.980695894922158, 44.151636155084176 ], [ 10.980872718895773, 44.151381443262636 ], [ 10.981260719830724, 44.150818081196675 ], [ 10.981314127900237, 44.150738223493065 ], [ 10.981404628744045, 44.150665916822518 ], [ 10.981517627005562, 44.150607729123912 ], [ 10.982226856205491, 44.150340500663035 ], [ 10.982420975518716, 44.150259162381488 ], [ 10.982579206706491, 44.150121202376937 ], [ 10.982737279712456, 44.149977495514634 ], [ 10.983228117034475, 44.149515839070894 ], [ 10.983359180513494, 44.149438714692764 ], [ 10.983587636013025, 44.149330344065518 ], [ 10.983732673504274, 44.149256926197751 ], [ 10.983834658547625, 44.149189752439604 ], [ 10.983897606876219, 44.149110479541307 ], [ 10.983918826688075, 44.149061502237934 ] ] } },
{ "type": "Feature", "properties": { "CITY_NAME": "ALTO_RENO_TERME", "strokeColor": "#70ACCC", "RGB": "112, 172, 204" }, "geometry": { "type": "LineString", "coordinates": [ [ 10.990640734480003, 44.137816455130107 ], [ 10.990598700552734, 44.137648255971136 ], [ 10.990553823023138, 44.137371557531232 ], [ 10.990514857758546, 44.137252206193324 ], [ 10.990430757173526, 44.137092149738095 ], [ 10.990341807604869, 44.136962185130365 ], [ 10.990007813732451, 44.136527516198974 ], [ 10.98994925602606, 44.136454948662866 ] ] } },
{ "type": "Feature", "properties": { "CITY_NAME": "ALTO_RENO_TERME", "strokeColor": "#70ACCC", "RGB": "112, 172, 204" }, "geometry": { "type": "LineString", "coordinates": [ [ 10.987455283056139, 44.142856222415666 ], [ 10.987531186104444, 44.142770304573709 ], [ 10.987617846795471, 44.142693270084912 ], [ 10.987777551508463, 44.142569089677359 ], [ 10.987941357695588, 44.142461036951595 ], [ 10.988128251826126, 44.142361775130837 ] ] } },
{ "type": "Feature", "properties": { "CITY_NAME": "ALTO_RENO_TERME", "strokeColor": "#70ACCC", "RGB": "112, 172, 204" }, "geometry": { "type": "LineString", "coordinates": [ [ 10.989872762442941, 44.136320002175957 ], [ 10.989773732566791, 44.136143654901403 ], [ 10.989656404403531, 44.135920203287647 ], [ 10.989622138649434, 44.135866760829622 ] ] } },
{ "type": "Feature", "properties": { "CITY_NAME": "ALTO_RENO_TERME", "strokeColor": "#70ACCC", "RGB": "112, 172, 204" }, "geometry": { "type": "LineString", "coordinates": [ [ 10.967712423104732, 44.160846104377882 ], [ 10.967744842216343, 44.160791710887089 ], [ 10.967635535735692, 44.160375715744735 ], [ 10.967535586325695, 44.160038402044243 ], [ 10.967535169153246, 44.159889488167714 ], [ 10.967565451141168, 44.159783724777867 ], [ 10.967660792139728, 44.159697123497082 ], [ 10.967827838860936, 44.15965363940127 ] ] } },
{ "type": "Feature", "properties": { "CITY_NAME": "ALTO_RENO_TERME", "strokeColor": "#70ACCC", "RGB": "112, 172, 204" }, "geometry": { "type": "LineString", "coordinates": [ [ 10.96889027896029, 44.159495258690313 ], [ 10.96897556488587, 44.159553713750839 ], [ 10.969079828593129, 44.159627413274933 ] ] } },
{ "type": "Feature", "properties": { "CITY_NAME": "ALTO_RENO_TERME", "strokeColor": "#70ACCC", "RGB": "112, 172, 204" }, "geometry": { "type": "LineString", "coordinates": [ [ 10.990240582410829, 44.139970797564217 ], [ 10.990381980619134, 44.139801021113293 ], [ 10.9904745149557, 44.139609473140077 ], [ 10.990535210188796, 44.139403645615005 ], [ 10.990617140137251, 44.139205760492608 ], [ 10.990734746327183, 44.138986608355161 ] ] } },
{ "type": "Feature", "properties": { "CITY_NAME": "ALTO_RENO_TERME", "strokeColor": "#70ACCC", "RGB": "112, 172, 204" }, "geometry": { "type": "LineString", "coordinates": [ [ 10.989101248787199, 44.141618439958108 ], [ 10.989321883543312, 44.141282619534131 ], [ 10.989391249241436, 44.1411697491505 ] ] } },
{ "type": "Feature", "properties": { "CITY_NAME": "ALTO_RENO_TERME", "strokeColor": "#70ACCC", "RGB": "112, 172, 204" }, "geometry": { "type": "LineString", "coordinates": [ [ 10.99001382850556, 44.133189849648787 ], [ 10.990229070863604, 44.13301923478722 ], [ 10.990349251577033, 44.132923586094918 ], [ 10.990454514593768, 44.132821414325988 ], [ 10.990564812378386, 44.132708675061082 ] ] } },
{ "type": "Feature", "properties": { "CITY_NAME": "ALTO_RENO_TERME", "strokeColor": "#70ACCC", "RGB": "112, 172, 204" }, "geometry": { "type": "LineString", "coordinates": [ [ 10.969079828593129, 44.159627413274933 ], [ 10.969089715537727, 44.159694495005837 ], [ 10.9690833152554, 44.159759497858197 ], [ 10.969047989977099, 44.159794563587127 ], [ 10.968965876167172, 44.159858758848422 ], [ 10.968883089867557, 44.15990266997192 ], [ 10.968765612851559, 44.159933026236651 ], [ 10.96855069722441, 44.159973095513109 ], [ 10.968377458373267, 44.160006542710036 ], [ 10.968285574561511, 44.160034328113461 ], [ 10.968233268201546, 44.160073698944345 ], [ 10.968201315227503, 44.160128997458855 ], [ 10.96819463938234, 44.160185744669803 ], [ 10.968220439386885, 44.160284403353906 ], [ 10.96824705265575, 44.160407587742831 ], [ 10.968300682198961, 44.160584577122677 ] ] } },
{ "type": "Feature", "properties": { "CITY_NAME": "ALTO_RENO_TERME", "strokeColor": "#70ACCC", "RGB": "112, 172, 204" }, "geometry": { "type": "LineString", "coordinates": [ [ 10.969283510155947, 44.159175129312608 ], [ 10.969396723520434, 44.159231031758566 ], [ 10.969610449358415, 44.159340685751552 ], [ 10.969663933151857, 44.159377512369041 ], [ 10.969690101021147, 44.159419298146645 ], [ 10.969695095275807, 44.159474665660674 ], [ 10.969646551088861, 44.159599868964925 ], [ 10.96957977461528, 44.159718781127907 ], [ 10.96951236081636, 44.159832041295942 ], [ 10.969405088218879, 44.160033776164646 ] ] } },
{ "type": "Feature", "properties": { "CITY_NAME": "ALTO_RENO_TERME", "strokeColor": "#70ACCC", "RGB": "112, 172, 204" }, "geometry": { "type": "LineString", "coordinates": [ [ 10.973730574171229, 44.156376964672461 ], [ 10.973721565600345, 44.156064167303327 ], [ 10.973624430661648, 44.155351685202994 ] ] } },
{ "type": "Feature", "properties": { "CITY_NAME": "ALTO_RENO_TERME", "strokeColor": "#70ACCC", "RGB": "112, 172, 204" }, "geometry": { "type": "LineString", "coordinates": [ [ 10.9766757544634, 44.154726814226798 ], [ 10.976755070130725, 44.154566930965061 ], [ 10.977172719015762, 44.153835492411702 ] ] } },
{ "type": "Feature", "properties": { "CITY_NAME": "ALTO_RENO_TERME", "strokeColor": "#70ACCC", "RGB": "112, 172, 204" }, "geometry": { "type": "LineString", "coordinates": [ [ 10.975474389671263, 44.157665287267108 ], [ 10.97541645048562, 44.157592563166531 ], [ 10.975305799776256, 44.157486417495122 ], [ 10.975045206274412, 44.157268044051101 ], [ 10.974778546681023, 44.15705539643286 ], [ 10.974588726645182, 44.156919650202504 ], [ 10.974326348353296, 44.156764884919596 ], [ 10.973855674112619, 44.156605668894258 ], [ 10.973710768883127, 44.156554605858666 ] ] } },
{ "type": "Feature", "properties": { "CITY_NAME": "ALTO_RENO_TERME", "strokeColor": "#70ACCC", "RGB": "112, 172, 204" }, "geometry": { "type": "LineString", "coordinates": [ [ 10.973710768883127, 44.156554605858666 ], [ 10.973686562036914, 44.156465765719489 ], [ 10.973730574171229, 44.156376964672461 ] ] } },
{ "type": "Feature", "properties": { "CITY_NAME": "ALTO_RENO_TERME", "strokeColor": "#70ACCC", "RGB": "112, 172, 204" }, "geometry": { "type": "LineString", "coordinates": [ [ 10.972621977206185, 44.159116437047658 ], [ 10.972655326802931, 44.159024235595027 ], [ 10.972769039080356, 44.15881730416266 ], [ 10.972895779723148, 44.158558086242842 ], [ 10.97305660088316, 44.158211586760068 ], [ 10.973195718796749, 44.157952974821036 ], [ 10.973351487425074, 44.157634549216461 ], [ 10.973384793881605, 44.157521643858168 ], [ 10.973362460040628, 44.157404697844456 ], [ 10.973294473316953, 44.15726848268897 ], [ 10.973170968575634, 44.157133186245467 ], [ 10.973001172807338, 44.157008185900956 ], [ 10.972815971996727, 44.156827804186506 ], [ 10.972720022500789, 44.156688594736615 ], [ 10.972674333097926, 44.156542400320404 ], [ 10.972673848953701, 44.156429377499713 ], [ 10.97267354739736, 44.156359430443558 ] ] } },
{ "type": "Feature", "properties": { "CITY_NAME": "ALTO_RENO_TERME", "strokeColor": "#70ACCC", "RGB": "112, 172, 204" }, "geometry": { "type": "LineString", "coordinates": [ [ 10.990564812378386, 44.132708675061082 ], [ 10.990694107736232, 44.132460636849352 ], [ 10.990910115480915, 44.13198840616046 ] ] } },
{ "type": "Feature", "properties": { "CITY_NAME": "ALTO_RENO_TERME", "strokeColor": "#70ACCC", "RGB": "112, 172, 204" }, "geometry": { "type": "LineString", "coordinates": [ [ 10.98994925602606, 44.136454948662866 ], [ 10.989872762442941, 44.136320002175957 ] ] } },
{ "type": "Feature", "properties": { "CITY_NAME": "ALTO_RENO_TERME", "strokeColor": "#70ACCC", "RGB": "112, 172, 204" }, "geometry": { "type": "LineString", "coordinates": [ [ 10.989694847336171, 44.133566132951408 ], [ 10.989823212059123, 44.133392568723785 ], [ 10.99001382850556, 44.133189849648787 ] ] } },
{ "type": "Feature", "properties": { "CITY_NAME": "ALTO_RENO_TERME", "strokeColor": "#70ACCC", "RGB": "112, 172, 204" }, "geometry": { "type": "LineString", "coordinates": [ [ 10.988128251826126, 44.142361775130837 ], [ 10.988491851880562, 44.142186357101039 ], [ 10.988764742286611, 44.142011474166857 ] ] } },
{ "type": "Feature", "properties": { "CITY_NAME": "ALTO_RENO_TERME", "strokeColor": "#70ACCC", "RGB": "112, 172, 204" }, "geometry": { "type": "LineString", "coordinates": [ [ 10.97267354739736, 44.156359430443558 ], [ 10.972106868736361, 44.156537674748705 ], [ 10.971768483136923, 44.15663849508455 ] ] } },
{ "type": "Feature", "properties": { "CITY_NAME": "ALTO_RENO_TERME", "strokeColor": "#70ACCC", "RGB": "112, 172, 204" }, "geometry": { "type": "LineString", "coordinates": [ [ 10.973311983501427, 44.15605010704143 ], [ 10.973177672762846, 44.156111336853826 ], [ 10.973036480052279, 44.156172493642579 ], [ 10.972912396122133, 44.156236398633474 ], [ 10.97284985930667, 44.156268609012763 ], [ 10.972769620961053, 44.156309939181007 ], [ 10.97267354739736, 44.156359430443558 ] ] } },
{ "type": "Feature", "properties": { "CITY_NAME": "ALTO_RENO_TERME", "strokeColor": "#70ACCC", "RGB": "112, 172, 204" }, "geometry": { "type": "LineString", "coordinates": [ [ 10.977448262550269, 44.155691566591038 ], [ 10.977411772278433, 44.155896785725467 ], [ 10.977706096295853, 44.15594339198465 ] ] } },
{ "type": "Feature", "properties": { "CITY_NAME": "ALTO_RENO_TERME", "strokeColor": "#70ACCC", "RGB": "112, 172, 204" }, "geometry": { "type": "LineString", "coordinates": [ [ 10.969179187220748, 44.159363757738099 ], [ 10.969175094315268, 44.159430372879584 ], [ 10.969118128243174, 44.159573418562616 ], [ 10.969079828593129, 44.159627413274933 ] ] } },
{ "type": "Feature", "properties": { "CITY_NAME": "ALTO_RENO_TERME", "strokeColor": "#70ACCC", "RGB": "112, 172, 204" }, "geometry": { "type": "LineString", "coordinates": [ [ 10.991557799527861, 44.129681993785212 ], [ 10.991622859822474, 44.129374665379778 ] ] } },
{ "type": "Feature", "properties": { "CITY_NAME": "ALTO_RENO_TERME", "strokeColor": "#70ACCC", "RGB": "112, 172, 204" }, "geometry": { "type": "LineString", "coordinates": [ [ 10.989433177025354, 44.135375305044448 ], [ 10.989321198749469, 44.135090370256293 ], [ 10.989285245757392, 44.134968610762385 ], [ 10.989237916704429, 44.13471972002111 ], [ 10.989218646982406, 44.134567856948465 ], [ 10.989229626124407, 44.134418573956886 ], [ 10.989275844714925, 44.134264849899822 ], [ 10.989347515447156, 44.134136198213305 ], [ 10.989463332425391, 44.133947361301836 ], [ 10.989543377483514, 44.133816650435762 ], [ 10.989694847336171, 44.133566132951408 ] ] } },
{ "type": "Feature", "properties": { "CITY_NAME": "ALTO_RENO_TERME", "strokeColor": "#70ACCC", "RGB": "112, 172, 204" }, "geometry": { "type": "LineString", "coordinates": [ [ 10.977706096295853, 44.15594339198465 ], [ 10.977778661561508, 44.155954882760611 ], [ 10.977834248246278, 44.155686847683427 ], [ 10.977877856988224, 44.155680897622403 ], [ 10.977920897661988, 44.155522886963809 ], [ 10.977891772380366, 44.155516289763291 ], [ 10.977888542775911, 44.15550073702839 ], [ 10.977686058193253, 44.15546920014387 ], [ 10.977684539380348, 44.155423817522205 ] ] } },
{ "type": "Feature", "properties": { "CITY_NAME": "ALTO_RENO_TERME", "strokeColor": "#70ACCC", "RGB": "112, 172, 204" }, "geometry": { "type": "LineString", "coordinates": [ [ 10.976116278859344, 44.155781532331631 ], [ 10.976183784170953, 44.155344003848462 ], [ 10.976397201693281, 44.15513437005994 ], [ 10.976513737676525, 44.155053387890952 ] ] } },
{ "type": "Feature", "properties": { "CITY_NAME": "ALTO_RENO_TERME", "strokeColor": "#70ACCC", "RGB": "112, 172, 204" }, "geometry": { "type": "LineString", "coordinates": [ [ 10.988764742286611, 44.142011474166857 ], [ 10.988862196367469, 44.141922868124901 ], [ 10.988881332952104, 44.141895739778953 ] ] } },
{ "type": "Feature", "properties": { "CITY_NAME": "ALTO_RENO_TERME", "strokeColor": "#70ACCC", "RGB": "112, 172, 204" }, "geometry": { "type": "LineString", "coordinates": [ [ 10.991622859822474, 44.129374665379778 ], [ 10.99161104193581, 44.12925469407304 ] ] } },
{ "type": "Feature", "properties": { "CITY_NAME": "ALTO_RENO_TERME", "strokeColor": "#70ACCC", "RGB": "112, 172, 204" }, "geometry": { "type": "LineString", "coordinates": [ [ 10.973624430661648, 44.155351685202994 ], [ 10.973393785360237, 44.155359673813138 ], [ 10.973412175958336, 44.1559014991849 ], [ 10.973311983501427, 44.15605010704143 ] ] } },
{ "type": "Feature", "properties": { "CITY_NAME": "ALTO_RENO_TERME", "strokeColor": "#70ACCC", "RGB": "112, 172, 204" }, "geometry": { "type": "LineString", "coordinates": [ [ 10.977172719015762, 44.153835492411702 ], [ 10.977194426371328, 44.153768663801159 ], [ 10.977417816140704, 44.153361822551666 ] ] } },
{ "type": "Feature", "properties": { "CITY_NAME": "ALTO_RENO_TERME", "strokeColor": "#70ACCC", "RGB": "112, 172, 204" }, "geometry": { "type": "LineString", "coordinates": [ [ 10.991021062606197, 44.131728842007234 ], [ 10.991142354124213, 44.131316723922225 ] ] } },
{ "type": "Feature", "properties": { "CITY_NAME": "ALTO_RENO_TERME", "strokeColor": "#70ACCC", "RGB": "112, 172, 204" }, "geometry": { "type": "LineString", "coordinates": [ [ 10.991142354124213, 44.131316723922225 ], [ 10.991199217380359, 44.131141403084783 ], [ 10.991258110783386, 44.130917266059377 ], [ 10.99136207275348, 44.130469109621032 ], [ 10.991557799527861, 44.129681993785212 ] ] } },
{ "type": "Feature", "properties": { "CITY_NAME": "ALTO_RENO_TERME", "strokeColor": "#70ACCC", "RGB": "112, 172, 204" }, "geometry": { "type": "LineString", "coordinates": [ [ 10.96889027896029, 44.159495258690313 ], [ 10.969069522526118, 44.159412149649818 ], [ 10.969179187220748, 44.159363757738099 ] ] } },
{ "type": "Feature", "properties": { "CITY_NAME": "ALTO_RENO_TERME", "strokeColor": "#70ACCC", "RGB": "112, 172, 204" }, "geometry": { "type": "LineString", "coordinates": [ [ 10.976513737676525, 44.155053387890952 ], [ 10.9766757544634, 44.154726814226798 ] ] } },
{ "type": "Feature", "properties": { "CITY_NAME": "ALTO_RENO_TERME", "strokeColor": "#70ACCC", "RGB": "112, 172, 204" }, "geometry": { "type": "LineString", "coordinates": [ [ 10.969746699102263, 44.158266566883739 ], [ 10.969874061408781, 44.158238822847238 ] ] } }
]
}
