{
"type": "FeatureCollection",
"name": "BUDRIO",
"crs": { "type": "name", "properties": { "name": "urn:ogc:def:crs:OGC:1.3:CRS84" } },
"features": [
{ "type": "Feature", "properties": { "CITY_NAME": "BUDRIO", "strokeColor": "#70CC81", "RGB": "112, 204, 129" }, "geometry": { "type": "LineString", "coordinates": [ [ 11.530413011300777, 44.538210769322951 ], [ 11.53020687766471, 44.537973713508904 ], [ 11.530010978013628, 44.537735969541465 ] ] } },
{ "type": "Feature", "properties": { "CITY_NAME": "BUDRIO", "strokeColor": "#70CC81", "RGB": "112, 204, 129" }, "geometry": { "type": "LineString", "coordinates": [ [ 11.533577246393607, 44.535550565366655 ], [ 11.533885773882435, 44.536128683351194 ] ] } },
{ "type": "Feature", "properties": { "CITY_NAME": "BUDRIO", "strokeColor": "#70ACCC", "RGB": "112, 172, 204" }, "geometry": { "type": "LineString", "coordinates": [ [ 11.498316081268959, 44.555809994623438 ], [ 11.498207218247231, 44.555642435603183 ], [ 11.498093078799339, 44.55545722284463 ], [ 11.498029726886053, 44.555338328907233 ], [ 11.49800788392208, 44.555272077807992 ] ] } },
{ "type": "Feature", "properties": { "CITY_NAME": "BUDRIO", "strokeColor": "#B770CC", "RGB": "183, 112, 204" }, "geometry": { "type": "LineString", "coordinates": [ [ 11.528065769899062, 44.542072801386823 ], [ 11.528671264337101, 44.54184786880819 ], [ 11.528972231161175, 44.54172738216996 ] ] } },
{ "type": "Feature", "properties": { "CITY_NAME": "BUDRIO", "strokeColor": "#70CC81", "RGB": "112, 204, 129" }, "geometry": { "type": "LineString", "coordinates": [ [ 11.544065541840139, 44.535738417142696 ], [ 11.544143739429213, 44.53570367638121 ], [ 11.54421291462452, 44.535686346771037 ], [ 11.544294587365757, 44.535672437666982 ] ] } },
{ "type": "Feature", "properties": { "CITY_NAME": "BUDRIO", "strokeColor": "#70ACCC", "RGB": "112, 172, 204" }, "geometry": { "type": "LineString", "coordinates": [ [ 11.544198262713801, 44.535560164731756 ], [ 11.544201660992416, 44.535522320764436 ], [ 11.544213085786044, 44.535476883418717 ] ] } },
{ "type": "Feature", "properties": { "CITY_NAME": "BUDRIO", "strokeColor": "#B770CC", "RGB": "183, 112, 204" }, "geometry": { "type": "LineString", "coordinates": [ [ 11.536733617969951, 44.538677886230637 ], [ 11.537180862590482, 44.538508907237073 ] ] } },
{ "type": "Feature", "properties": { "CITY_NAME": "BUDRIO", "strokeColor": "#70ACCC", "RGB": "112, 172, 204" }, "geometry": { "type": "LineString", "coordinates": [ [ 11.498468378283869, 44.556034044074252 ], [ 11.498316081268959, 44.555809994623438 ] ] } },
{ "type": "Feature", "properties": { "CITY_NAME": "BUDRIO", "strokeColor": "#70CC81", "RGB": "112, 204, 129" }, "geometry": { "type": "LineString", "coordinates": [ [ 11.583526058356844, 44.614292378344693 ], [ 11.583317858296928, 44.613991060542546 ] ] } },
{ "type": "Feature", "properties": { "CITY_NAME": "BUDRIO", "strokeColor": "#70CC81", "RGB": "112, 204, 129" }, "geometry": { "type": "LineString", "coordinates": [ [ 11.583317858296928, 44.613991060542546 ], [ 11.583145405745402, 44.613741561348654 ], [ 11.582746030294297, 44.613135515649503 ] ] } },
{ "type": "Feature", "properties": { "CITY_NAME": "BUDRIO", "strokeColor": "#B770CC", "RGB": "183, 112, 204" }, "geometry": { "type": "LineString", "coordinates": [ [ 11.539037985933758, 44.538038934968426 ], [ 11.53919573577568, 44.538006638419681 ], [ 11.539474026312055, 44.537927768126728 ], [ 11.53992364841136, 44.53774463024584 ], [ 11.540099888122194, 44.537674744249863 ], [ 11.540689172864477, 44.537442010741621 ], [ 11.540751164268306, 44.537408921309684 ] ] } },
{ "type": "Feature", "properties": { "CITY_NAME": "BUDRIO", "strokeColor": "#70CC81", "RGB": "112, 204, 129" }, "geometry": { "type": "LineString", "coordinates": [ [ 11.585106815037456, 44.617249460866525 ], [ 11.585059873371222, 44.617160454168491 ], [ 11.584771406129482, 44.61642132581381 ], [ 11.584609891938898, 44.616060538395587 ], [ 11.584480557305932, 44.615778353912283 ], [ 11.58425761986074, 44.615418691257325 ], [ 11.583938047835797, 44.614914701848171 ], [ 11.583526058356844, 44.614292378344693 ] ] } },
{ "type": "Feature", "properties": { "CITY_NAME": "BUDRIO", "strokeColor": "#70CC81", "RGB": "112, 204, 129" }, "geometry": { "type": "LineString", "coordinates": [ [ 11.529340656205473, 44.536957427602786 ], [ 11.5297089514596, 44.536797068360706 ] ] } },
{ "type": "Feature", "properties": { "CITY_NAME": "BUDRIO", "strokeColor": "#B770CC", "RGB": "183, 112, 204" }, "geometry": { "type": "LineString", "coordinates": [ [ 11.532026922679997, 44.538727438137641 ], [ 11.531386961805891, 44.539036974420036 ], [ 11.531642430445141, 44.539377449287016 ], [ 11.532319861821055, 44.539069189556642 ], [ 11.532026922679997, 44.538727438137641 ] ] } },
{ "type": "Feature", "properties": { "CITY_NAME": "BUDRIO", "strokeColor": "#70CC81", "RGB": "112, 204, 129" }, "geometry": { "type": "LineString", "coordinates": [ [ 11.530665108702552, 44.538500952148603 ], [ 11.530413011300777, 44.538210769322951 ] ] } },
{ "type": "Feature", "properties": { "CITY_NAME": "BUDRIO", "strokeColor": "#B770CC", "RGB": "183, 112, 204" }, "geometry": { "type": "LineString", "coordinates": [ [ 11.531696035338353, 44.540497988423326 ], [ 11.532175955457344, 44.54116744285416 ] ] } },
{ "type": "Feature", "properties": { "CITY_NAME": "BUDRIO", "strokeColor": "#70CC81", "RGB": "112, 204, 129" }, "geometry": { "type": "LineString", "coordinates": [ [ 11.542597544765997, 44.536353193941977 ], [ 11.54277333494853, 44.53624560861968 ], [ 11.543124881909664, 44.536095317168758 ], [ 11.543780584984392, 44.535854484440506 ], [ 11.54386333713947, 44.535821227707821 ], [ 11.544065541840139, 44.535738417142696 ] ] } },
{ "type": "Feature", "properties": { "CITY_NAME": "BUDRIO", "strokeColor": "#B770CC", "RGB": "183, 112, 204" }, "geometry": { "type": "LineString", "coordinates": [ [ 11.53479574487053, 44.5393949783765 ], [ 11.535084365804154, 44.539290745399043 ] ] } },
{ "type": "Feature", "properties": { "CITY_NAME": "BUDRIO", "strokeColor": "#B770CC", "RGB": "183, 112, 204" }, "geometry": { "type": "LineString", "coordinates": [ [ 11.535696549648243, 44.536444011743662 ], [ 11.535191244604164, 44.535737647275511 ] ] } },
{ "type": "Feature", "properties": { "CITY_NAME": "BUDRIO", "strokeColor": "#70CC81", "RGB": "112, 204, 129" }, "geometry": { "type": "LineString", "coordinates": [ [ 11.583317858296928, 44.613991060542546 ], [ 11.582612975944459, 44.614177620862428 ] ] } },
{ "type": "Feature", "properties": { "CITY_NAME": "BUDRIO", "strokeColor": "#B770CC", "RGB": "183, 112, 204" }, "geometry": { "type": "LineString", "coordinates": [ [ 11.531856617587573, 44.537998119450897 ], [ 11.532303938662011, 44.537804806995609 ], [ 11.532612535077853, 44.537685997745868 ], [ 11.533161895079411, 44.537468804562543 ] ] } },
{ "type": "Feature", "properties": { "CITY_NAME": "BUDRIO", "strokeColor": "#B770CC", "RGB": "183, 112, 204" }, "geometry": { "type": "LineString", "coordinates": [ [ 11.541610491075682, 44.536926083058539 ], [ 11.541860461290955, 44.536786651119336 ], [ 11.542249271003518, 44.536574539661601 ], [ 11.542405032364085, 44.536475544678318 ] ] } },
{ "type": "Feature", "properties": { "CITY_NAME": "BUDRIO", "strokeColor": "#70ACCC", "RGB": "112, 172, 204" }, "geometry": { "type": "LineString", "coordinates": [ [ 11.533885773882435, 44.536128683351194 ], [ 11.534636214337231, 44.535883515181524 ] ] } },
{ "type": "Feature", "properties": { "CITY_NAME": "BUDRIO", "strokeColor": "#70CC81", "RGB": "112, 204, 129" }, "geometry": { "type": "LineString", "coordinates": [ [ 11.529015411115118, 44.536583953576219 ], [ 11.529383560078637, 44.536421702691271 ] ] } },
{ "type": "Feature", "properties": { "CITY_NAME": "BUDRIO", "strokeColor": "#B770CC", "RGB": "183, 112, 204" }, "geometry": { "type": "LineString", "coordinates": [ [ 11.530889673565158, 44.540834256294573 ], [ 11.531269241172993, 44.540669789065419 ], [ 11.531696035338353, 44.540497988423326 ] ] } },
{ "type": "Feature", "properties": { "CITY_NAME": "BUDRIO", "strokeColor": "#70CC81", "RGB": "112, 204, 129" }, "geometry": { "type": "LineString", "coordinates": [ [ 11.528714625368401, 44.536221219564787 ], [ 11.528374477973086, 44.535825375788157 ], [ 11.527991578070854, 44.535373536087604 ] ] } },
{ "type": "Feature", "properties": { "CITY_NAME": "BUDRIO", "strokeColor": "#70CC81", "RGB": "112, 204, 129" }, "geometry": { "type": "LineString", "coordinates": [ [ 11.535764986145908, 44.539050818808576 ], [ 11.5360519864204, 44.538948445091279 ] ] } },
{ "type": "Feature", "properties": { "CITY_NAME": "BUDRIO", "strokeColor": "#70CC81", "RGB": "112, 204, 129" }, "geometry": { "type": "LineString", "coordinates": [ [ 11.5360519864204, 44.538948445091279 ], [ 11.536246788091082, 44.538871524990434 ], [ 11.536423196206258, 44.53880666974117 ] ] } },
{ "type": "Feature", "properties": { "CITY_NAME": "BUDRIO", "strokeColor": "#70CC81", "RGB": "112, 204, 129" }, "geometry": { "type": "LineString", "coordinates": [ [ 11.544518269839873, 44.535660772382577 ], [ 11.54463738779496, 44.535676715108437 ], [ 11.544828535097446, 44.53573599860627 ], [ 11.545062125005277, 44.535823742105791 ], [ 11.545282085264242, 44.535933795690099 ], [ 11.545883978117192, 44.536320875600673 ] ] } },
{ "type": "Feature", "properties": { "CITY_NAME": "BUDRIO", "strokeColor": "#70ACCC", "RGB": "112, 172, 204" }, "geometry": { "type": "LineString", "coordinates": [ [ 11.498444470103786, 44.556208114632973 ], [ 11.498455147564295, 44.556166366848757 ], [ 11.498466742969811, 44.556117916424654 ], [ 11.498470855202498, 44.556073073251028 ], [ 11.498468378283869, 44.556034044074252 ] ] } },
{ "type": "Feature", "properties": { "CITY_NAME": "BUDRIO", "strokeColor": "#70CC81", "RGB": "112, 204, 129" }, "geometry": { "type": "LineString", "coordinates": [ [ 11.582746030294297, 44.613135515649503 ], [ 11.582546079026967, 44.612798967858488 ] ] } },
{ "type": "Feature", "properties": { "CITY_NAME": "BUDRIO", "strokeColor": "#70CC81", "RGB": "112, 204, 129" }, "geometry": { "type": "LineString", "coordinates": [ [ 11.582546079026967, 44.612798967858488 ], [ 11.582365932753206, 44.612557305274635 ] ] } },
{ "type": "Feature", "properties": { "CITY_NAME": "BUDRIO", "strokeColor": "#70CC81", "RGB": "112, 204, 129" }, "geometry": { "type": "LineString", "coordinates": [ [ 11.529648632585253, 44.537311084473444 ], [ 11.53023283050794, 44.537041643448646 ] ] } },
{ "type": "Feature", "properties": { "CITY_NAME": "BUDRIO", "strokeColor": "#70CC81", "RGB": "112, 204, 129" }, "geometry": { "type": "LineString", "coordinates": [ [ 11.529648632585253, 44.537311084473444 ], [ 11.529340656205473, 44.536957427602786 ] ] } },
{ "type": "Feature", "properties": { "CITY_NAME": "BUDRIO", "strokeColor": "#B770CC", "RGB": "183, 112, 204" }, "geometry": { "type": "LineString", "coordinates": [ [ 11.537353660807291, 44.535747123974133 ], [ 11.53808435298007, 44.536713642370657 ] ] } },
{ "type": "Feature", "properties": { "CITY_NAME": "BUDRIO", "strokeColor": "#70CC81", "RGB": "112, 204, 129" }, "geometry": { "type": "LineString", "coordinates": [ [ 11.532836513433795, 44.534451225874925 ], [ 11.533577246393607, 44.535550565366655 ] ] } },
{ "type": "Feature", "properties": { "CITY_NAME": "BUDRIO", "strokeColor": "#B770CC", "RGB": "183, 112, 204" }, "geometry": { "type": "LineString", "coordinates": [ [ 11.528972231161175, 44.54172738216996 ], [ 11.529391249686446, 44.541517184034497 ], [ 11.529648599863986, 44.541393304946418 ], [ 11.530102342885513, 44.541199431252721 ], [ 11.530380810578208, 44.541071623642615 ] ] } },
{ "type": "Feature", "properties": { "CITY_NAME": "BUDRIO", "strokeColor": "#B770CC", "RGB": "183, 112, 204" }, "geometry": { "type": "LineString", "coordinates": [ [ 11.532552204710761, 44.54019090493987 ], [ 11.533530253908809, 44.539856189036868 ] ] } },
{ "type": "Feature", "properties": { "CITY_NAME": "BUDRIO", "strokeColor": "#70CC81", "RGB": "112, 204, 129" }, "geometry": { "type": "LineString", "coordinates": [ [ 11.536475000189139, 44.539628928932821 ], [ 11.537251519987189, 44.539319583011107 ] ] } },
{ "type": "Feature", "properties": { "CITY_NAME": "BUDRIO", "strokeColor": "#B770CC", "RGB": "183, 112, 204" }, "geometry": { "type": "LineString", "coordinates": [ [ 11.537898943982462, 44.539415612330799 ], [ 11.537386351572382, 44.53895339322353 ], [ 11.537119573362347, 44.539082670409023 ], [ 11.536890815436152, 44.538859376811445 ], [ 11.536733617969951, 44.538677886230637 ] ] } },
{ "type": "Feature", "properties": { "CITY_NAME": "BUDRIO", "strokeColor": "#70ACCC", "RGB": "112, 172, 204" }, "geometry": { "type": "LineString", "coordinates": [ [ 11.495286960568182, 44.557175596729543 ], [ 11.495478148409196, 44.557127897142948 ], [ 11.496253979704772, 44.556999710428222 ], [ 11.49643888536729, 44.556945497383893 ], [ 11.496598510019904, 44.556889420741278 ], [ 11.497307572216265, 44.55663152914746 ], [ 11.498024997470997, 44.556372846043672 ], [ 11.498216370774362, 44.556301564793834 ], [ 11.498366452093519, 44.556245464083538 ], [ 11.498444470103786, 44.556208114632973 ] ] } },
{ "type": "Feature", "properties": { "CITY_NAME": "BUDRIO", "strokeColor": "#B770CC", "RGB": "183, 112, 204" }, "geometry": { "type": "LineString", "coordinates": [ [ 11.530380810578208, 44.541071623642615 ], [ 11.530635014193226, 44.540947874196092 ] ] } },
{ "type": "Feature", "properties": { "CITY_NAME": "BUDRIO", "strokeColor": "#B770CC", "RGB": "183, 112, 204" }, "geometry": { "type": "LineString", "coordinates": [ [ 11.537180862590482, 44.538508907237073 ], [ 11.537852177210599, 44.53831085121859 ] ] } },
{ "type": "Feature", "properties": { "CITY_NAME": "BUDRIO", "strokeColor": "#B770CC", "RGB": "183, 112, 204" }, "geometry": { "type": "LineString", "coordinates": [ [ 11.538617025567564, 44.538130183396895 ], [ 11.539037985933758, 44.538038934968426 ] ] } },
{ "type": "Feature", "properties": { "CITY_NAME": "BUDRIO", "strokeColor": "#70CC81", "RGB": "112, 204, 129" }, "geometry": { "type": "LineString", "coordinates": [ [ 11.582365932753206, 44.612557305274635 ], [ 11.582235880423639, 44.612409050520576 ], [ 11.582078928822321, 44.612232425419755 ], [ 11.58196001193547, 44.612145723543044 ], [ 11.581874820369121, 44.612107590918605 ], [ 11.581755816365931, 44.612078155104058 ], [ 11.581462182140058, 44.612050876664348 ], [ 11.581181278332188, 44.612025273891462 ], [ 11.580961447499158, 44.612006784047495 ], [ 11.580793375302623, 44.611955493475243 ], [ 11.580694124730545, 44.61188547445758 ], [ 11.580205822662688, 44.611191071396966 ], [ 11.57998205582893, 44.610869783530553 ] ] } },
{ "type": "Feature", "properties": { "CITY_NAME": "BUDRIO", "strokeColor": "#70CC81", "RGB": "112, 204, 129" }, "geometry": { "type": "LineString", "coordinates": [ [ 11.544065541840139, 44.535738417142696 ], [ 11.544119774205177, 44.535674166488448 ], [ 11.544168988542518, 44.535613735792083 ], [ 11.544198262713801, 44.535560164731756 ] ] } },
{ "type": "Feature", "properties": { "CITY_NAME": "BUDRIO", "strokeColor": "#B770CC", "RGB": "183, 112, 204" }, "geometry": { "type": "LineString", "coordinates": [ [ 11.533530253908809, 44.539856189036868 ], [ 11.534077996697178, 44.539659962710324 ] ] } },
{ "type": "Feature", "properties": { "CITY_NAME": "BUDRIO", "strokeColor": "#B770CC", "RGB": "183, 112, 204" }, "geometry": { "type": "LineString", "coordinates": [ [ 11.537353660807291, 44.535747123974133 ], [ 11.537743178851679, 44.535593256528934 ], [ 11.537905609038631, 44.535539391217768 ], [ 11.538063451078033, 44.53544576459236 ], [ 11.538104126439222, 44.535363061523867 ], [ 11.538111311673115, 44.535255854721264 ] ] } },
{ "type": "Feature", "properties": { "CITY_NAME": "BUDRIO", "strokeColor": "#B770CC", "RGB": "183, 112, 204" }, "geometry": { "type": "LineString", "coordinates": [ [ 11.535191244604164, 44.535737647275511 ], [ 11.535068111616646, 44.535756381389902 ], [ 11.534912849342556, 44.535746881360211 ], [ 11.5348343021096, 44.53571965029154 ], [ 11.534664935804473, 44.535440459011973 ] ] } },
{ "type": "Feature", "properties": { "CITY_NAME": "BUDRIO", "strokeColor": "#70CC81", "RGB": "112, 204, 129" }, "geometry": { "type": "LineString", "coordinates": [ [ 11.53023283050794, 44.537041643448646 ], [ 11.530795802061009, 44.536782194721894 ] ] } },
{ "type": "Feature", "properties": { "CITY_NAME": "BUDRIO", "strokeColor": "#B770CC", "RGB": "183, 112, 204" }, "geometry": { "type": "LineString", "coordinates": [ [ 11.536352059632412, 44.536172263698901 ], [ 11.537353660807291, 44.535747123974133 ] ] } },
{ "type": "Feature", "properties": { "CITY_NAME": "BUDRIO", "strokeColor": "#B770CC", "RGB": "183, 112, 204" }, "geometry": { "type": "LineString", "coordinates": [ [ 11.528972231161175, 44.54172738216996 ], [ 11.528761409994789, 44.541442864807969 ], [ 11.528592422452018, 44.541510745987921 ], [ 11.527886433563413, 44.540537045696766 ] ] } },
{ "type": "Feature", "properties": { "CITY_NAME": "BUDRIO", "strokeColor": "#B770CC", "RGB": "183, 112, 204" }, "geometry": { "type": "LineString", "coordinates": [ [ 11.531696035338353, 44.540497988423326 ], [ 11.532552204710761, 44.54019090493987 ] ] } },
{ "type": "Feature", "properties": { "CITY_NAME": "BUDRIO", "strokeColor": "#70CC81", "RGB": "112, 204, 129" }, "geometry": { "type": "LineString", "coordinates": [ [ 11.535764986145908, 44.539050818808576 ], [ 11.535543877158203, 44.538759109088801 ] ] } },
{ "type": "Feature", "properties": { "CITY_NAME": "BUDRIO", "strokeColor": "#B770CC", "RGB": "183, 112, 204" }, "geometry": { "type": "LineString", "coordinates": [ [ 11.536423196206258, 44.53880666974117 ], [ 11.53653347264035, 44.538760706424426 ], [ 11.536733617969951, 44.538677886230637 ] ] } },
{ "type": "Feature", "properties": { "CITY_NAME": "BUDRIO", "strokeColor": "#B770CC", "RGB": "183, 112, 204" }, "geometry": { "type": "LineString", "coordinates": [ [ 11.532026922679997, 44.538727438137641 ], [ 11.531609402160719, 44.538100934381653 ] ] } },
{ "type": "Feature", "properties": { "CITY_NAME": "BUDRIO", "strokeColor": "#B770CC", "RGB": "183, 112, 204" }, "geometry": { "type": "LineString", "coordinates": [ [ 11.531386856175972, 44.538190622463596 ], [ 11.531609402160719, 44.538100934381653 ] ] } },
{ "type": "Feature", "properties": { "CITY_NAME": "BUDRIO", "strokeColor": "#B770CC", "RGB": "183, 112, 204" }, "geometry": { "type": "LineString", "coordinates": [ [ 11.531609402160719, 44.538100934381653 ], [ 11.531856617587573, 44.537998119450897 ] ] } },
{ "type": "Feature", "properties": { "CITY_NAME": "BUDRIO", "strokeColor": "#70CC81", "RGB": "112, 204, 129" }, "geometry": { "type": "LineString", "coordinates": [ [ 11.529340656205473, 44.536957427602786 ], [ 11.529015411115118, 44.536583953576219 ] ] } },
{ "type": "Feature", "properties": { "CITY_NAME": "BUDRIO", "strokeColor": "#B770CC", "RGB": "183, 112, 204" }, "geometry": { "type": "LineString", "coordinates": [ [ 11.542405032364085, 44.536475544678318 ], [ 11.542597544765997, 44.536353193941977 ] ] } },
{ "type": "Feature", "properties": { "CITY_NAME": "BUDRIO", "strokeColor": "#B770CC", "RGB": "183, 112, 204" }, "geometry": { "type": "LineString", "coordinates": [ [ 11.535303778497793, 44.53568699689918 ], [ 11.535587835908453, 44.535589236847933 ], [ 11.535966169212264, 44.535449243828147 ] ] } },
{ "type": "Feature", "properties": { "CITY_NAME": "BUDRIO", "strokeColor": "#70ACCC", "RGB": "112, 172, 204" }, "geometry": { "type": "LineString", "coordinates": [ [ 11.538285749174142, 44.535030747119443 ], [ 11.538312723428856, 44.535073903048556 ], [ 11.538327643422814, 44.535128545067984 ], [ 11.538314160877341, 44.535179330068424 ], [ 11.538269100703703, 44.535222418858538 ] ] } },
{ "type": "Feature", "properties": { "CITY_NAME": "BUDRIO", "strokeColor": "#70CC81", "RGB": "112, 204, 129" }, "geometry": { "type": "LineString", "coordinates": [ [ 11.530010978013628, 44.537735969541465 ], [ 11.52988268134461, 44.537579856901644 ], [ 11.529648632585253, 44.537311084473444 ] ] } },
{ "type": "Feature", "properties": { "CITY_NAME": "BUDRIO", "strokeColor": "#B770CC", "RGB": "183, 112, 204" }, "geometry": { "type": "LineString", "coordinates": [ [ 11.53808435298007, 44.536713642370657 ], [ 11.53893194788602, 44.537890021034436 ], [ 11.539037985933758, 44.538038934968426 ] ] } },
{ "type": "Feature", "properties": { "CITY_NAME": "BUDRIO", "strokeColor": "#70CC81", "RGB": "112, 204, 129" }, "geometry": { "type": "LineString", "coordinates": [ [ 11.530995216936788, 44.536690299240696 ], [ 11.531996449186067, 44.536235461476174 ], [ 11.532068230176286, 44.536200772307602 ] ] } },
{ "type": "Feature", "properties": { "CITY_NAME": "BUDRIO", "strokeColor": "#70CC81", "RGB": "112, 204, 129" }, "geometry": { "type": "LineString", "coordinates": [ [ 11.528884194959982, 44.536433282568325 ], [ 11.528714625368401, 44.536221219564787 ] ] } },
{ "type": "Feature", "properties": { "CITY_NAME": "BUDRIO", "strokeColor": "#B770CC", "RGB": "183, 112, 204" }, "geometry": { "type": "LineString", "coordinates": [ [ 11.535191244604164, 44.535737647275511 ], [ 11.535303778497793, 44.53568699689918 ] ] } },
{ "type": "Feature", "properties": { "CITY_NAME": "BUDRIO", "strokeColor": "#70CC81", "RGB": "112, 204, 129" }, "geometry": { "type": "LineString", "coordinates": [ [ 11.532068230176286, 44.536200772307602 ], [ 11.532176441441477, 44.536163961439243 ], [ 11.533577246393607, 44.535550565366655 ] ] } },
{ "type": "Feature", "properties": { "CITY_NAME": "BUDRIO", "strokeColor": "#70ACCC", "RGB": "112, 172, 204" }, "geometry": { "type": "LineString", "coordinates": [ [ 11.494508097872442, 44.557550917216034 ], [ 11.494598345299684, 44.557482242760116 ], [ 11.494677933172223, 44.557439315150276 ], [ 11.494860604727135, 44.55735713776216 ], [ 11.495005858361086, 44.557296917634226 ], [ 11.495154680366038, 44.557225634483387 ], [ 11.495286960568182, 44.557175596729543 ] ] } },
{ "type": "Feature", "properties": { "CITY_NAME": "BUDRIO", "strokeColor": "#B770CC", "RGB": "183, 112, 204" }, "geometry": { "type": "LineString", "coordinates": [ [ 11.525327829615845, 44.543143700609733 ], [ 11.526072553473476, 44.54284609133024 ], [ 11.52674388823552, 44.542561127185813 ], [ 11.527085878326654, 44.542428089955969 ], [ 11.52772572261626, 44.542196215373053 ], [ 11.528065769899062, 44.542072801386823 ] ] } },
{ "type": "Feature", "properties": { "CITY_NAME": "BUDRIO", "strokeColor": "#70CC81", "RGB": "112, 204, 129" }, "geometry": { "type": "LineString", "coordinates": [ [ 11.531860660754743, 44.533398640910256 ], [ 11.532836513433795, 44.534451225874925 ] ] } },
{ "type": "Feature", "properties": { "CITY_NAME": "BUDRIO", "strokeColor": "#B770CC", "RGB": "183, 112, 204" }, "geometry": { "type": "LineString", "coordinates": [ [ 11.5300669080082, 44.538738123866111 ], [ 11.530460037828938, 44.538587757274307 ], [ 11.530665108702552, 44.538500952148603 ] ] } },
{ "type": "Feature", "properties": { "CITY_NAME": "BUDRIO", "strokeColor": "#B770CC", "RGB": "183, 112, 204" }, "geometry": { "type": "LineString", "coordinates": [ [ 11.530665108702552, 44.538500952148603 ], [ 11.531053051264522, 44.538336745534799 ], [ 11.53127818728899, 44.538236891753392 ] ] } },
{ "type": "Feature", "properties": { "CITY_NAME": "BUDRIO", "strokeColor": "#70CC81", "RGB": "112, 204, 129" }, "geometry": { "type": "LineString", "coordinates": [ [ 11.583592020635184, 44.612452956122283 ], [ 11.583295278098442, 44.612553096297589 ], [ 11.582805353654948, 44.612714366748513 ], [ 11.582546079026967, 44.612798967858488 ] ] } },
{ "type": "Feature", "properties": { "CITY_NAME": "BUDRIO", "strokeColor": "#B770CC", "RGB": "183, 112, 204" }, "geometry": { "type": "LineString", "coordinates": [ [ 11.534077996697178, 44.539659962710324 ], [ 11.534550441442743, 44.53948351254364 ] ] } },
{ "type": "Feature", "properties": { "CITY_NAME": "BUDRIO", "strokeColor": "#B770CC", "RGB": "183, 112, 204" }, "geometry": { "type": "LineString", "coordinates": [ [ 11.534550441442743, 44.53948351254364 ], [ 11.53479574487053, 44.5393949783765 ] ] } },
{ "type": "Feature", "properties": { "CITY_NAME": "BUDRIO", "strokeColor": "#B770CC", "RGB": "183, 112, 204" }, "geometry": { "type": "LineString", "coordinates": [ [ 11.535303778497793, 44.53568699689918 ], [ 11.535375766656708, 44.535402564259762 ] ] } },
{ "type": "Feature", "properties": { "CITY_NAME": "BUDRIO", "strokeColor": "#70ACCC", "RGB": "112, 172, 204" }, "geometry": { "type": "LineString", "coordinates": [ [ 11.544475915720451, 44.535412463252463 ], [ 11.544527261001175, 44.535296792321773 ], [ 11.544604344994989, 44.535108505889227 ], [ 11.544617392089451, 44.534872446537534 ], [ 11.544617213602431, 44.53464976177051 ], [ 11.544575036202058, 44.534357462443815 ] ] } },
{ "type": "Feature", "properties": { "CITY_NAME": "BUDRIO", "strokeColor": "#B770CC", "RGB": "183, 112, 204" }, "geometry": { "type": "LineString", "coordinates": [ [ 11.540751164268306, 44.537408921309684 ], [ 11.540953928343054, 44.537300675346735 ], [ 11.541261524225984, 44.537120676731654 ], [ 11.541610491075682, 44.536926083058539 ] ] } },
{ "type": "Feature", "properties": { "CITY_NAME": "BUDRIO", "strokeColor": "#70CC81", "RGB": "112, 204, 129" }, "geometry": { "type": "LineString", "coordinates": [ [ 11.530795802061009, 44.536782194721894 ], [ 11.530995216936788, 44.536690299240696 ] ] } },
{ "type": "Feature", "properties": { "CITY_NAME": "BUDRIO", "strokeColor": "#70ACCC", "RGB": "112, 172, 204" }, "geometry": { "type": "LineString", "coordinates": [ [ 11.49069821334955, 44.559062745047385 ], [ 11.493095506574184, 44.55816478798662 ] ] } },
{ "type": "Feature", "properties": { "CITY_NAME": "BUDRIO", "strokeColor": "#70CC81", "RGB": "112, 204, 129" }, "geometry": { "type": "LineString", "coordinates": [ [ 11.529015411115118, 44.536583953576219 ], [ 11.528884194959982, 44.536433282568325 ] ] } },
{ "type": "Feature", "properties": { "CITY_NAME": "BUDRIO", "strokeColor": "#70CC81", "RGB": "112, 204, 129" }, "geometry": { "type": "LineString", "coordinates": [ [ 11.527991578070854, 44.535373536087604 ], [ 11.527523613975223, 44.534843133218196 ] ] } },
{ "type": "Feature", "properties": { "CITY_NAME": "BUDRIO", "strokeColor": "#B770CC", "RGB": "183, 112, 204" }, "geometry": { "type": "LineString", "coordinates": [ [ 11.535084365804154, 44.539290745399043 ], [ 11.535764986145908, 44.539050818808576 ] ] } },
{ "type": "Feature", "properties": { "CITY_NAME": "BUDRIO", "strokeColor": "#B770CC", "RGB": "183, 112, 204" }, "geometry": { "type": "LineString", "coordinates": [ [ 11.537852177210599, 44.53831085121859 ], [ 11.538617025567564, 44.538130183396895 ] ] } },
{ "type": "Feature", "properties": { "CITY_NAME": "BUDRIO", "strokeColor": "#B770CC", "RGB": "183, 112, 204" }, "geometry": { "type": "LineString", "coordinates": [ [ 11.531386856175972, 44.538190622463596 ], [ 11.532026922679997, 44.538727438137641 ] ] } },
{ "type": "Feature", "properties": { "CITY_NAME": "BUDRIO", "strokeColor": "#B770CC", "RGB": "183, 112, 204" }, "geometry": { "type": "LineString", "coordinates": [ [ 11.53127818728899, 44.538236891753392 ], [ 11.531386856175972, 44.538190622463596 ] ] } },
{ "type": "Feature", "properties": { "CITY_NAME": "BUDRIO", "strokeColor": "#70ACCC", "RGB": "112, 172, 204" }, "geometry": { "type": "LineString", "coordinates": [ [ 11.493095506574184, 44.55816478798662 ], [ 11.49315807240327, 44.558123967114511 ], [ 11.494508097872442, 44.557550917216034 ] ] } },
{ "type": "Feature", "properties": { "CITY_NAME": "BUDRIO", "strokeColor": "#B770CC", "RGB": "183, 112, 204" }, "geometry": { "type": "LineString", "coordinates": [ [ 11.530635014193226, 44.540947874196092 ], [ 11.530889673565158, 44.540834256294573 ] ] } },
{ "type": "Feature", "properties": { "CITY_NAME": "BUDRIO", "strokeColor": "#70ACCC", "RGB": "112, 172, 204" }, "geometry": { "type": "LineString", "coordinates": [ [ 11.540762570149347, 44.53143423051052 ], [ 11.540762918943106, 44.531393705136033 ], [ 11.54078033813189, 44.531357418962969 ], [ 11.540824565824208, 44.531323508649123 ] ] } }
]
}
