{
"type": "FeatureCollection",
"name": "CAMUGNANO",
"crs": { "type": "name", "properties": { "name": "urn:ogc:def:crs:OGC:1.3:CRS84" } },
"features": [
{ "type": "Feature", "properties": { "CITY_NAME": "CAMUGNANO", "strokeColor": "#70ACCC", "RGB": "112, 172, 204" }, "geometry": { "type": "LineString", "coordinates": [ [ 11.059409002460406, 44.129467790545711 ], [ 11.059444898965468, 44.1293870883556 ], [ 11.059483617381428, 44.129305977838399 ], [ 11.059553202615229, 44.129118653615841 ], [ 11.059580184455085, 44.128977165530827 ], [ 11.059599292181288, 44.128809488922165 ], [ 11.059595512574681, 44.128587399682146 ], [ 11.059610653832413, 44.128381927470329 ], [ 11.059628101696408, 44.128277756384954 ], [ 11.059674852896409, 44.128182091418672 ] ] } },
{ "type": "Feature", "properties": { "CITY_NAME": "CAMUGNANO", "strokeColor": "#70ACCC", "RGB": "112, 172, 204" }, "geometry": { "type": "LineString", "coordinates": [ [ 11.092435940591162, 44.169815088913055 ], [ 11.092612262390888, 44.169891380112276 ], [ 11.092935119410351, 44.169979353394467 ], [ 11.093429436177095, 44.169999108505593 ], [ 11.093809664852628, 44.170021421587407 ], [ 11.09393026231662, 44.170052179470133 ], [ 11.094129028253791, 44.170107097643758 ], [ 11.094394243930365, 44.170208150121518 ], [ 11.094580650921595, 44.170294465465545 ], [ 11.094658278047534, 44.170340419247466 ], [ 11.094759802524136, 44.170480579240966 ], [ 11.09486364579044, 44.170618173945719 ] ] } },
{ "type": "Feature", "properties": { "CITY_NAME": "CAMUGNANO", "strokeColor": "#70ACCC", "RGB": "112, 172, 204" }, "geometry": { "type": "LineString", "coordinates": [ [ 11.088895949351349, 44.169021601366772 ], [ 11.088932776058932, 44.169075167535993 ], [ 11.089081208621678, 44.169170962738022 ] ] } },
{ "type": "Feature", "properties": { "CITY_NAME": "CAMUGNANO", "strokeColor": "#70ACCC", "RGB": "112, 172, 204" }, "geometry": { "type": "LineString", "coordinates": [ [ 11.086511936141401, 44.169200188334585 ], [ 11.086761378202644, 44.168980143849659 ], [ 11.086860442090106, 44.168891474684507 ] ] } },
{ "type": "Feature", "properties": { "CITY_NAME": "CAMUGNANO", "strokeColor": "#70ACCC", "RGB": "112, 172, 204" }, "geometry": { "type": "LineString", "coordinates": [ [ 11.088447608513791, 44.16869946516703 ], [ 11.088380935855225, 44.168752453008295 ], [ 11.088289702850888, 44.168925763907147 ], [ 11.088173805712968, 44.169216868033395 ], [ 11.088113616351597, 44.169350472998573 ] ] } },
{ "type": "Feature", "properties": { "CITY_NAME": "CAMUGNANO", "strokeColor": "#70ACCC", "RGB": "112, 172, 204" }, "geometry": { "type": "LineString", "coordinates": [ [ 11.086860442090106, 44.168891474684507 ], [ 11.087088577916523, 44.168687246488652 ], [ 11.087301606914217, 44.168506507459597 ], [ 11.087444771100831, 44.168444632360959 ], [ 11.087670170837788, 44.168358385909109 ] ] } },
{ "type": "Feature", "properties": { "CITY_NAME": "CAMUGNANO", "strokeColor": "#70ACCC", "RGB": "112, 172, 204" }, "geometry": { "type": "LineString", "coordinates": [ [ 11.088423189916554, 44.167718305273404 ], [ 11.088541047258383, 44.167684517513827 ], [ 11.088681488321498, 44.167676795465738 ], [ 11.088843836805843, 44.167676226980383 ], [ 11.089000383325185, 44.167714885408088 ], [ 11.089121445720815, 44.167769995870955 ], [ 11.0891994244105, 44.16783097397208 ], [ 11.089274642365785, 44.16791535287021 ], [ 11.089350322198186, 44.168012343758114 ], [ 11.089391656191182, 44.168157311926613 ], [ 11.089368353264774, 44.168311078436169 ], [ 11.089261914050189, 44.168461368423444 ], [ 11.089146473816413, 44.168562609551103 ], [ 11.088839985320632, 44.168737485562239 ] ] } },
{ "type": "Feature", "properties": { "CITY_NAME": "CAMUGNANO", "strokeColor": "#70ACCC", "RGB": "112, 172, 204" }, "geometry": { "type": "LineString", "coordinates": [ [ 11.084339598533949, 44.17062696343276 ], [ 11.084885282818192, 44.170238450239452 ] ] } },
{ "type": "Feature", "properties": { "CITY_NAME": "CAMUGNANO", "strokeColor": "#70ACCC", "RGB": "112, 172, 204" }, "geometry": { "type": "LineString", "coordinates": [ [ 11.090718994912692, 44.169829688570772 ], [ 11.090647866431015, 44.169779433002859 ], [ 11.090584734384702, 44.169745593922748 ], [ 11.090459019700781, 44.169735899703596 ], [ 11.090297314719701, 44.169751016660499 ], [ 11.090170185270619, 44.16980617724667 ], [ 11.090074564149724, 44.169831776548932 ], [ 11.090015587793221, 44.16983285148013 ], [ 11.089954651449851, 44.169811905658676 ], [ 11.089885156586709, 44.169761454959854 ], [ 11.089826810661613, 44.169705130956999 ], [ 11.089749210862491, 44.169656102434374 ], [ 11.089465586361301, 44.169533954999984 ] ] } },
{ "type": "Feature", "properties": { "CITY_NAME": "CAMUGNANO", "strokeColor": "#70ACCC", "RGB": "112, 172, 204" }, "geometry": { "type": "LineString", "coordinates": [ [ 11.08781513358041, 44.169483490476892 ], [ 11.087704487583578, 44.169518994870664 ], [ 11.087546254893072, 44.169585336678715 ], [ 11.087354462317759, 44.169658633475557 ] ] } },
{ "type": "Feature", "properties": { "CITY_NAME": "CAMUGNANO", "strokeColor": "#70ACCC", "RGB": "112, 172, 204" }, "geometry": { "type": "LineString", "coordinates": [ [ 11.088113616351597, 44.169350472998573 ], [ 11.08781513358041, 44.169483490476892 ] ] } },
{ "type": "Feature", "properties": { "CITY_NAME": "CAMUGNANO", "strokeColor": "#70ACCC", "RGB": "112, 172, 204" }, "geometry": { "type": "LineString", "coordinates": [ [ 11.089465586361301, 44.169533954999984 ], [ 11.08934195082996, 44.16934319878861 ], [ 11.089169400093752, 44.169330032308231 ], [ 11.089108203892078, 44.169301527315838 ], [ 11.089043870301769, 44.169219452960228 ], [ 11.089081208621678, 44.169170962738022 ] ] } },
{ "type": "Feature", "properties": { "CITY_NAME": "CAMUGNANO", "strokeColor": "#70ACCC", "RGB": "112, 172, 204" }, "geometry": { "type": "LineString", "coordinates": [ [ 11.087869634229008, 44.168282053837281 ], [ 11.087906292174344, 44.168365257007082 ], [ 11.087915227058582, 44.168480525488889 ], [ 11.087923471620101, 44.168643748789229 ], [ 11.087929401819352, 44.168708610047929 ], [ 11.087897586693044, 44.16876093595004 ], [ 11.087874351759689, 44.168784083599121 ], [ 11.087727849547502, 44.168791891160147 ] ] } },
{ "type": "Feature", "properties": { "CITY_NAME": "CAMUGNANO", "strokeColor": "#70ACCC", "RGB": "112, 172, 204" }, "geometry": { "type": "LineString", "coordinates": [ [ 11.089081208621678, 44.169170962738022 ], [ 11.089276007773954, 44.169183543135688 ], [ 11.089550590834412, 44.169156927881026 ], [ 11.089799896476549, 44.169130153350359 ], [ 11.09032863098313, 44.169087910075532 ], [ 11.090584255468158, 44.16906656134686 ], [ 11.090856854732262, 44.169042384885039 ] ] } },
{ "type": "Feature", "properties": { "CITY_NAME": "CAMUGNANO", "strokeColor": "#70ACCC", "RGB": "112, 172, 204" }, "geometry": { "type": "LineString", "coordinates": [ [ 11.082169148008489, 44.171912387492767 ], [ 11.082262821262379, 44.171833959881084 ], [ 11.082313825588505, 44.171786089684012 ], [ 11.08235826701995, 44.171748788090028 ] ] } },
{ "type": "Feature", "properties": { "CITY_NAME": "CAMUGNANO", "strokeColor": "#70ACCC", "RGB": "112, 172, 204" }, "geometry": { "type": "LineString", "coordinates": [ [ 11.057716359512566, 44.128315090723895 ], [ 11.057734202055807, 44.128133368023178 ], [ 11.057746659116166, 44.128011620320194 ], [ 11.057754036338103, 44.127939536238678 ], [ 11.057767968479173, 44.127876635167212 ] ] } },
{ "type": "Feature", "properties": { "CITY_NAME": "CAMUGNANO", "strokeColor": "#70ACCC", "RGB": "112, 172, 204" }, "geometry": { "type": "LineString", "coordinates": [ [ 11.060561257968592, 44.126409016337902 ], [ 11.060608437397862, 44.126298828402085 ], [ 11.060639940883012, 44.126239080612429 ], [ 11.060695544530216, 44.126113154419812 ], [ 11.060827453859014, 44.125830161082511 ], [ 11.060865373809191, 44.125745256144576 ], [ 11.060912489274099, 44.125652268796934 ], [ 11.060930742820474, 44.125622443341449 ], [ 11.060975253981987, 44.125595629117065 ], [ 11.061041725586461, 44.125571898246108 ], [ 11.061180822076285, 44.125555665204537 ] ] } },
{ "type": "Feature", "properties": { "CITY_NAME": "CAMUGNANO", "strokeColor": "#70ACCC", "RGB": "112, 172, 204" }, "geometry": { "type": "LineString", "coordinates": [ [ 11.090718994912692, 44.169829688570772 ], [ 11.090854834648214, 44.169814766414746 ], [ 11.090937246587602, 44.169824096212828 ], [ 11.091044793475016, 44.169860764437956 ], [ 11.091145216400994, 44.169900706886757 ], [ 11.09122963879231, 44.16993208686042 ], [ 11.091296574196541, 44.169947356443799 ], [ 11.091465634485356, 44.169982978739306 ], [ 11.091609225613926, 44.170015245494739 ], [ 11.091665444216058, 44.17003448253638 ], [ 11.091742762785982, 44.170069767232 ], [ 11.091782598288793, 44.17010316272242 ], [ 11.091912652037266, 44.170327469215792 ], [ 11.091947670423222, 44.170394386647708 ], [ 11.092006824989365, 44.170428083563365 ], [ 11.092069047206287, 44.170446585605681 ], [ 11.092120369019677, 44.170464010687297 ], [ 11.092216454320162, 44.170484459910291 ], [ 11.092285800692428, 44.170499685637893 ], [ 11.092380083623894, 44.170503760574718 ], [ 11.092484061920098, 44.170508932607206 ], [ 11.092642132179062, 44.170508136401068 ], [ 11.092715247973311, 44.17049427503612 ], [ 11.092790434277831, 44.17047091346496 ], [ 11.092862749223068, 44.170434983082828 ], [ 11.09295745645961, 44.17038416082535 ], [ 11.093016712280193, 44.170354131719641 ], [ 11.093130244501548, 44.170323178841656 ], [ 11.093263259063285, 44.170296943744781 ], [ 11.093379659998925, 44.17027856121922 ], [ 11.093482932583832, 44.170264188837209 ], [ 11.093556645529141, 44.170266720456851 ], [ 11.093632883991207, 44.170272363998009 ], [ 11.093748335307996, 44.170294375419545 ], [ 11.093884746981017, 44.170328646281085 ], [ 11.094224861646065, 44.170426242433528 ], [ 11.094440663968255, 44.17049185295722 ], [ 11.094615263609679, 44.170551876200804 ], [ 11.094701870477355, 44.170579376426289 ], [ 11.09486364579044, 44.170618173945719 ] ] } },
{ "type": "Feature", "properties": { "CITY_NAME": "CAMUGNANO", "strokeColor": "#70ACCC", "RGB": "112, 172, 204" }, "geometry": { "type": "LineString", "coordinates": [ [ 11.092830542020632, 44.172022173886717 ], [ 11.092908230428444, 44.172043952719172 ], [ 11.093023921885036, 44.172073508624486 ], [ 11.093097786193976, 44.17208106776998 ], [ 11.093161613882364, 44.172078069295729 ], [ 11.093282638481742, 44.172055781220948 ], [ 11.093614081450237, 44.171981267361751 ] ] } },
{ "type": "Feature", "properties": { "CITY_NAME": "CAMUGNANO", "strokeColor": "#70ACCC", "RGB": "112, 172, 204" }, "geometry": { "type": "LineString", "coordinates": [ [ 11.088113616351597, 44.169350472998573 ], [ 11.088100581471627, 44.169423261608763 ], [ 11.088083419844118, 44.169481619947135 ], [ 11.088045930100135, 44.169510078101943 ], [ 11.087974384534233, 44.169528449808858 ], [ 11.087909265214739, 44.169524622168815 ], [ 11.087858080255989, 44.169506657003772 ], [ 11.08781513358041, 44.169483490476892 ] ] } },
{ "type": "Feature", "properties": { "CITY_NAME": "CAMUGNANO", "strokeColor": "#70ACCC", "RGB": "112, 172, 204" }, "geometry": { "type": "LineString", "coordinates": [ [ 11.087670170837788, 44.168358385909109 ], [ 11.087869634229008, 44.168282053837281 ] ] } },
{ "type": "Feature", "properties": { "CITY_NAME": "CAMUGNANO", "strokeColor": "#70ACCC", "RGB": "112, 172, 204" }, "geometry": { "type": "LineString", "coordinates": [ [ 11.08769315933038, 44.169134429201634 ], [ 11.087214145258972, 44.169164871288068 ], [ 11.087071167392891, 44.169069163924085 ], [ 11.087032318058071, 44.168991685977417 ], [ 11.086936697108143, 44.168941765878387 ], [ 11.086967774471436, 44.168902077819503 ], [ 11.087052214715596, 44.168942116109442 ], [ 11.087149257184628, 44.168862711775283 ], [ 11.087376957203661, 44.16866856809461 ], [ 11.087412374085753, 44.168649608463937 ], [ 11.087545644888177, 44.168642047692281 ], [ 11.087547307199159, 44.168486217532688 ], [ 11.087654763186512, 44.168463370490848 ], [ 11.087659684919087, 44.168702343291287 ], [ 11.087672440225028, 44.168756349939379 ], [ 11.087695005622924, 44.168781786084296 ], [ 11.087727849547502, 44.168791891160147 ] ] } },
{ "type": "Feature", "properties": { "CITY_NAME": "CAMUGNANO", "strokeColor": "#70ACCC", "RGB": "112, 172, 204" }, "geometry": { "type": "LineString", "coordinates": [ [ 11.061180822076285, 44.125555665204537 ], [ 11.061192962635689, 44.125623221601074 ], [ 11.061220319329069, 44.125773768751372 ], [ 11.06124976592195, 44.125936564733173 ], [ 11.061285206859763, 44.126166677801109 ], [ 11.061300018028717, 44.126238560592938 ], [ 11.061310787582462, 44.126278268945526 ], [ 11.061332221017302, 44.12633528238073 ], [ 11.061397053543891, 44.126464490842309 ] ] } },
{ "type": "Feature", "properties": { "CITY_NAME": "CAMUGNANO", "strokeColor": "#70ACCC", "RGB": "112, 172, 204" }, "geometry": { "type": "LineString", "coordinates": [ [ 11.08769315933038, 44.169134429201634 ], [ 11.087712235723012, 44.169062161295976 ], [ 11.087724638498266, 44.169005156743616 ], [ 11.087725364856498, 44.168924403117934 ], [ 11.087727849547502, 44.168791891160147 ] ] } },
{ "type": "Feature", "properties": { "CITY_NAME": "CAMUGNANO", "strokeColor": "#70ACCC", "RGB": "112, 172, 204" }, "geometry": { "type": "LineString", "coordinates": [ [ 11.083289906649616, 44.172159547755513 ], [ 11.083434935474692, 44.172093777778031 ] ] } },
{ "type": "Feature", "properties": { "CITY_NAME": "CAMUGNANO", "strokeColor": "#70ACCC", "RGB": "112, 172, 204" }, "geometry": { "type": "LineString", "coordinates": [ [ 11.092830542020632, 44.172022173886717 ], [ 11.092755168992348, 44.171884385111198 ], [ 11.092686638812463, 44.171792780798775 ], [ 11.092646632763426, 44.171754965558605 ], [ 11.092420300169596, 44.171605465971567 ], [ 11.092183348354325, 44.171430876309032 ], [ 11.092091849652903, 44.171373040669572 ], [ 11.091990850099105, 44.171316741173413 ] ] } },
{ "type": "Feature", "properties": { "CITY_NAME": "CAMUGNANO", "strokeColor": "#70ACCC", "RGB": "112, 172, 204" }, "geometry": { "type": "LineString", "coordinates": [ [ 11.087354462317759, 44.169658633475557 ], [ 11.087286453814196, 44.169776592260312 ] ] } },
{ "type": "Feature", "properties": { "CITY_NAME": "CAMUGNANO", "strokeColor": "#70ACCC", "RGB": "112, 172, 204" }, "geometry": { "type": "LineString", "coordinates": [ [ 11.084885282818192, 44.170238450239452 ], [ 11.085083765222405, 44.170065689384614 ], [ 11.085212277889701, 44.169979108333671 ], [ 11.085366505107492, 44.169929012404651 ], [ 11.085615621203619, 44.169881565046865 ], [ 11.085774297879782, 44.169811022380841 ], [ 11.086054061226601, 44.169630415414488 ] ] } },
{ "type": "Feature", "properties": { "CITY_NAME": "CAMUGNANO", "strokeColor": "#70ACCC", "RGB": "112, 172, 204" }, "geometry": { "type": "LineString", "coordinates": [ [ 11.086054061226601, 44.169630415414488 ], [ 11.086297273561625, 44.169403728961498 ] ] } },
{ "type": "Feature", "properties": { "CITY_NAME": "CAMUGNANO", "strokeColor": "#70ACCC", "RGB": "112, 172, 204" }, "geometry": { "type": "LineString", "coordinates": [ [ 11.088839985320632, 44.168737485562239 ], [ 11.088728830520957, 44.168724440450752 ], [ 11.088447608513791, 44.16869946516703 ] ] } },
{ "type": "Feature", "properties": { "CITY_NAME": "CAMUGNANO", "strokeColor": "#70ACCC", "RGB": "112, 172, 204" }, "geometry": { "type": "LineString", "coordinates": [ [ 11.058480749579203, 44.129688403073189 ], [ 11.058542885771086, 44.129703170826332 ], [ 11.058610335036049, 44.129705581420467 ], [ 11.058685373770633, 44.129700640957807 ], [ 11.058738213243595, 44.129688520924205 ], [ 11.058817938848565, 44.129663350500344 ], [ 11.058972142805398, 44.129611869764702 ], [ 11.059177439945183, 44.129549467775732 ], [ 11.059303116975672, 44.129508257655608 ], [ 11.059409002460406, 44.129467790545711 ] ] } },
{ "type": "Feature", "properties": { "CITY_NAME": "CAMUGNANO", "strokeColor": "#70ACCC", "RGB": "112, 172, 204" }, "geometry": { "type": "LineString", "coordinates": [ [ 11.081288898495758, 44.12588755964191 ], [ 11.081319515593233, 44.125985464260381 ], [ 11.081349056011161, 44.126076946759781 ], [ 11.08137205449871, 44.126184511916513 ], [ 11.081387358068685, 44.126293627204625 ], [ 11.08139213729347, 44.126362960455594 ] ] } },
{ "type": "Feature", "properties": { "CITY_NAME": "CAMUGNANO", "strokeColor": "#70ACCC", "RGB": "112, 172, 204" }, "geometry": { "type": "LineString", "coordinates": [ [ 11.08235826701995, 44.171748788090028 ], [ 11.082493263719561, 44.171640765433139 ], [ 11.082757168366319, 44.171431383114601 ] ] } },
{ "type": "Feature", "properties": { "CITY_NAME": "CAMUGNANO", "strokeColor": "#70ACCC", "RGB": "112, 172, 204" }, "geometry": { "type": "LineString", "coordinates": [ [ 11.083434935474692, 44.172093777778031 ], [ 11.08346743108736, 44.171829549275451 ], [ 11.083575258688089, 44.171621356058132 ], [ 11.083614385455347, 44.171537246817614 ], [ 11.083639191838435, 44.171438922846669 ], [ 11.083653317351381, 44.171354849335088 ], [ 11.083657040132717, 44.171217208378948 ], [ 11.083640028009691, 44.171059732998991 ], [ 11.083640359238409, 44.170987279345127 ], [ 11.083669082384757, 44.17092157219632 ], [ 11.083717898086469, 44.170863610161 ], [ 11.083859505947297, 44.170797484316537 ], [ 11.084066424273134, 44.170725997055058 ], [ 11.084261300678452, 44.170655199168998 ], [ 11.084339598533949, 44.17062696343276 ] ] } },
{ "type": "Feature", "properties": { "CITY_NAME": "CAMUGNANO", "strokeColor": "#70ACCC", "RGB": "112, 172, 204" }, "geometry": { "type": "LineString", "coordinates": [ [ 11.048462357780858, 44.127613255705455 ], [ 11.048368095829902, 44.127618315473185 ], [ 11.048277118148764, 44.127635579411859 ], [ 11.048203024534439, 44.127663723237788 ], [ 11.048144033699295, 44.127703141756776 ], [ 11.048104358711461, 44.127740405999141 ], [ 11.048084124217082, 44.127789787302483 ], [ 11.048068728192346, 44.127833598925399 ], [ 11.04806801200575, 44.127886861646537 ], [ 11.048079997848802, 44.127954733713999 ], [ 11.048116845932725, 44.128046525941173 ], [ 11.048149214225603, 44.128143884102933 ], [ 11.048203775914027, 44.12826063127347 ], [ 11.048214499652744, 44.128353887757186 ], [ 11.048199755029984, 44.128449046927152 ], [ 11.048152980926197, 44.128543615541425 ], [ 11.048090122506293, 44.128605652614851 ], [ 11.047986152187217, 44.128673643349899 ], [ 11.047890995572313, 44.128715501927708 ], [ 11.047793179240248, 44.128742399013646 ], [ 11.047551327610355, 44.12879879975138 ], [ 11.047237654304368, 44.128875622778594 ], [ 11.046902369615976, 44.128950062947382 ], [ 11.04681817486726, 44.128965570077881 ], [ 11.046770216443768, 44.128969852626312 ], [ 11.046729073480444, 44.128963407326367 ], [ 11.046682558462743, 44.128946803733299 ], [ 11.046542832439092, 44.128881074960667 ], [ 11.046437719703377, 44.128840933844437 ], [ 11.046361844244434, 44.128816039494893 ], [ 11.046310930165538, 44.128807378805419 ], [ 11.046204788610227, 44.128800377498258 ], [ 11.046101278378524, 44.128807422435756 ], [ 11.045995493896168, 44.128819700126009 ], [ 11.045866062752491, 44.128843025933961 ], [ 11.045741975452444, 44.128875773067861 ], [ 11.045677550430844, 44.12890124728434 ], [ 11.045623225875373, 44.128928372672895 ], [ 11.045566749291538, 44.128976581382993 ], [ 11.045539609680395, 44.129022443251451 ], [ 11.045516047238317, 44.129110149675412 ], [ 11.045477180252508, 44.129239170955977 ], [ 11.045442273960646, 44.129278215199662 ], [ 11.045390577389835, 44.129308772212489 ], [ 11.045344505624458, 44.12932021116427 ], [ 11.045289523838569, 44.129322630091465 ], [ 11.045241212364772, 44.12931561129907 ], [ 11.045172893926505, 44.129289913687117 ], [ 11.045128260807402, 44.129253916343991 ], [ 11.045093196800405, 44.129214456977159 ], [ 11.045071785723994, 44.129165058541489 ], [ 11.045068283841237, 44.129062090416546 ], [ 11.045068188275598, 44.128985415231362 ], [ 11.045055743314448, 44.128903824014579 ], [ 11.04503021367055, 44.128860362156793 ], [ 11.044956214718201, 44.128804751524719 ], [ 11.044827769557443, 44.128719905780279 ], [ 11.044785678295989, 44.128684778402821 ], [ 11.044760649738492, 44.128655572959858 ], [ 11.044747154464259, 44.128617381161192 ], [ 11.04474339985148, 44.12858084618918 ], [ 11.044755904809447, 44.128516027575571 ], [ 11.044800329110462, 44.128408738693238 ], [ 11.044846851299292, 44.128289335436911 ], [ 11.044874333927888, 44.128169169304556 ], [ 11.044881999941373, 44.128109741961097 ], [ 11.04486859704792, 44.127926611722387 ], [ 11.04486828718272, 44.127854148421051 ], [ 11.044871409907458, 44.127798278534584 ], [ 11.044891023116165, 44.127742117865978 ], [ 11.044940907785287, 44.127647725351785 ], [ 11.04504782555998, 44.127458266653065 ], [ 11.045128664273438, 44.127330337683986 ], [ 11.045228468845165, 44.127166661500389 ], [ 11.045241353178666, 44.127122885333499 ], [ 11.04525215430106, 44.127081149669607 ], [ 11.045250760946464, 44.127039446037244 ], [ 11.045239687783987, 44.126997913063548 ], [ 11.045168164420023, 44.126875632382557 ], [ 11.045124833448318, 44.126802600752463 ], [ 11.045098849539661, 44.12675482372908 ], [ 11.045080007533823, 44.126695525346449 ], [ 11.045074132294127, 44.126659186805824 ], [ 11.045066213761752, 44.126572413330067 ], [ 11.045074839196824, 44.12646011052307 ], [ 11.045103548434586, 44.126310188611406 ], [ 11.045128553483414, 44.126208339498049 ], [ 11.045208442145979, 44.125918018254907 ], [ 11.04524437007046, 44.125834101287793 ], [ 11.045289608858079, 44.125749834789552 ], [ 11.045339861461896, 44.125665476673177 ], [ 11.045399965617099, 44.125586223319942 ], [ 11.045530334383535, 44.125442105185343 ], [ 11.045588618869941, 44.125383651839243 ], [ 11.045635955702442, 44.125351635083533 ], [ 11.045687585684265, 44.125319359540555 ], [ 11.045744650859584, 44.125288806141477 ], [ 11.04581708000466, 44.125264344490247 ], [ 11.045887785304313, 44.125247949867799 ], [ 11.045964599114683, 44.125239636809184 ], [ 11.046258624380924, 44.125223187772725 ], [ 11.046368206085154, 44.125215477506572 ], [ 11.04642873892954, 44.125204095009487 ], [ 11.046518836434714, 44.12516896630251 ], [ 11.046543169030423, 44.125145400309854 ], [ 11.046582007258923, 44.125094243559893 ], [ 11.046619067996652, 44.125043663340897 ], [ 11.046638862363899, 44.124981348167275 ], [ 11.046649828377241, 44.124902051053702 ], [ 11.046625463611317, 44.124857447759418 ], [ 11.0465770036027, 44.12478610123194 ], [ 11.046446334182436, 44.124625768964343 ], [ 11.046350467102235, 44.124507493154503 ], [ 11.046282787767277, 44.124426826929934 ], [ 11.046229759421346, 44.124354840956336 ], [ 11.04622065420439, 44.12429758574693 ], [ 11.046223037172837, 44.124229743183612 ], [ 11.046237265497687, 44.124151305965221 ], [ 11.046266947593432, 44.124030861433496 ], [ 11.046286696421403, 44.124001029518638 ], [ 11.046317198701059, 44.123904991264219 ], [ 11.046342564798058, 44.123795007355625 ], [ 11.046356791507495, 44.123716566545099 ], [ 11.046367320293017, 44.123656234268523 ], [ 11.046379933592673, 44.12361518535463 ], [ 11.046391312873919, 44.123569420204575 ], [ 11.046433377407535, 44.123507805264254 ], [ 11.046535726347333, 44.123392819804593 ], [ 11.046602507181973, 44.123319284674068 ], [ 11.046680767062954, 44.123236502833635 ], [ 11.046778909374284, 44.123117212519972 ], [ 11.046861787298036, 44.123023586342761 ], [ 11.046979161977021, 44.122879634583555 ], [ 11.047076210898744, 44.122760167339308 ], [ 11.047125285610445, 44.122685270201494 ], [ 11.047166872054149, 44.122611773118642 ], [ 11.047185147913776, 44.122559373188977 ], [ 11.047190282642161, 44.122510834391136 ], [ 11.047190270750322, 44.122458755989982 ], [ 11.047180256443836, 44.122407943573343 ], [ 11.047128968477786, 44.122315402356413 ], [ 11.047012474529796, 44.1221634127537 ], [ 11.046869478235042, 44.121991943505776 ], [ 11.046832903637201, 44.121920015795276 ], [ 11.04682716865589, 44.121889091089585 ], [ 11.046827322159276, 44.12186241655845 ], [ 11.046836370192333, 44.121823245615793 ], [ 11.046923782305372, 44.12169522176908 ], [ 11.046980059613043, 44.121610933159339 ], [ 11.0470195143787, 44.121548537377755 ], [ 11.047034688936591, 44.121499817715673 ] ] } },
{ "type": "Feature", "properties": { "CITY_NAME": "CAMUGNANO", "strokeColor": "#70ACCC", "RGB": "112, 172, 204" }, "geometry": { "type": "LineString", "coordinates": [ [ 11.059674852896409, 44.128182091418672 ], [ 11.059718697087392, 44.128122611091456 ], [ 11.059869943374236, 44.127940575996142 ], [ 11.059995429640828, 44.127785280088354 ], [ 11.060196207934812, 44.127559886922107 ], [ 11.060329085874889, 44.127413969989767 ], [ 11.060446093537328, 44.127293737952478 ], [ 11.060482960632148, 44.12725302417568 ], [ 11.06051070734606, 44.127217749877879 ], [ 11.060530939066096, 44.12718278853103 ], [ 11.060548823449258, 44.127142401938393 ], [ 11.060558728683025, 44.127079745141508 ], [ 11.06055071500329, 44.126997359910639 ], [ 11.060528751505998, 44.12678751077727 ], [ 11.060520615110981, 44.126701666053783 ], [ 11.060514776480479, 44.126659320774905 ], [ 11.06051062630881, 44.126624050295256 ], [ 11.060507294774274, 44.126581661579984 ], [ 11.060511502253139, 44.126539689628217 ], [ 11.060531113666801, 44.126487796491979 ], [ 11.060561257968592, 44.126409016337902 ] ] } },
{ "type": "Feature", "properties": { "CITY_NAME": "CAMUGNANO", "strokeColor": "#70ACCC", "RGB": "112, 172, 204" }, "geometry": { "type": "LineString", "coordinates": [ [ 11.086297273561625, 44.169403728961498 ], [ 11.086511936141401, 44.169200188334585 ] ] } },
{ "type": "Feature", "properties": { "CITY_NAME": "CAMUGNANO", "strokeColor": "#70ACCC", "RGB": "112, 172, 204" }, "geometry": { "type": "LineString", "coordinates": [ [ 11.090856854732262, 44.169042384885039 ], [ 11.090977471707728, 44.169073158144705 ], [ 11.091089240887079, 44.169126165198236 ], [ 11.091616942931239, 44.169398025492313 ], [ 11.091964690260101, 44.169585729862945 ], [ 11.092435940591162, 44.169815088913055 ] ] } },
{ "type": "Feature", "properties": { "CITY_NAME": "CAMUGNANO", "strokeColor": "#70ACCC", "RGB": "112, 172, 204" }, "geometry": { "type": "LineString", "coordinates": [ [ 11.07898541265307, 44.126092356704355 ], [ 11.079072856671058, 44.126034306169743 ], [ 11.079305183093126, 44.125908431453091 ], [ 11.079383235384681, 44.125870592630747 ], [ 11.079439771412421, 44.125844069936178 ], [ 11.079503273775785, 44.125822160502381 ], [ 11.079579033301387, 44.125801694304585 ], [ 11.07963909409898, 44.125795332835544 ], [ 11.079747765129195, 44.125796278905128 ], [ 11.079967426424925, 44.125798189713073 ], [ 11.080022579691907, 44.1257953782263 ], [ 11.080089898750774, 44.12579161946438 ], [ 11.080159644038208, 44.125785266784121 ], [ 11.080520659392684, 44.125711823986485 ], [ 11.080662869988235, 44.125684042289457 ], [ 11.080737205064025, 44.125675421473815 ], [ 11.08086996862666, 44.125676500093228 ], [ 11.081021847713968, 44.125680697319915 ], [ 11.081147381192924, 44.125680084237871 ], [ 11.081191274216808, 44.12569496595583 ], [ 11.081223285989374, 44.125719534573136 ], [ 11.081255748516485, 44.125746829214151 ], [ 11.081276218068655, 44.125813330435676 ], [ 11.081288898495758, 44.12588755964191 ] ] } },
{ "type": "Feature", "properties": { "CITY_NAME": "CAMUGNANO", "strokeColor": "#70ACCC", "RGB": "112, 172, 204" }, "geometry": { "type": "LineString", "coordinates": [ [ 11.082757168366319, 44.171431383114601 ], [ 11.08282107457784, 44.171387561026016 ], [ 11.082874136556788, 44.171305928490554 ], [ 11.08298643520107, 44.171116435539936 ], [ 11.083053396153941, 44.171084354305549 ], [ 11.083189045927817, 44.171075942246731 ], [ 11.083277396553157, 44.171106627126619 ], [ 11.083347425565201, 44.171186672354168 ], [ 11.083349636707702, 44.171340063028644 ], [ 11.083359454601345, 44.171479571752819 ], [ 11.083344066577769, 44.171570004612207 ], [ 11.083266454801015, 44.171707846574037 ], [ 11.08308536995437, 44.171896336624123 ], [ 11.083048574303982, 44.17197449084906 ], [ 11.08305996194569, 44.172049894394782 ], [ 11.083093221393082, 44.172110381527865 ], [ 11.083185342378931, 44.172153425513486 ], [ 11.083289906649616, 44.172159547755513 ] ] } },
{ "type": "Feature", "properties": { "CITY_NAME": "CAMUGNANO", "strokeColor": "#70ACCC", "RGB": "112, 172, 204" }, "geometry": { "type": "LineString", "coordinates": [ [ 11.087286453814196, 44.169776592260312 ], [ 11.087192531746124, 44.169819680746535 ], [ 11.087037611717832, 44.169887527831698 ], [ 11.086831995295526, 44.169976022377185 ], [ 11.086674440397248, 44.170045719532226 ], [ 11.086547353430889, 44.170098155483025 ], [ 11.086364885921494, 44.170190829466698 ], [ 11.086248272184712, 44.170246684858562 ], [ 11.086142015396589, 44.170302545390555 ], [ 11.08605328069557, 44.170354268437364 ], [ 11.085987857781831, 44.170389139494304 ], [ 11.08591642570333, 44.170416489288385 ], [ 11.085794409131443, 44.170454086570501 ], [ 11.08572296969299, 44.170470376120221 ], [ 11.085625565727552, 44.170488989074563 ], [ 11.085502834651741, 44.170506292695748 ], [ 11.085456978373852, 44.170520267423079 ], [ 11.085363164105003, 44.170564746106002 ], [ 11.085204191325047, 44.170662587274151 ], [ 11.085099113169402, 44.170746293378038 ], [ 11.085012357397732, 44.17083908924424 ], [ 11.084907312797856, 44.170923799298492 ], [ 11.084792227909862, 44.171017152732766 ], [ 11.084704620106844, 44.171096692509671 ], [ 11.084665228508674, 44.171142105517262 ], [ 11.084613285321453, 44.171211893844877 ], [ 11.084577283690493, 44.171277547732451 ], [ 11.084551089827279, 44.171337410064744 ], [ 11.084506797907602, 44.171392254042523 ], [ 11.08446156893489, 44.171493634806218 ], [ 11.084406060234572, 44.171658242598468 ], [ 11.084375158530838, 44.171733356471158 ], [ 11.084364680032751, 44.171791152897015 ], [ 11.084343027237024, 44.171837086487493 ], [ 11.084291124283586, 44.171893878915341 ] ] } },
{ "type": "Feature", "properties": { "CITY_NAME": "CAMUGNANO", "strokeColor": "#70ACCC", "RGB": "112, 172, 204" }, "geometry": { "type": "LineString", "coordinates": [ [ 11.088839985320632, 44.168737485562239 ], [ 11.088848722907503, 44.168779590599542 ], [ 11.08886740292251, 44.16893065606461 ], [ 11.088895949351349, 44.169021601366772 ] ] } },
{ "type": "Feature", "properties": { "CITY_NAME": "CAMUGNANO", "strokeColor": "#70ACCC", "RGB": "112, 172, 204" }, "geometry": { "type": "LineString", "coordinates": [ [ 11.087869634229008, 44.168282053837281 ], [ 11.087950324694319, 44.168217445420133 ], [ 11.088288292841201, 44.167813607339482 ], [ 11.088423189916554, 44.167718305273404 ] ] } },
{ "type": "Feature", "properties": { "CITY_NAME": "CAMUGNANO", "strokeColor": "#70ACCC", "RGB": "112, 172, 204" }, "geometry": { "type": "LineString", "coordinates": [ [ 11.091990850099105, 44.171316741173413 ], [ 11.091769439481322, 44.17123470724772 ] ] } },
{ "type": "Feature", "properties": { "CITY_NAME": "CAMUGNANO", "strokeColor": "#70ACCC", "RGB": "112, 172, 204" }, "geometry": { "type": "LineString", "coordinates": [ [ 11.091769439481322, 44.17123470724772 ], [ 11.091668755409009, 44.171187208475665 ], [ 11.091468439446823, 44.171121214546659 ], [ 11.091298158765969, 44.171051553350026 ], [ 11.091110693248256, 44.170956210263597 ], [ 11.09098570833317, 44.170889029549599 ], [ 11.090844697937104, 44.170794886266833 ], [ 11.09062302263462, 44.170606829544099 ], [ 11.090564196782143, 44.170549145348708 ], [ 11.090508136757615, 44.170468066460018 ], [ 11.090450117087341, 44.170372305217391 ], [ 11.090426832124583, 44.170257424811517 ], [ 11.090435570215492, 44.17019922213403 ], [ 11.090470706541218, 44.170136786424322 ], [ 11.090612062316168, 44.169975372947157 ], [ 11.090724072882452, 44.169902799469504 ], [ 11.090732711684469, 44.169874889375244 ], [ 11.090718994912692, 44.169829688570772 ] ] } }
]
}
