{
"type": "FeatureCollection",
"name": "CASALECCHIO_DI_RENO",
"crs": { "type": "name", "properties": { "name": "urn:ogc:def:crs:OGC:1.3:CRS84" } },
"features": [
{ "type": "Feature", "properties": { "CITY_NAME": "CASALECCHIO_DI_RENO", "strokeColor": "#B3B3B3", "RGB": "179, 179, 179" }, "geometry": { "type": "LineString", "coordinates": [ [ 11.270517349158665, 44.486395833928988 ], [ 11.270284568465804, 44.485652557763331 ] ] } },
{ "type": "Feature", "properties": { "CITY_NAME": "CASALECCHIO_DI_RENO", "strokeColor": "#B3B3B3", "RGB": "179, 179, 179" }, "geometry": { "type": "LineString", "coordinates": [ [ 11.272662838290239, 44.483522419043723 ], [ 11.27235791302167, 44.48343559118883 ] ] } },
{ "type": "Feature", "properties": { "CITY_NAME": "CASALECCHIO_DI_RENO", "strokeColor": "#70CC81", "RGB": "112, 204, 129" }, "geometry": { "type": "LineString", "coordinates": [ [ 11.277853789293069, 44.479910612792601 ], [ 11.277998978523685, 44.479866251437464 ], [ 11.278166370420539, 44.47982732102173 ], [ 11.278214509245748, 44.479794638738788 ], [ 11.278246287307443, 44.479746741738794 ] ] } },
{ "type": "Feature", "properties": { "CITY_NAME": "CASALECCHIO_DI_RENO", "strokeColor": "#70ACCC", "RGB": "112, 172, 204" }, "geometry": { "type": "LineString", "coordinates": [ [ 11.253670798044848, 44.484967615932241 ], [ 11.253659473549273, 44.485206710181252 ] ] } },
{ "type": "Feature", "properties": { "CITY_NAME": "CASALECCHIO_DI_RENO", "strokeColor": "#70ACCC", "RGB": "112, 172, 204" }, "geometry": { "type": "LineString", "coordinates": [ [ 11.26046004994264, 44.481229118906477 ], [ 11.260237353519122, 44.481325797869125 ], [ 11.259970345162278, 44.481412640526905 ], [ 11.259794920690497, 44.481425634380152 ], [ 11.259619680302006, 44.481443690089513 ] ] } },
{ "type": "Feature", "properties": { "CITY_NAME": "CASALECCHIO_DI_RENO", "strokeColor": "#70CC81", "RGB": "112, 204, 129" }, "geometry": { "type": "LineString", "coordinates": [ [ 11.277345747886697, 44.480145003020183 ], [ 11.277427394643396, 44.480098362058904 ], [ 11.27750540961423, 44.480064607811869 ], [ 11.277656527927601, 44.479987090821567 ], [ 11.277853789293069, 44.479910612792601 ] ] } },
{ "type": "Feature", "properties": { "CITY_NAME": "CASALECCHIO_DI_RENO", "strokeColor": "#70CC81", "RGB": "112, 204, 129" }, "geometry": { "type": "LineString", "coordinates": [ [ 11.276109814814895, 44.480218077064542 ], [ 11.276393419577477, 44.481085738402989 ] ] } },
{ "type": "Feature", "properties": { "CITY_NAME": "CASALECCHIO_DI_RENO", "strokeColor": "#70ACCC", "RGB": "112, 172, 204" }, "geometry": { "type": "LineString", "coordinates": [ [ 11.252580899819968, 44.481596619381726 ], [ 11.252310589582676, 44.481561064732993 ], [ 11.251383878557389, 44.481421102924436 ], [ 11.251086897996265, 44.48137121253378 ], [ 11.250828715185481, 44.481335582679414 ], [ 11.250598254647127, 44.481339828344552 ], [ 11.250445511649165, 44.481358830838396 ], [ 11.250278385039717, 44.481391161440293 ] ] } },
{ "type": "Feature", "properties": { "CITY_NAME": "CASALECCHIO_DI_RENO", "strokeColor": "#70ACCC", "RGB": "112, 172, 204" }, "geometry": { "type": "LineString", "coordinates": [ [ 11.245735484933784, 44.484411712915332 ], [ 11.245877312489423, 44.484734867673581 ], [ 11.246083602047646, 44.484701710887556 ], [ 11.24632485366681, 44.484665276632128 ] ] } },
{ "type": "Feature", "properties": { "CITY_NAME": "CASALECCHIO_DI_RENO", "strokeColor": "#70ACCC", "RGB": "112, 172, 204" }, "geometry": { "type": "LineString", "coordinates": [ [ 11.278185924269049, 44.482629731311739 ], [ 11.277558544924867, 44.482769830306168 ] ] } },
{ "type": "Feature", "properties": { "CITY_NAME": "CASALECCHIO_DI_RENO", "strokeColor": "#70ACCC", "RGB": "112, 172, 204" }, "geometry": { "type": "LineString", "coordinates": [ [ 11.255316378180087, 44.484652643919389 ], [ 11.255525531914877, 44.484792828906798 ] ] } },
{ "type": "Feature", "properties": { "CITY_NAME": "CASALECCHIO_DI_RENO", "strokeColor": "#B3B3B3", "RGB": "179, 179, 179" }, "geometry": { "type": "LineString", "coordinates": [ [ 11.254440401012376, 44.481918410227564 ], [ 11.254500392546063, 44.481904584918951 ], [ 11.254556336180954, 44.481883612225033 ], [ 11.254606802789795, 44.481851005566732 ], [ 11.254642088622683, 44.481816889182113 ], [ 11.254670805939458, 44.481775675219595 ], [ 11.254682879857638, 44.481727561766498 ], [ 11.254682456374494, 44.481682404926566 ], [ 11.254669189463385, 44.481633997930984 ] ] } },
{ "type": "Feature", "properties": { "CITY_NAME": "CASALECCHIO_DI_RENO", "strokeColor": "#70CC81", "RGB": "112, 204, 129" }, "geometry": { "type": "LineString", "coordinates": [ [ 11.280040430285693, 44.476489920951643 ], [ 11.280671173574241, 44.476192284367819 ] ] } },
{ "type": "Feature", "properties": { "CITY_NAME": "CASALECCHIO_DI_RENO", "strokeColor": "#70ACCC", "RGB": "112, 172, 204" }, "geometry": { "type": "LineString", "coordinates": [ [ 11.254806038966491, 44.484681139835352 ], [ 11.254862567354108, 44.48391795339861 ] ] } },
{ "type": "Feature", "properties": { "CITY_NAME": "CASALECCHIO_DI_RENO", "strokeColor": "#B3B3B3", "RGB": "179, 179, 179" }, "geometry": { "type": "LineString", "coordinates": [ [ 11.272228018832674, 44.46594603712709 ], [ 11.272446425712525, 44.465896203948709 ] ] } },
{ "type": "Feature", "properties": { "CITY_NAME": "CASALECCHIO_DI_RENO", "strokeColor": "#70ACCC", "RGB": "112, 172, 204" }, "geometry": { "type": "LineString", "coordinates": [ [ 11.275553770928619, 44.482317104271331 ], [ 11.275400911541857, 44.48215793766407 ], [ 11.275341698930907, 44.482124218361896 ], [ 11.275283756479325, 44.482125488460561 ], [ 11.273584248037871, 44.482373104832682 ] ] } },
{ "type": "Feature", "properties": { "CITY_NAME": "CASALECCHIO_DI_RENO", "strokeColor": "#70ACCC", "RGB": "112, 172, 204" }, "geometry": { "type": "LineString", "coordinates": [ [ 11.271201603956849, 44.481694000705389 ], [ 11.271074467728129, 44.481858106175949 ] ] } },
{ "type": "Feature", "properties": { "CITY_NAME": "CASALECCHIO_DI_RENO", "strokeColor": "#70ACCC", "RGB": "112, 172, 204" }, "geometry": { "type": "LineString", "coordinates": [ [ 11.260768440979581, 44.481003424829261 ], [ 11.26046004994264, 44.481229118906477 ] ] } },
{ "type": "Feature", "properties": { "CITY_NAME": "CASALECCHIO_DI_RENO", "strokeColor": "#70ACCC", "RGB": "112, 172, 204" }, "geometry": { "type": "LineString", "coordinates": [ [ 11.255316378180087, 44.484652643919389 ], [ 11.255353508574977, 44.484630200578991 ], [ 11.255520620813938, 44.484500387095324 ] ] } },
{ "type": "Feature", "properties": { "CITY_NAME": "CASALECCHIO_DI_RENO", "strokeColor": "#B3B3B3", "RGB": "179, 179, 179" }, "geometry": { "type": "LineString", "coordinates": [ [ 11.277285407541569, 44.485284546937031 ], [ 11.278595910381773, 44.485034576687603 ], [ 11.278715186921477, 44.485010357339156 ] ] } },
{ "type": "Feature", "properties": { "CITY_NAME": "CASALECCHIO_DI_RENO", "strokeColor": "#70ACCC", "RGB": "112, 172, 204" }, "geometry": { "type": "LineString", "coordinates": [ [ 11.253571406842989, 44.484275870344341 ], [ 11.253728094736775, 44.484624154327307 ] ] } },
{ "type": "Feature", "properties": { "CITY_NAME": "CASALECCHIO_DI_RENO", "strokeColor": "#70ACCC", "RGB": "112, 172, 204" }, "geometry": { "type": "LineString", "coordinates": [ [ 11.277558544924867, 44.482769830306168 ], [ 11.27718619818218, 44.482851703632882 ] ] } },
{ "type": "Feature", "properties": { "CITY_NAME": "CASALECCHIO_DI_RENO", "strokeColor": "#70ACCC", "RGB": "112, 172, 204" }, "geometry": { "type": "LineString", "coordinates": [ [ 11.27718619818218, 44.482851703632882 ], [ 11.277938454724893, 44.484425885912835 ] ] } },
{ "type": "Feature", "properties": { "CITY_NAME": "CASALECCHIO_DI_RENO", "strokeColor": "#70ACCC", "RGB": "112, 172, 204" }, "geometry": { "type": "LineString", "coordinates": [ [ 11.293268399885518, 44.486834576077946 ], [ 11.294180758387629, 44.485881572636053 ] ] } },
{ "type": "Feature", "properties": { "CITY_NAME": "CASALECCHIO_DI_RENO", "strokeColor": "#70CC81", "RGB": "112, 204, 129" }, "geometry": { "type": "LineString", "coordinates": [ [ 11.275123605026051, 44.475036113370457 ], [ 11.275206202522858, 44.475004456083731 ], [ 11.275313583217198, 44.474953972749383 ] ] } },
{ "type": "Feature", "properties": { "CITY_NAME": "CASALECCHIO_DI_RENO", "strokeColor": "#70ACCC", "RGB": "112, 172, 204" }, "geometry": { "type": "LineString", "coordinates": [ [ 11.253728094736775, 44.484624154327307 ], [ 11.253686967745946, 44.484721076292281 ], [ 11.253670798044848, 44.484967615932241 ] ] } },
{ "type": "Feature", "properties": { "CITY_NAME": "CASALECCHIO_DI_RENO", "strokeColor": "#70ACCC", "RGB": "112, 172, 204" }, "geometry": { "type": "LineString", "coordinates": [ [ 11.255520620813938, 44.484500387095324 ], [ 11.255743485224681, 44.484327285511675 ] ] } },
{ "type": "Feature", "properties": { "CITY_NAME": "CASALECCHIO_DI_RENO", "strokeColor": "#70ACCC", "RGB": "112, 172, 204" }, "geometry": { "type": "LineString", "coordinates": [ [ 11.271201603956849, 44.481694000705389 ], [ 11.271262989356279, 44.481930417705534 ] ] } },
{ "type": "Feature", "properties": { "CITY_NAME": "CASALECCHIO_DI_RENO", "strokeColor": "#70ACCC", "RGB": "112, 172, 204" }, "geometry": { "type": "LineString", "coordinates": [ [ 11.245459357382908, 44.484166036549411 ], [ 11.245735484933784, 44.484411712915332 ] ] } },
{ "type": "Feature", "properties": { "CITY_NAME": "CASALECCHIO_DI_RENO", "strokeColor": "#B3B3B3", "RGB": "179, 179, 179" }, "geometry": { "type": "LineString", "coordinates": [ [ 11.272662838290239, 44.483522419043723 ], [ 11.272753599567055, 44.483281198585495 ] ] } },
{ "type": "Feature", "properties": { "CITY_NAME": "CASALECCHIO_DI_RENO", "strokeColor": "#70ACCC", "RGB": "112, 172, 204" }, "geometry": { "type": "LineString", "coordinates": [ [ 11.277457289456631, 44.472458037279871 ], [ 11.277722394917538, 44.472299835900962 ], [ 11.277945761982263, 44.472138492110894 ], [ 11.278115230775661, 44.471962930717481 ], [ 11.278393247037563, 44.471804246860536 ], [ 11.278609519608711, 44.4717306883852 ], [ 11.278778207888269, 44.471589380351773 ] ] } },
{ "type": "Feature", "properties": { "CITY_NAME": "CASALECCHIO_DI_RENO", "strokeColor": "#70CC81", "RGB": "112, 204, 129" }, "geometry": { "type": "LineString", "coordinates": [ [ 11.278749351391285, 44.480659269686718 ], [ 11.280360522294478, 44.480239350191859 ] ] } },
{ "type": "Feature", "properties": { "CITY_NAME": "CASALECCHIO_DI_RENO", "strokeColor": "#B3B3B3", "RGB": "179, 179, 179" }, "geometry": { "type": "LineString", "coordinates": [ [ 11.245250755943479, 44.487472106831177 ], [ 11.245370760078321, 44.48749456494614 ], [ 11.245463285613875, 44.487525970062563 ], [ 11.245536676893536, 44.487562491351532 ], [ 11.24558777116674, 44.48759338703691 ], [ 11.245664951786891, 44.487645633275861 ] ] } },
{ "type": "Feature", "properties": { "CITY_NAME": "CASALECCHIO_DI_RENO", "strokeColor": "#70ACCC", "RGB": "112, 172, 204" }, "geometry": { "type": "LineString", "coordinates": [ [ 11.253728094736775, 44.484624154327307 ], [ 11.254806038966491, 44.484681139835352 ] ] } },
{ "type": "Feature", "properties": { "CITY_NAME": "CASALECCHIO_DI_RENO", "strokeColor": "#70ACCC", "RGB": "112, 172, 204" }, "geometry": { "type": "LineString", "coordinates": [ [ 11.25344633012069, 44.483959775751536 ], [ 11.253571406842989, 44.484275870344341 ] ] } },
{ "type": "Feature", "properties": { "CITY_NAME": "CASALECCHIO_DI_RENO", "strokeColor": "#70ACCC", "RGB": "112, 172, 204" }, "geometry": { "type": "LineString", "coordinates": [ [ 11.256816275779606, 44.481342427706799 ], [ 11.256588588559582, 44.481343253771847 ], [ 11.256388465150652, 44.481326371098625 ] ] } },
{ "type": "Feature", "properties": { "CITY_NAME": "CASALECCHIO_DI_RENO", "strokeColor": "#70ACCC", "RGB": "112, 172, 204" }, "geometry": { "type": "LineString", "coordinates": [ [ 11.250278385039717, 44.481391161440293 ], [ 11.250231491349647, 44.481412289449516 ], [ 11.250120348295109, 44.481467760333437 ], [ 11.249788610090215, 44.481662485535402 ], [ 11.249219468607313, 44.482034418000673 ] ] } },
{ "type": "Feature", "properties": { "CITY_NAME": "CASALECCHIO_DI_RENO", "strokeColor": "#70ACCC", "RGB": "112, 172, 204" }, "geometry": { "type": "LineString", "coordinates": [ [ 11.291691646892891, 44.485067342968094 ], [ 11.291564986139015, 44.485013447381164 ], [ 11.291391214977047, 44.484965488318721 ], [ 11.290983536691968, 44.484843123867073 ], [ 11.290787796737613, 44.484840568269227 ], [ 11.290716008899221, 44.484908034805471 ] ] } },
{ "type": "Feature", "properties": { "CITY_NAME": "CASALECCHIO_DI_RENO", "strokeColor": "#B3B3B3", "RGB": "179, 179, 179" }, "geometry": { "type": "LineString", "coordinates": [ [ 11.27194607155578, 44.465336418742005 ], [ 11.271676632241258, 44.464771990590201 ], [ 11.271363843461874, 44.464589799202116 ] ] } },
{ "type": "Feature", "properties": { "CITY_NAME": "CASALECCHIO_DI_RENO", "strokeColor": "#70ACCC", "RGB": "112, 172, 204" }, "geometry": { "type": "LineString", "coordinates": [ [ 11.254806038966491, 44.484681139835352 ], [ 11.255237361772766, 44.484691280374371 ], [ 11.255316378180087, 44.484652643919389 ] ] } },
{ "type": "Feature", "properties": { "CITY_NAME": "CASALECCHIO_DI_RENO", "strokeColor": "#70ACCC", "RGB": "112, 172, 204" }, "geometry": { "type": "LineString", "coordinates": [ [ 11.253571406842989, 44.484275870344341 ], [ 11.254313078841848, 44.484309709515529 ] ] } },
{ "type": "Feature", "properties": { "CITY_NAME": "CASALECCHIO_DI_RENO", "strokeColor": "#B3B3B3", "RGB": "179, 179, 179" }, "geometry": { "type": "LineString", "coordinates": [ [ 11.268678905628756, 44.47768969968925 ], [ 11.26958540479519, 44.478415416042068 ], [ 11.269451872128149, 44.478970057013079 ] ] } },
{ "type": "Feature", "properties": { "CITY_NAME": "CASALECCHIO_DI_RENO", "strokeColor": "#B3B3B3", "RGB": "179, 179, 179" }, "geometry": { "type": "LineString", "coordinates": [ [ 11.269309483859061, 44.48674501069523 ], [ 11.270349576057059, 44.486583625032068 ] ] } },
{ "type": "Feature", "properties": { "CITY_NAME": "CASALECCHIO_DI_RENO", "strokeColor": "#70ACCC", "RGB": "112, 172, 204" }, "geometry": { "type": "LineString", "coordinates": [ [ 11.255525531914877, 44.484792828906798 ], [ 11.256134935340835, 44.485195212859701 ] ] } },
{ "type": "Feature", "properties": { "CITY_NAME": "CASALECCHIO_DI_RENO", "strokeColor": "#B3B3B3", "RGB": "179, 179, 179" }, "geometry": { "type": "LineString", "coordinates": [ [ 11.245250755943479, 44.487472106831177 ], [ 11.244849286872128, 44.487210383960878 ] ] } },
{ "type": "Feature", "properties": { "CITY_NAME": "CASALECCHIO_DI_RENO", "strokeColor": "#70ACCC", "RGB": "112, 172, 204" }, "geometry": { "type": "LineString", "coordinates": [ [ 11.255525531914877, 44.484792828906798 ], [ 11.255644517865807, 44.484697721380222 ], [ 11.255660055285173, 44.484641890794379 ], [ 11.255647741493487, 44.484594174507933 ], [ 11.255520620813938, 44.484500387095324 ] ] } },
{ "type": "Feature", "properties": { "CITY_NAME": "CASALECCHIO_DI_RENO", "strokeColor": "#70ACCC", "RGB": "112, 172, 204" }, "geometry": { "type": "LineString", "coordinates": [ [ 11.270263583875723, 44.479528306681942 ], [ 11.270151642895813, 44.479860201269531 ], [ 11.270070797804982, 44.480515807284156 ], [ 11.270058440613468, 44.480634336523245 ], [ 11.270071624581375, 44.480740505930967 ], [ 11.270124234670293, 44.480825529218684 ], [ 11.270194720630435, 44.48088143635448 ], [ 11.270341053924268, 44.480944129152725 ], [ 11.270856494277218, 44.481088254770079 ], [ 11.271008224328456, 44.481169374831282 ], [ 11.271100694199083, 44.481245030618219 ], [ 11.271168154151612, 44.481348250250029 ], [ 11.271191389320608, 44.481536878814062 ], [ 11.271201603956849, 44.481694000705389 ] ] } }
]
}
