{
"type": "FeatureCollection",
"name": "CASALFIUMANESE",
"crs": { "type": "name", "properties": { "name": "urn:ogc:def:crs:OGC:1.3:CRS84" } },
"features": [
{ "type": "Feature", "properties": { "CITY_NAME": "CASALFIUMANESE", "strokeColor": "#70ACCC", "RGB": "112, 172, 204" }, "geometry": { "type": "LineString", "coordinates": [ [ 11.615266773656511, 44.297213925603032 ], [ 11.615300598949366, 44.296926885080538 ], [ 11.615418136044172, 44.296924193063148 ], [ 11.615771201747245, 44.296981511198304 ] ] } },
{ "type": "Feature", "properties": { "CITY_NAME": "CASALFIUMANESE", "strokeColor": "#B3B3B3", "RGB": "179, 179, 179" }, "geometry": { "type": "LineString", "coordinates": [ [ 11.624917161030861, 44.296143675148961 ], [ 11.625333494097873, 44.295639657244251 ], [ 11.625353881133233, 44.295604013535609 ], [ 11.625357363738905, 44.295560923472671 ], [ 11.62534583022601, 44.29547753293037 ], [ 11.625101258501939, 44.29507940092256 ], [ 11.625025268261163, 44.294965652413502 ], [ 11.625030860849963, 44.294891045452218 ], [ 11.625226874508549, 44.294628300562003 ], [ 11.625384203679163, 44.294458230383277 ], [ 11.625499449451894, 44.294604941615084 ] ] } },
{ "type": "Feature", "properties": { "CITY_NAME": "CASALFIUMANESE", "strokeColor": "#B3B3B3", "RGB": "179, 179, 179" }, "geometry": { "type": "LineString", "coordinates": [ [ 11.631362891731122, 44.298415652809872 ], [ 11.630758494213516, 44.297910798469289 ] ] } },
{ "type": "Feature", "properties": { "CITY_NAME": "CASALFIUMANESE", "strokeColor": "#70ACCC", "RGB": "112, 172, 204" }, "geometry": { "type": "LineString", "coordinates": [ [ 11.61611197218687, 44.297368945515316 ], [ 11.61605274091534, 44.297485789035356 ], [ 11.615826258237886, 44.297503520080042 ] ] } },
{ "type": "Feature", "properties": { "CITY_NAME": "CASALFIUMANESE", "strokeColor": "#B3B3B3", "RGB": "179, 179, 179" }, "geometry": { "type": "LineString", "coordinates": [ [ 11.626028964145734, 44.296636880025311 ], [ 11.625976800044629, 44.296537569216532 ], [ 11.625962656143143, 44.296454697041852 ] ] } },
{ "type": "Feature", "properties": { "CITY_NAME": "CASALFIUMANESE", "strokeColor": "#B3B3B3", "RGB": "179, 179, 179" }, "geometry": { "type": "LineString", "coordinates": [ [ 11.624917161030861, 44.296143675148961 ], [ 11.625828341434662, 44.29653697446814 ] ] } },
{ "type": "Feature", "properties": { "CITY_NAME": "CASALFIUMANESE", "strokeColor": "#B3B3B3", "RGB": "179, 179, 179" }, "geometry": { "type": "LineString", "coordinates": [ [ 11.625828341434662, 44.29653697446814 ], [ 11.625962656143143, 44.296454697041852 ] ] } },
{ "type": "Feature", "properties": { "CITY_NAME": "CASALFIUMANESE", "strokeColor": "#B3B3B3", "RGB": "179, 179, 179" }, "geometry": { "type": "LineString", "coordinates": [ [ 11.624469106156432, 44.29590003810214 ], [ 11.624076167979812, 44.295686371099748 ] ] } },
{ "type": "Feature", "properties": { "CITY_NAME": "CASALFIUMANESE", "strokeColor": "#B3B3B3", "RGB": "179, 179, 179" }, "geometry": { "type": "LineString", "coordinates": [ [ 11.630556626491508, 44.298052516337144 ], [ 11.630758494213516, 44.297910798469289 ] ] } },
{ "type": "Feature", "properties": { "CITY_NAME": "CASALFIUMANESE", "strokeColor": "#70ACCC", "RGB": "112, 172, 204" }, "geometry": { "type": "LineString", "coordinates": [ [ 11.616715262474116, 44.290502766828126 ], [ 11.616872843692091, 44.29064904489897 ], [ 11.617107786433021, 44.290875009233432 ], [ 11.61739057459725, 44.291129349422846 ], [ 11.617663464302241, 44.291381116011799 ], [ 11.618027183204543, 44.291713095280805 ], [ 11.618403326703737, 44.292060332617062 ], [ 11.618839013137778, 44.29245474220469 ], [ 11.619176362175827, 44.292780325728806 ], [ 11.619280076041385, 44.292866613707076 ] ] } },
{ "type": "Feature", "properties": { "CITY_NAME": "CASALFIUMANESE", "strokeColor": "#B3B3B3", "RGB": "179, 179, 179" }, "geometry": { "type": "LineString", "coordinates": [ [ 11.626028964145734, 44.296636880025311 ], [ 11.626185192789867, 44.296689423745519 ], [ 11.626306384384458, 44.296708545630814 ], [ 11.626446712270818, 44.296781427526554 ], [ 11.626489041474597, 44.296848234740487 ], [ 11.627515557893048, 44.297297966451097 ] ] } },
{ "type": "Feature", "properties": { "CITY_NAME": "CASALFIUMANESE", "strokeColor": "#70ACCC", "RGB": "112, 172, 204" }, "geometry": { "type": "LineString", "coordinates": [ [ 11.616216330027656, 44.29724228009713 ], [ 11.616312277763969, 44.297284376619892 ], [ 11.616353416002605, 44.297307254243037 ] ] } },
{ "type": "Feature", "properties": { "CITY_NAME": "CASALFIUMANESE", "strokeColor": "#70ACCC", "RGB": "112, 172, 204" }, "geometry": { "type": "LineString", "coordinates": [ [ 11.616353416002605, 44.297307254243037 ], [ 11.616456082552356, 44.297364351057894 ] ] } },
{ "type": "Feature", "properties": { "CITY_NAME": "CASALFIUMANESE", "strokeColor": "#70ACCC", "RGB": "112, 172, 204" }, "geometry": { "type": "LineString", "coordinates": [ [ 11.616353416002605, 44.297307254243037 ], [ 11.616247469579326, 44.297426205685952 ] ] } },
{ "type": "Feature", "properties": { "CITY_NAME": "CASALFIUMANESE", "strokeColor": "#70ACCC", "RGB": "112, 172, 204" }, "geometry": { "type": "LineString", "coordinates": [ [ 11.615403406733549, 44.297903179634019 ], [ 11.615347821390378, 44.297879653166078 ], [ 11.61538310742557, 44.297812434685916 ], [ 11.615557579990352, 44.297593993209617 ], [ 11.615522812488948, 44.297522526177836 ] ] } },
{ "type": "Feature", "properties": { "CITY_NAME": "CASALFIUMANESE", "strokeColor": "#B3B3B3", "RGB": "179, 179, 179" }, "geometry": { "type": "LineString", "coordinates": [ [ 11.625962656143143, 44.296454697041852 ], [ 11.626160983729338, 44.296206859119415 ], [ 11.626739524681867, 44.295546461799447 ] ] } },
{ "type": "Feature", "properties": { "CITY_NAME": "CASALFIUMANESE", "strokeColor": "#70ACCC", "RGB": "112, 172, 204" }, "geometry": { "type": "LineString", "coordinates": [ [ 11.621490478539773, 44.294487566616112 ], [ 11.621012907633473, 44.294215311217449 ], [ 11.620667711318982, 44.294027497775012 ], [ 11.620488429537607, 44.293916977273071 ], [ 11.620346186458972, 44.293821098292675 ], [ 11.620205304757668, 44.293699125675111 ], [ 11.620023949230836, 44.293537896041379 ], [ 11.619759184420271, 44.293295383675449 ], [ 11.619489403228169, 44.293061553763479 ], [ 11.619343414910189, 44.292938058736773 ], [ 11.619280076041385, 44.292866613707076 ] ] } },
{ "type": "Feature", "properties": { "CITY_NAME": "CASALFIUMANESE", "strokeColor": "#70ACCC", "RGB": "112, 172, 204" }, "geometry": { "type": "LineString", "coordinates": [ [ 11.615771201747245, 44.296981511198304 ], [ 11.615925189731604, 44.297040602346875 ] ] } },
{ "type": "Feature", "properties": { "CITY_NAME": "CASALFIUMANESE", "strokeColor": "#B3B3B3", "RGB": "179, 179, 179" }, "geometry": { "type": "LineString", "coordinates": [ [ 11.624469106156432, 44.29590003810214 ], [ 11.624740965759502, 44.295566011757508 ] ] } },
{ "type": "Feature", "properties": { "CITY_NAME": "CASALFIUMANESE", "strokeColor": "#70ACCC", "RGB": "112, 172, 204" }, "geometry": { "type": "LineString", "coordinates": [ [ 11.616456082552356, 44.297364351057894 ], [ 11.616354457790738, 44.297461199806285 ], [ 11.616247469579326, 44.297426205685952 ] ] } },
{ "type": "Feature", "properties": { "CITY_NAME": "CASALFIUMANESE", "strokeColor": "#70ACCC", "RGB": "112, 172, 204" }, "geometry": { "type": "LineString", "coordinates": [ [ 11.621756803481675, 44.291367016362571 ], [ 11.621875586467434, 44.291356810454218 ], [ 11.622482389931493, 44.291293687487254 ] ] } },
{ "type": "Feature", "properties": { "CITY_NAME": "CASALFIUMANESE", "strokeColor": "#70ACCC", "RGB": "112, 172, 204" }, "geometry": { "type": "LineString", "coordinates": [ [ 11.623633441506332, 44.290616541300757 ], [ 11.624933405800864, 44.290398750276658 ] ] } },
{ "type": "Feature", "properties": { "CITY_NAME": "CASALFIUMANESE", "strokeColor": "#B3B3B3", "RGB": "179, 179, 179" }, "geometry": { "type": "LineString", "coordinates": [ [ 11.631362891731122, 44.298415652809872 ], [ 11.631799980144976, 44.298165949918726 ], [ 11.632195424000788, 44.297956971874051 ], [ 11.632345477366577, 44.297857618447601 ], [ 11.632403812305748, 44.297842847348335 ], [ 11.632474064945454, 44.297843896576126 ], [ 11.632981423242612, 44.298047197985355 ], [ 11.633157752881012, 44.298112196490152 ], [ 11.633225674938707, 44.29813181595997 ], [ 11.633277229979537, 44.298133143859204 ], [ 11.63332788963236, 44.298115993450978 ], [ 11.633800797420479, 44.297830336673989 ], [ 11.634062376545577, 44.297672260876574 ], [ 11.634338042643336, 44.297506394266058 ], [ 11.634475064450086, 44.297423090962063 ] ] } },
{ "type": "Feature", "properties": { "CITY_NAME": "CASALFIUMANESE", "strokeColor": "#70ACCC", "RGB": "112, 172, 204" }, "geometry": { "type": "LineString", "coordinates": [ [ 11.619280076041385, 44.292866613707076 ], [ 11.619412271316868, 44.292765068972656 ], [ 11.619669796384461, 44.292569607122758 ], [ 11.619908787279696, 44.292386781469865 ], [ 11.620239390663057, 44.292141703853716 ], [ 11.620490488061138, 44.291963880126382 ], [ 11.620694593494358, 44.291814839918864 ], [ 11.620846903994126, 44.291699978403066 ], [ 11.621034871734231, 44.291568803239912 ], [ 11.621177854626376, 44.291462902573755 ], [ 11.621244228833147, 44.291432578489356 ], [ 11.62131370326682, 44.291415306561966 ], [ 11.621417235537201, 44.29140235257259 ], [ 11.621756803481675, 44.291367016362571 ] ] } },
{ "type": "Feature", "properties": { "CITY_NAME": "CASALFIUMANESE", "strokeColor": "#B3B3B3", "RGB": "179, 179, 179" }, "geometry": { "type": "LineString", "coordinates": [ [ 11.630758494213516, 44.297910798469289 ], [ 11.631027168334391, 44.297722178083596 ] ] } },
{ "type": "Feature", "properties": { "CITY_NAME": "CASALFIUMANESE", "strokeColor": "#B3B3B3", "RGB": "179, 179, 179" }, "geometry": { "type": "LineString", "coordinates": [ [ 11.630310084248126, 44.295804635798689 ], [ 11.631342683500675, 44.295076772062281 ], [ 11.632145940583976, 44.294533804956465 ], [ 11.632883135419174, 44.294043111882225 ], [ 11.633217713523756, 44.293813424981579 ], [ 11.633589837330751, 44.29356958364972 ], [ 11.63437559223904, 44.29304256319783 ], [ 11.634377754659186, 44.292997485791858 ], [ 11.63435779700764, 44.292965477775979 ] ] } },
{ "type": "Feature", "properties": { "CITY_NAME": "CASALFIUMANESE", "strokeColor": "#70ACCC", "RGB": "112, 172, 204" }, "geometry": { "type": "LineString", "coordinates": [ [ 11.615522812488948, 44.297522526177836 ], [ 11.615744128983648, 44.297555798827389 ], [ 11.615954307724589, 44.297555403745363 ], [ 11.616201452814501, 44.297552856559001 ], [ 11.616352505247095, 44.29755531928749 ], [ 11.616426489399466, 44.297537814639568 ], [ 11.616509461825439, 44.297524975334483 ] ] } },
{ "type": "Feature", "properties": { "CITY_NAME": "CASALFIUMANESE", "strokeColor": "#70ACCC", "RGB": "112, 172, 204" }, "geometry": { "type": "LineString", "coordinates": [ [ 11.615522812488948, 44.297522526177836 ], [ 11.615443476449345, 44.297504043542148 ], [ 11.615243021537736, 44.29744548245781 ], [ 11.615266773656511, 44.297213925603032 ] ] } },
{ "type": "Feature", "properties": { "CITY_NAME": "CASALFIUMANESE", "strokeColor": "#70ACCC", "RGB": "112, 172, 204" }, "geometry": { "type": "LineString", "coordinates": [ [ 11.631947002300201, 44.299360264701797 ], [ 11.631212197588047, 44.299045494874889 ] ] } },
{ "type": "Feature", "properties": { "CITY_NAME": "CASALFIUMANESE", "strokeColor": "#B3B3B3", "RGB": "179, 179, 179" }, "geometry": { "type": "LineString", "coordinates": [ [ 11.625828341434662, 44.29653697446814 ], [ 11.626028964145734, 44.296636880025311 ] ] } },
{ "type": "Feature", "properties": { "CITY_NAME": "CASALFIUMANESE", "strokeColor": "#70ACCC", "RGB": "112, 172, 204" }, "geometry": { "type": "LineString", "coordinates": [ [ 11.616247469579326, 44.297426205685952 ], [ 11.616140538722027, 44.297391229956595 ], [ 11.61611197218687, 44.297368945515316 ] ] } },
{ "type": "Feature", "properties": { "CITY_NAME": "CASALFIUMANESE", "strokeColor": "#70ACCC", "RGB": "112, 172, 204" }, "geometry": { "type": "LineString", "coordinates": [ [ 11.615925189731604, 44.297040602346875 ], [ 11.615856949744952, 44.297121480774877 ] ] } },
{ "type": "Feature", "properties": { "CITY_NAME": "CASALFIUMANESE", "strokeColor": "#B3B3B3", "RGB": "179, 179, 179" }, "geometry": { "type": "LineString", "coordinates": [ [ 11.624917161030861, 44.296143675148961 ], [ 11.624469106156432, 44.29590003810214 ] ] } },
{ "type": "Feature", "properties": { "CITY_NAME": "CASALFIUMANESE", "strokeColor": "#70ACCC", "RGB": "112, 172, 204" }, "geometry": { "type": "LineString", "coordinates": [ [ 11.615826258237886, 44.297503520080042 ], [ 11.615691828890526, 44.297509631734229 ], [ 11.615522812488948, 44.297522526177836 ] ] } },
{ "type": "Feature", "properties": { "CITY_NAME": "CASALFIUMANESE", "strokeColor": "#70ACCC", "RGB": "112, 172, 204" }, "geometry": { "type": "LineString", "coordinates": [ [ 11.622482389931493, 44.291293687487254 ], [ 11.622805235507554, 44.291266411718418 ], [ 11.62327921563941, 44.291216203313489 ], [ 11.623546394262974, 44.291190356839536 ], [ 11.623782014751932, 44.291158380372984 ] ] } },
{ "type": "Feature", "properties": { "CITY_NAME": "CASALFIUMANESE", "strokeColor": "#70ACCC", "RGB": "112, 172, 204" }, "geometry": { "type": "LineString", "coordinates": [ [ 11.616581603437334, 44.297429171378582 ], [ 11.616456082552356, 44.297364351057894 ] ] } },
{ "type": "Feature", "properties": { "CITY_NAME": "CASALFIUMANESE", "strokeColor": "#70ACCC", "RGB": "112, 172, 204" }, "geometry": { "type": "LineString", "coordinates": [ [ 11.615925189731604, 44.297040602346875 ], [ 11.616080096232075, 44.297092851716897 ], [ 11.616214215243296, 44.297194684860344 ], [ 11.616216330027656, 44.29724228009713 ] ] } },
{ "type": "Feature", "properties": { "CITY_NAME": "CASALFIUMANESE", "strokeColor": "#70ACCC", "RGB": "112, 172, 204" }, "geometry": { "type": "LineString", "coordinates": [ [ 11.623782014751932, 44.291158380372984 ], [ 11.623633441506332, 44.290616541300757 ] ] } }
]
}
