{
"type": "FeatureCollection",
"name": "CASTEL_D_AIANO",
"crs": { "type": "name", "properties": { "name": "urn:ogc:def:crs:OGC:1.3:CRS84" } },
"features": [
{ "type": "Feature", "properties": { "CITY_NAME": "CASTEL_D_AIANO", "strokeColor": "#70ACCC", "RGB": "112, 172, 204" }, "geometry": { "type": "LineString", "coordinates": [ [ 10.978279526343023, 44.295375164007424 ], [ 10.977706367279023, 44.295661641022882 ] ] } },
{ "type": "Feature", "properties": { "CITY_NAME": "CASTEL_D_AIANO", "strokeColor": "#70ACCC", "RGB": "112, 172, 204" }, "geometry": { "type": "LineString", "coordinates": [ [ 11.032427359528361, 44.290789872417548 ], [ 11.03243116957154, 44.290727012965249 ], [ 11.032432269481429, 44.290651865976052 ], [ 11.032433210426124, 44.290571711700814 ], [ 11.032472184085959, 44.290480866522536 ], [ 11.03254445047272, 44.290449532076131 ], [ 11.032600236273398, 44.290448541742933 ], [ 11.033137055355667, 44.290769581860097 ], [ 11.033196704286592, 44.290781043683701 ], [ 11.033311737553662, 44.290779002509254 ], [ 11.033419176387097, 44.290757060506344 ], [ 11.033623065952826, 44.29069584144704 ], [ 11.033675742781806, 44.290707428093867 ], [ 11.033763752928992, 44.290996535415921 ] ] } },
{ "type": "Feature", "properties": { "CITY_NAME": "CASTEL_D_AIANO", "strokeColor": "#70ACCC", "RGB": "112, 172, 204" }, "geometry": { "type": "LineString", "coordinates": [ [ 10.987048572243417, 44.295335738187347 ], [ 10.987073401474039, 44.295391544532791 ] ] } },
{ "type": "Feature", "properties": { "CITY_NAME": "CASTEL_D_AIANO", "strokeColor": "#70ACCC", "RGB": "112, 172, 204" }, "geometry": { "type": "LineString", "coordinates": [ [ 10.985254938935334, 44.292960508376012 ], [ 10.985135295371123, 44.293097667136891 ], [ 10.985027089093254, 44.29315641690993 ], [ 10.984756954655483, 44.293259390153956 ], [ 10.984657857528143, 44.293306634881795 ], [ 10.984577983238177, 44.293360872891988 ], [ 10.984460048059351, 44.293461003811075 ], [ 10.984350097073468, 44.293650288460299 ], [ 10.984237809298245, 44.293782688244377 ], [ 10.98415545956032, 44.293848757374434 ], [ 10.983436111271114, 44.294135842535844 ], [ 10.983335654208984, 44.294190721688402 ], [ 10.983167563312875, 44.294318989515837 ], [ 10.983079699855686, 44.294404114641608 ], [ 10.983010969489605, 44.294529867033617 ], [ 10.982885031960409, 44.294792303671755 ], [ 10.982790738918583, 44.294978473562701 ], [ 10.982763313393527, 44.295081165144367 ], [ 10.982774249658858, 44.295159573280571 ], [ 10.982805041196618, 44.295251679362408 ], [ 10.982920987690932, 44.295431719909978 ], [ 10.982956497548544, 44.295492430116894 ], [ 10.982960671655642, 44.295564326825136 ], [ 10.982902803081338, 44.295677096480503 ], [ 10.982859770805096, 44.295734346861586 ] ] } },
{ "type": "Feature", "properties": { "CITY_NAME": "CASTEL_D_AIANO", "strokeColor": "#70ACCC", "RGB": "112, 172, 204" }, "geometry": { "type": "LineString", "coordinates": [ [ 11.032427359528361, 44.290789872417548 ], [ 11.032430872279997, 44.290789529901801 ], [ 11.032445601915713, 44.290851970224942 ], [ 11.032527206207059, 44.291005787993925 ], [ 11.032668817629347, 44.291157670508312 ] ] } },
{ "type": "Feature", "properties": { "CITY_NAME": "CASTEL_D_AIANO", "strokeColor": "#70ACCC", "RGB": "112, 172, 204" }, "geometry": { "type": "LineString", "coordinates": [ [ 11.033075592134614, 44.292977872130734 ], [ 11.033181908620085, 44.292823283630668 ], [ 11.033271391195996, 44.29268428441344 ], [ 11.033342766852142, 44.292573338294453 ], [ 11.03347137183415, 44.292379607733686 ], [ 11.033524250613683, 44.292295988794805 ], [ 11.033599619070072, 44.292176191773471 ], [ 11.033674926416104, 44.292105317543395 ], [ 11.033780573428748, 44.29201638053059 ], [ 11.033870567478363, 44.291963497055796 ] ] } },
{ "type": "Feature", "properties": { "CITY_NAME": "CASTEL_D_AIANO", "strokeColor": "#70ACCC", "RGB": "112, 172, 204" }, "geometry": { "type": "LineString", "coordinates": [ [ 11.0323868806042, 44.29171810504635 ], [ 11.032419908468935, 44.291644361406284 ], [ 11.032450210544363, 44.29157223007816 ], [ 11.03254811826088, 44.291325040329077 ], [ 11.0325757999156, 44.291277706383639 ], [ 11.03262209532066, 44.291215097169314 ], [ 11.032668817629347, 44.291157670508312 ] ] } },
{ "type": "Feature", "properties": { "CITY_NAME": "CASTEL_D_AIANO", "strokeColor": "#70ACCC", "RGB": "112, 172, 204" }, "geometry": { "type": "LineString", "coordinates": [ [ 11.034918888111875, 44.293518963442651 ], [ 11.034975637932019, 44.2934830982487 ], [ 11.035011212175082, 44.293459835459018 ], [ 11.0350614915042, 44.293434491089265 ], [ 11.03513555344359, 44.293408915476121 ], [ 11.03520492511857, 44.293383237954302 ], [ 11.035284214368209, 44.293362683619016 ], [ 11.035322452404685, 44.29335343487606 ], [ 11.0353736116157, 44.293352545459733 ], [ 11.035441216766547, 44.293347900341629 ], [ 11.035533588283293, 44.293360174867303 ], [ 11.03566043722442, 44.293378790299997 ], [ 11.036104032215798, 44.293453092804938 ], [ 11.036416263982703, 44.293503382285813 ], [ 11.036650110219997, 44.293539327506345 ], [ 11.036784312113026, 44.293561478316263 ], [ 11.036933182741686, 44.293590316627963 ], [ 11.037060559211206, 44.293622817962913 ], [ 11.037165838365368, 44.293652415637922 ], [ 11.037208459974449, 44.293669307190925 ] ] } },
{ "type": "Feature", "properties": { "CITY_NAME": "CASTEL_D_AIANO", "strokeColor": "#70ACCC", "RGB": "112, 172, 204" }, "geometry": { "type": "LineString", "coordinates": [ [ 10.986445121389364, 44.295410613023463 ], [ 10.986614854591407, 44.295387131700572 ], [ 10.986756772398307, 44.295373199119354 ], [ 10.986934007810254, 44.295350207988228 ] ] } },
{ "type": "Feature", "properties": { "CITY_NAME": "CASTEL_D_AIANO", "strokeColor": "#70ACCC", "RGB": "112, 172, 204" }, "geometry": { "type": "LineString", "coordinates": [ [ 10.977706367279023, 44.295661641022882 ], [ 10.977599549831522, 44.295710704972457 ] ] } },
{ "type": "Feature", "properties": { "CITY_NAME": "CASTEL_D_AIANO", "strokeColor": "#70ACCC", "RGB": "112, 172, 204" }, "geometry": { "type": "LineString", "coordinates": [ [ 10.987048572243417, 44.295335738187347 ], [ 10.98706486202042, 44.295266344840911 ], [ 10.987108426884369, 44.295157388044267 ], [ 10.987108697163473, 44.295117059344335 ], [ 10.987103033443473, 44.295085240819553 ], [ 10.986984984229426, 44.294911410802378 ], [ 10.986788912505473, 44.294591163706173 ], [ 10.986745809678643, 44.29455625227321 ], [ 10.986654289046543, 44.294524958822379 ] ] } },
{ "type": "Feature", "properties": { "CITY_NAME": "CASTEL_D_AIANO", "strokeColor": "#70ACCC", "RGB": "112, 172, 204" }, "geometry": { "type": "LineString", "coordinates": [ [ 10.979927546358013, 44.29440921334259 ], [ 10.980195583911868, 44.294292117332247 ], [ 10.980319123240637, 44.29426371429944 ], [ 10.980450432122145, 44.294264782426794 ], [ 10.980560948456338, 44.294291018553231 ], [ 10.980782548077256, 44.2943600063793 ], [ 10.980866898560436, 44.294372942367822 ], [ 10.980934383947037, 44.294367590683393 ], [ 10.980972427946011, 44.294332469364399 ], [ 10.981058344693267, 44.294153929490776 ], [ 10.981124726254896, 44.293879328987593 ], [ 10.981132858220636, 44.293800674470184 ], [ 10.981106371676711, 44.29373848549848 ], [ 10.981004445645024, 44.293646673157184 ], [ 10.980839310371641, 44.293538983182977 ] ] } },
{ "type": "Feature", "properties": { "CITY_NAME": "CASTEL_D_AIANO", "strokeColor": "#70ACCC", "RGB": "112, 172, 204" }, "geometry": { "type": "LineString", "coordinates": [ [ 11.03319484628584, 44.291659440254605 ], [ 11.033244041215513, 44.291670571431304 ], [ 11.033363115866644, 44.291685811329195 ], [ 11.033480217415777, 44.291706380846676 ], [ 11.033565391250178, 44.291720578531454 ], [ 11.033628893748894, 44.291733332734438 ], [ 11.033726803688516, 44.291761181436215 ], [ 11.033770895847477, 44.291772232215493 ] ] } },
{ "type": "Feature", "properties": { "CITY_NAME": "CASTEL_D_AIANO", "strokeColor": "#70ACCC", "RGB": "112, 172, 204" }, "geometry": { "type": "LineString", "coordinates": [ [ 11.033870567478363, 44.291963497055796 ], [ 11.033941994690288, 44.291925543341556 ], [ 11.03400919490961, 44.291910485429398 ], [ 11.03409423997892, 44.291910814245121 ], [ 11.034206006661325, 44.291922716430825 ], [ 11.034320453816889, 44.291938955163189 ], [ 11.034432477716475, 44.291957975638184 ], [ 11.034549433696386, 44.291983848457448 ], [ 11.034703306994786, 44.29201418416207 ], [ 11.034820685816408, 44.29204169579824 ], [ 11.034957127706614, 44.292068141943815 ], [ 11.03509326739638, 44.292076149973113 ] ] } },
{ "type": "Feature", "properties": { "CITY_NAME": "CASTEL_D_AIANO", "strokeColor": "#70ACCC", "RGB": "112, 172, 204" }, "geometry": { "type": "LineString", "coordinates": [ [ 10.979927546358013, 44.29440921334259 ], [ 10.97980800407141, 44.294356283739354 ], [ 10.979689511723327, 44.29429438241916 ], [ 10.979514100842215, 44.294230067322992 ], [ 10.979275220960711, 44.294209595216756 ], [ 10.979001333243856, 44.294195662262162 ] ] } },
{ "type": "Feature", "properties": { "CITY_NAME": "CASTEL_D_AIANO", "strokeColor": "#70ACCC", "RGB": "112, 172, 204" }, "geometry": { "type": "LineString", "coordinates": [ [ 11.033328072752253, 44.29409688752731 ], [ 11.033446052213151, 44.29414017014669 ], [ 11.033551869336568, 44.29416576969053 ] ] } },
{ "type": "Feature", "properties": { "CITY_NAME": "CASTEL_D_AIANO", "strokeColor": "#70ACCC", "RGB": "112, 172, 204" }, "geometry": { "type": "LineString", "coordinates": [ [ 10.979941671445065, 44.294584732105889 ], [ 10.979863379430462, 44.294472350548943 ], [ 10.979927546358013, 44.29440921334259 ] ] } },
{ "type": "Feature", "properties": { "CITY_NAME": "CASTEL_D_AIANO", "strokeColor": "#70ACCC", "RGB": "112, 172, 204" }, "geometry": { "type": "LineString", "coordinates": [ [ 10.982847265692708, 44.296985453121962 ], [ 10.983163944198862, 44.297052250416982 ], [ 10.98333556556473, 44.297103423832056 ], [ 10.983439347090998, 44.29712575343703 ], [ 10.983538780493213, 44.297143886603671 ], [ 10.98364428423425, 44.297155041416005 ], [ 10.983815855525547, 44.29716317301606 ] ] } },
{ "type": "Feature", "properties": { "CITY_NAME": "CASTEL_D_AIANO", "strokeColor": "#70ACCC", "RGB": "112, 172, 204" }, "geometry": { "type": "LineString", "coordinates": [ [ 10.981200424150476, 44.29651291305305 ], [ 10.981236281527206, 44.296621811182824 ], [ 10.981267485272575, 44.29666242022045 ], [ 10.981366525024518, 44.296719870576339 ], [ 10.981552693300793, 44.29678996323274 ], [ 10.981678301594517, 44.296819975059805 ], [ 10.981805206328048, 44.296832146608004 ], [ 10.982109700136345, 44.296857237205934 ], [ 10.982246988950612, 44.296879529126741 ], [ 10.982561455831977, 44.29694400592939 ], [ 10.982847265692708, 44.296985453121962 ] ] } },
{ "type": "Feature", "properties": { "CITY_NAME": "CASTEL_D_AIANO", "strokeColor": "#70ACCC", "RGB": "112, 172, 204" }, "geometry": { "type": "LineString", "coordinates": [ [ 10.985164723405568, 44.29579620239614 ], [ 10.985292857503532, 44.295738714857201 ], [ 10.985669838586642, 44.295588927294702 ] ] } },
{ "type": "Feature", "properties": { "CITY_NAME": "CASTEL_D_AIANO", "strokeColor": "#70ACCC", "RGB": "112, 172, 204" }, "geometry": { "type": "LineString", "coordinates": [ [ 11.033075592134614, 44.292977872130734 ], [ 11.032986800775598, 44.292902924816083 ], [ 11.03288511281454, 44.292840250215157 ], [ 11.032838080184815, 44.292804559196476 ], [ 11.032735164243208, 44.292707052501399 ], [ 11.032662419677607, 44.292629217421748 ], [ 11.032594337316972, 44.292556372435982 ], [ 11.032355335628807, 44.292237518926115 ], [ 11.032274023553294, 44.292133738479983 ], [ 11.032235447762682, 44.292071822493448 ], [ 11.032216928784896, 44.292026891814366 ], [ 11.032215270529568, 44.291979841564562 ], [ 11.032227455271707, 44.291947328601346 ], [ 11.032255150344401, 44.29190505502882 ], [ 11.032313004359445, 44.291829220229886 ], [ 11.0323868806042, 44.29171810504635 ] ] } },
{ "type": "Feature", "properties": { "CITY_NAME": "CASTEL_D_AIANO", "strokeColor": "#70ACCC", "RGB": "112, 172, 204" }, "geometry": { "type": "LineString", "coordinates": [ [ 11.033551869336568, 44.29416576969053 ], [ 11.033611750457942, 44.294176992177036 ], [ 11.033670429574173, 44.294184767224444 ], [ 11.033706882320638, 44.294185977974848 ], [ 11.033735577008661, 44.294181843229147 ], [ 11.033804777795398, 44.294151100073115 ], [ 11.033949574733127, 44.294066863732183 ], [ 11.034175957714515, 44.29395509419448 ], [ 11.034280561746725, 44.293895772344982 ], [ 11.034406846685876, 44.293837898903689 ], [ 11.034556561899407, 44.293749853263741 ], [ 11.034781562062514, 44.293610095546917 ], [ 11.034918888111875, 44.293518963442651 ] ] } },
{ "type": "Feature", "properties": { "CITY_NAME": "CASTEL_D_AIANO", "strokeColor": "#70ACCC", "RGB": "112, 172, 204" }, "geometry": { "type": "LineString", "coordinates": [ [ 10.983566912856354, 44.295971861315621 ], [ 10.983978947614107, 44.296121527188234 ], [ 10.984055486994738, 44.296167882955061 ] ] } },
{ "type": "Feature", "properties": { "CITY_NAME": "CASTEL_D_AIANO", "strokeColor": "#70ACCC", "RGB": "112, 172, 204" }, "geometry": { "type": "LineString", "coordinates": [ [ 11.032583633846189, 44.293984246096571 ], [ 11.032705007805841, 44.29395062213225 ], [ 11.032798409767846, 44.293921118789619 ], [ 11.03285819683431, 44.293899300014651 ], [ 11.032975053866325, 44.293850230683724 ], [ 11.033056381836319, 44.293815815849925 ], [ 11.033135121106721, 44.293779615862746 ], [ 11.033206300084057, 44.293743726900033 ], [ 11.033284544186747, 44.293693659461432 ], [ 11.033359888519728, 44.293633050798618 ] ] } },
{ "type": "Feature", "properties": { "CITY_NAME": "CASTEL_D_AIANO", "strokeColor": "#70ACCC", "RGB": "112, 172, 204" }, "geometry": { "type": "LineString", "coordinates": [ [ 11.032827922141578, 44.291138356457154 ], [ 11.032951110793572, 44.29112578200732 ], [ 11.03309089388623, 44.291103963972191 ], [ 11.033291028027563, 44.291072726313118 ], [ 11.033604347384957, 44.291021051707325 ], [ 11.033763752928992, 44.290996535415921 ] ] } },
{ "type": "Feature", "properties": { "CITY_NAME": "CASTEL_D_AIANO", "strokeColor": "#70ACCC", "RGB": "112, 172, 204" }, "geometry": { "type": "LineString", "coordinates": [ [ 11.029747164505352, 44.297721806742651 ], [ 11.029792867931663, 44.297699880719151 ], [ 11.029845557499433, 44.297661082404531 ], [ 11.029894659515826, 44.297612650827929 ], [ 11.029948471721212, 44.297544563204902 ], [ 11.030012941227827, 44.297451774810931 ], [ 11.030073921388494, 44.29735209728338 ], [ 11.030117054605734, 44.297276383128754 ], [ 11.030192602512422, 44.297219347112701 ], [ 11.030286995384087, 44.297144439232731 ], [ 11.030352703885109, 44.297084819576504 ], [ 11.03042880334379, 44.297043505250386 ], [ 11.030468723791348, 44.297009553991145 ], [ 11.030503715438979, 44.296968916589108 ], [ 11.030552074542312, 44.296898422842837 ], [ 11.030608712512104, 44.296776937107353 ], [ 11.03062645925789, 44.296738412323876 ], [ 11.03063155168752, 44.296678874756054 ], [ 11.030614952487637, 44.296618047509902 ], [ 11.030600921528311, 44.296568520034448 ], [ 11.030539340779949, 44.296470201595952 ], [ 11.030454360551921, 44.296403548266966 ], [ 11.030380925838921, 44.296322397481418 ], [ 11.030215864531126, 44.296168381382294 ], [ 11.030072705317254, 44.296037199510749 ], [ 11.030040016850887, 44.295999540880821 ], [ 11.030016623421675, 44.295959705743108 ], [ 11.030000732492018, 44.295918094190093 ], [ 11.02999875553353, 44.295862333898491 ], [ 11.030001387456236, 44.295794236027575 ], [ 11.030035317931722, 44.295724675122003 ], [ 11.030071997756574, 44.295671712577771 ], [ 11.030144288917151, 44.295584907892426 ], [ 11.030276689864317, 44.295423939871966 ], [ 11.030550922640591, 44.295089581808313 ], [ 11.030647749923679, 44.294940069235629 ], [ 11.030652736410957, 44.294871135411704 ], [ 11.030668505026746, 44.294806517585677 ], [ 11.030682485305039, 44.294752455946707 ], [ 11.03071898051682, 44.294692754202053 ], [ 11.030753974514326, 44.294652046445847 ], [ 11.030816000519517, 44.294621465116364 ], [ 11.031065442435514, 44.294547809627254 ], [ 11.031104337034089, 44.294539965874954 ] ] } },
{ "type": "Feature", "properties": { "CITY_NAME": "CASTEL_D_AIANO", "strokeColor": "#70ACCC", "RGB": "112, 172, 204" }, "geometry": { "type": "LineString", "coordinates": [ [ 10.981200424150476, 44.29651291305305 ], [ 10.981156606652746, 44.296360959803685 ], [ 10.981012375843349, 44.296080189476847 ], [ 10.980998155307828, 44.295977154904861 ], [ 10.980997819915544, 44.295805316942044 ], [ 10.981014991825086, 44.295727312282949 ], [ 10.981091434838286, 44.295594307805004 ], [ 10.981177301686845, 44.29547484128274 ], [ 10.98132441686918, 44.295307641801877 ], [ 10.981455449934684, 44.295189548440803 ] ] } },
{ "type": "Feature", "properties": { "CITY_NAME": "CASTEL_D_AIANO", "strokeColor": "#70ACCC", "RGB": "112, 172, 204" }, "geometry": { "type": "LineString", "coordinates": [ [ 11.032103129344037, 44.294762209463499 ], [ 11.03201026863926, 44.294777074697443 ], [ 11.031931532089855, 44.294803927950184 ], [ 11.031854151868989, 44.294828386550719 ], [ 11.031735469838688, 44.294877976959583 ], [ 11.031569683745237, 44.294941662999243 ], [ 11.031466501601852, 44.294991352771852 ], [ 11.031242140282174, 44.295081533430043 ], [ 11.031115063870772, 44.295128689591202 ], [ 11.030994049091541, 44.295163701821345 ], [ 11.030940397488097, 44.295186474630341 ], [ 11.030847489779116, 44.295241631311484 ], [ 11.030770902242288, 44.295289219721205 ], [ 11.030679954213465, 44.295307677121507 ] ] } },
{ "type": "Feature", "properties": { "CITY_NAME": "CASTEL_D_AIANO", "strokeColor": "#70ACCC", "RGB": "112, 172, 204" }, "geometry": { "type": "LineString", "coordinates": [ [ 11.032668817629347, 44.291157670508312 ], [ 11.032670996420658, 44.291154992971904 ], [ 11.032728728424248, 44.291134830463591 ], [ 11.032827922141578, 44.291138356457154 ] ] } },
{ "type": "Feature", "properties": { "CITY_NAME": "CASTEL_D_AIANO", "strokeColor": "#70ACCC", "RGB": "112, 172, 204" }, "geometry": { "type": "LineString", "coordinates": [ [ 11.032032698720444, 44.295321547863928 ], [ 11.031886272629235, 44.295341138455896 ], [ 11.031737125903783, 44.295365185987528 ], [ 11.031576039463213, 44.295398210076534 ], [ 11.031472010843762, 44.295423525169362 ], [ 11.031335216642155, 44.29546035618938 ], [ 11.031234230597352, 44.295490194009467 ], [ 11.031100752706761, 44.295529165160964 ], [ 11.031056394421045, 44.295549287914568 ], [ 11.031026945369334, 44.295562760602905 ], [ 11.030962609462859, 44.295609189511573 ] ] } },
{ "type": "Feature", "properties": { "CITY_NAME": "CASTEL_D_AIANO", "strokeColor": "#70ACCC", "RGB": "112, 172, 204" }, "geometry": { "type": "LineString", "coordinates": [ [ 11.031104337034089, 44.294539965874954 ], [ 11.031173917772463, 44.294525932333322 ], [ 11.031469061587162, 44.29437833965325 ], [ 11.031511434349959, 44.294346724753616 ], [ 11.031578068370782, 44.294299889122072 ], [ 11.031607396121002, 44.294241927033454 ], [ 11.031545372502185, 44.293995034973584 ], [ 11.031531652906915, 44.293943089276638 ], [ 11.031517694565206, 44.293894614840973 ], [ 11.03152367664919, 44.293859667198042 ], [ 11.031536379071937, 44.293810741828288 ], [ 11.031580475025992, 44.293752526891673 ], [ 11.031674633268119, 44.293672659608063 ], [ 11.031725863413923, 44.29364467184412 ], [ 11.031898810656307, 44.293548976175352 ], [ 11.03198230245845, 44.293514529001804 ], [ 11.032180724707626, 44.293518072241575 ], [ 11.032286918946129, 44.293495286480706 ], [ 11.032420881838911, 44.293440810414495 ], [ 11.032637582443764, 44.293330894399922 ], [ 11.032729497605933, 44.293259786379316 ], [ 11.032811988471515, 44.293197414122865 ], [ 11.032890012925161, 44.293141319820137 ], [ 11.033075592134614, 44.292977872130734 ] ] } },
{ "type": "Feature", "properties": { "CITY_NAME": "CASTEL_D_AIANO", "strokeColor": "#70ACCC", "RGB": "112, 172, 204" }, "geometry": { "type": "LineString", "coordinates": [ [ 10.979941671445065, 44.294584732105889 ], [ 10.97960677400296, 44.294775055803406 ], [ 10.979292923486177, 44.29492238134381 ], [ 10.97881757244517, 44.295110192848043 ], [ 10.978500904086015, 44.29526718373917 ], [ 10.978279526343023, 44.295375164007424 ] ] } },
{ "type": "Feature", "properties": { "CITY_NAME": "CASTEL_D_AIANO", "strokeColor": "#70ACCC", "RGB": "112, 172, 204" }, "geometry": { "type": "LineString", "coordinates": [ [ 11.031104337034089, 44.294539965874954 ], [ 11.030994350424701, 44.294380999996072 ], [ 11.030879218370508, 44.294212384389716 ], [ 11.030833680706504, 44.2941575186017 ], [ 11.030789934696742, 44.294081648681633 ], [ 11.030758688234739, 44.294023079678901 ], [ 11.030725404043908, 44.293968011222198 ], [ 11.030696699278591, 44.293951168640035 ], [ 11.030656572732141, 44.293906614794345 ], [ 11.030503909364985, 44.293632526589377 ] ] } },
{ "type": "Feature", "properties": { "CITY_NAME": "CASTEL_D_AIANO", "strokeColor": "#70ACCC", "RGB": "112, 172, 204" }, "geometry": { "type": "LineString", "coordinates": [ [ 11.032572087501151, 44.295380843985896 ], [ 11.032643728548438, 44.295275353877535 ], [ 11.032696523038037, 44.295198013674899 ], [ 11.0327469007432, 44.295113593381068 ], [ 11.03278347555819, 44.295046736763659 ], [ 11.03289604196299, 44.295038969963159 ], [ 11.032929977704983, 44.294956271073495 ], [ 11.032932922611076, 44.294883357309267 ], [ 11.032934263564361, 44.294794369522002 ], [ 11.032874521616426, 44.294743901481766 ], [ 11.03298296188758, 44.294662873167752 ], [ 11.033058827423968, 44.29461634046212 ], [ 11.033210669380059, 44.29451632989106 ], [ 11.033295764567534, 44.29445576281757 ], [ 11.033368419849424, 44.29439010640067 ], [ 11.033425237777644, 44.294345524164171 ], [ 11.033469328239354, 44.294297868098454 ], [ 11.033520293686495, 44.29423074325377 ], [ 11.033551869336568, 44.29416576969053 ] ] } },
{ "type": "Feature", "properties": { "CITY_NAME": "CASTEL_D_AIANO", "strokeColor": "#70ACCC", "RGB": "112, 172, 204" }, "geometry": { "type": "LineString", "coordinates": [ [ 10.986080784302159, 44.295487813405806 ], [ 10.986291448383561, 44.295435446049481 ], [ 10.986445121389364, 44.295410613023463 ] ] } },
{ "type": "Feature", "properties": { "CITY_NAME": "CASTEL_D_AIANO", "strokeColor": "#70ACCC", "RGB": "112, 172, 204" }, "geometry": { "type": "LineString", "coordinates": [ [ 10.985022754893631, 44.292553239095277 ], [ 10.985028939589553, 44.292468845477394 ] ] } },
{ "type": "Feature", "properties": { "CITY_NAME": "CASTEL_D_AIANO", "strokeColor": "#70ACCC", "RGB": "112, 172, 204" }, "geometry": { "type": "LineString", "coordinates": [ [ 11.03218758512662, 44.294090021232485 ], [ 11.032285921913321, 44.294057158829226 ], [ 11.032410363550348, 44.294018379537427 ], [ 11.032494653419707, 44.293996152722613 ], [ 11.032583633846189, 44.293984246096571 ] ] } },
{ "type": "Feature", "properties": { "CITY_NAME": "CASTEL_D_AIANO", "strokeColor": "#70ACCC", "RGB": "112, 172, 204" }, "geometry": { "type": "LineString", "coordinates": [ [ 10.985022754893631, 44.292553239095277 ], [ 10.985165412912975, 44.292561387855272 ], [ 10.98524310943943, 44.292570744203061 ], [ 10.985294877100527, 44.292597909814631 ], [ 10.985312570792065, 44.292637410328958 ], [ 10.985311261718449, 44.292677265543723 ], [ 10.985273798588848, 44.292811858517858 ], [ 10.985254938935334, 44.292960508376012 ] ] } },
{ "type": "Feature", "properties": { "CITY_NAME": "CASTEL_D_AIANO", "strokeColor": "#70ACCC", "RGB": "112, 172, 204" }, "geometry": { "type": "LineString", "coordinates": [ [ 10.984055486994738, 44.296167882955061 ], [ 10.984163068786449, 44.296160473213867 ], [ 10.984203714575969, 44.296151742635253 ], [ 10.984267745313142, 44.296118471596237 ], [ 10.984360921640542, 44.296026492070126 ], [ 10.984395345310604, 44.296004380506844 ], [ 10.9844214442665, 44.295991827941016 ], [ 10.984459895107028, 44.295986374660494 ], [ 10.984583105564248, 44.29598072036169 ], [ 10.984690627931778, 44.295971559191521 ], [ 10.984740455140141, 44.29596147865341 ], [ 10.984857969336813, 44.295923939362723 ], [ 10.984950836466084, 44.295890704154978 ], [ 10.985065686027331, 44.295842656870114 ], [ 10.985164723405568, 44.29579620239614 ] ] } },
{ "type": "Feature", "properties": { "CITY_NAME": "CASTEL_D_AIANO", "strokeColor": "#70ACCC", "RGB": "112, 172, 204" }, "geometry": { "type": "LineString", "coordinates": [ [ 10.98395045592248, 44.297165974201093 ], [ 10.984170622634597, 44.297176133748607 ], [ 10.984473619189714, 44.297195508303901 ], [ 10.98461354439163, 44.297217309513208 ], [ 10.984878880808283, 44.297167859467336 ], [ 10.984994488329216, 44.297154613296755 ] ] } },
{ "type": "Feature", "properties": { "CITY_NAME": "CASTEL_D_AIANO", "strokeColor": "#70ACCC", "RGB": "112, 172, 204" }, "geometry": { "type": "LineString", "coordinates": [ [ 10.982859770805096, 44.295734346861586 ], [ 10.98218151211185, 44.295527507271473 ], [ 10.981656957199567, 44.295302293406884 ], [ 10.981455449934684, 44.295189548440803 ] ] } },
{ "type": "Feature", "properties": { "CITY_NAME": "CASTEL_D_AIANO", "strokeColor": "#70ACCC", "RGB": "112, 172, 204" }, "geometry": { "type": "LineString", "coordinates": [ [ 11.0323868806042, 44.29171810504635 ], [ 11.032310489138458, 44.291757913414813 ], [ 11.032231782206193, 44.291794152779538 ], [ 11.032077001492645, 44.291869865141521 ], [ 11.031952286376338, 44.291931588333597 ] ] } },
{ "type": "Feature", "properties": { "CITY_NAME": "CASTEL_D_AIANO", "strokeColor": "#70ACCC", "RGB": "112, 172, 204" }, "geometry": { "type": "LineString", "coordinates": [ [ 10.982859770805096, 44.295734346861586 ], [ 10.98298860074242, 44.295758266663192 ], [ 10.983121040892817, 44.295803556825994 ], [ 10.983211829082768, 44.295844960779199 ], [ 10.983383536944855, 44.295908858233297 ], [ 10.983566912856354, 44.295971861315621 ] ] } },
{ "type": "Feature", "properties": { "CITY_NAME": "CASTEL_D_AIANO", "strokeColor": "#70ACCC", "RGB": "112, 172, 204" }, "geometry": { "type": "LineString", "coordinates": [ [ 11.032032698720444, 44.295321547863928 ], [ 11.032117309186296, 44.295338057783098 ], [ 11.03221046863297, 44.295371463369108 ], [ 11.032294301925857, 44.295403845587984 ] ] } },
{ "type": "Feature", "properties": { "CITY_NAME": "CASTEL_D_AIANO", "strokeColor": "#70ACCC", "RGB": "112, 172, 204" }, "geometry": { "type": "LineString", "coordinates": [ [ 10.984055486994738, 44.296167882955061 ], [ 10.9839206522942, 44.296255710960189 ], [ 10.983570980674848, 44.296383577927209 ] ] } },
{ "type": "Feature", "properties": { "CITY_NAME": "CASTEL_D_AIANO", "strokeColor": "#70ACCC", "RGB": "112, 172, 204" }, "geometry": { "type": "LineString", "coordinates": [ [ 10.981125167309733, 44.294989197472255 ], [ 10.980850763308796, 44.295174320392974 ], [ 10.980664457382138, 44.29526703204241 ], [ 10.980464006336332, 44.295369398556595 ], [ 10.980208676137773, 44.295475379500374 ], [ 10.979980312334117, 44.295576755445822 ] ] } },
{ "type": "Feature", "properties": { "CITY_NAME": "CASTEL_D_AIANO", "strokeColor": "#70ACCC", "RGB": "112, 172, 204" }, "geometry": { "type": "LineString", "coordinates": [ [ 10.985669838586642, 44.295588927294702 ], [ 10.985602491724659, 44.295560116962221 ], [ 10.985576403858309, 44.295531412910485 ], [ 10.985558970140351, 44.295493410519327 ], [ 10.985536866096162, 44.295423546141436 ], [ 10.985467479936419, 44.295121705978161 ], [ 10.985416021798288, 44.294712610357678 ] ] } },
{ "type": "Feature", "properties": { "CITY_NAME": "CASTEL_D_AIANO", "strokeColor": "#70ACCC", "RGB": "112, 172, 204" }, "geometry": { "type": "LineString", "coordinates": [ [ 10.986934007810254, 44.295350207988228 ], [ 10.987048572243417, 44.295335738187347 ] ] } },
{ "type": "Feature", "properties": { "CITY_NAME": "CASTEL_D_AIANO", "strokeColor": "#70ACCC", "RGB": "112, 172, 204" }, "geometry": { "type": "LineString", "coordinates": [ [ 11.033770895847477, 44.291772232215493 ], [ 11.033818810461446, 44.291785119906578 ], [ 11.0339189454475, 44.291794491772912 ], [ 11.034024429103088, 44.291802310703019 ], [ 11.034123206635867, 44.291813895175949 ], [ 11.034251018311073, 44.291831171606951 ], [ 11.034378959936999, 44.291852099856243 ], [ 11.034464197134854, 44.291867756910911 ], [ 11.034561441930176, 44.291886672365848 ], [ 11.034655454979186, 44.291905828083536 ], [ 11.034749639539786, 44.291929729696697 ], [ 11.034855925004392, 44.291959443925222 ], [ 11.034931524900271, 44.291987510916151 ], [ 11.034990061444566, 44.292012044026109 ], [ 11.03506392316819, 44.292041785836069 ], [ 11.03509326739638, 44.292076149973113 ] ] } },
{ "type": "Feature", "properties": { "CITY_NAME": "CASTEL_D_AIANO", "strokeColor": "#70ACCC", "RGB": "112, 172, 204" }, "geometry": { "type": "LineString", "coordinates": [ [ 10.982847265692708, 44.296985453121962 ], [ 10.982956758961254, 44.296871093787871 ], [ 10.983185563289814, 44.296611405362846 ], [ 10.983256118137597, 44.296546704993403 ], [ 10.983324053646774, 44.296502275991578 ], [ 10.983416344925914, 44.296451590010896 ], [ 10.983570980674848, 44.296383577927209 ] ] } },
{ "type": "Feature", "properties": { "CITY_NAME": "CASTEL_D_AIANO", "strokeColor": "#70ACCC", "RGB": "112, 172, 204" }, "geometry": { "type": "LineString", "coordinates": [ [ 11.03319484628584, 44.291659440254605 ], [ 11.033129224737545, 44.291652759985389 ], [ 11.033009197763619, 44.291648347481228 ], [ 11.032711339698558, 44.291648380964041 ], [ 11.032485559179321, 44.291683713088638 ], [ 11.0323868806042, 44.29171810504635 ] ] } },
{ "type": "Feature", "properties": { "CITY_NAME": "CASTEL_D_AIANO", "strokeColor": "#70ACCC", "RGB": "112, 172, 204" }, "geometry": { "type": "LineString", "coordinates": [ [ 11.034918888111875, 44.293518963442651 ], [ 11.034918172473704, 44.293454054504608 ], [ 11.034916653916316, 44.293281688688424 ], [ 11.034917999797186, 44.293178850713403 ], [ 11.034924016537182, 44.293145692048725 ], [ 11.034930590485459, 44.29312804624935 ], [ 11.034968556338452, 44.293101270232604 ], [ 11.035054353521328, 44.29306142300036 ], [ 11.035194689348879, 44.292994689686488 ] ] } },
{ "type": "Feature", "properties": { "CITY_NAME": "CASTEL_D_AIANO", "strokeColor": "#70ACCC", "RGB": "112, 172, 204" }, "geometry": { "type": "LineString", "coordinates": [ [ 10.986080784302159, 44.295487813405806 ], [ 10.98605260523933, 44.295378544660302 ], [ 10.986031251820179, 44.295308206373107 ], [ 10.986010509098149, 44.295194153773487 ], [ 10.986007632160529, 44.295059382656092 ], [ 10.986018401188161, 44.294986932659697 ] ] } },
{ "type": "Feature", "properties": { "CITY_NAME": "CASTEL_D_AIANO", "strokeColor": "#70ACCC", "RGB": "112, 172, 204" }, "geometry": { "type": "LineString", "coordinates": [ [ 10.981125167309733, 44.294989197472255 ], [ 10.980990455658656, 44.294800008681541 ], [ 10.980683405373192, 44.294621284367999 ], [ 10.98051429995404, 44.294574379288775 ], [ 10.980279142712213, 44.294538367828153 ], [ 10.980074685516055, 44.294572629559624 ], [ 10.979941671445065, 44.294584732105889 ] ] } },
{ "type": "Feature", "properties": { "CITY_NAME": "CASTEL_D_AIANO", "strokeColor": "#70ACCC", "RGB": "112, 172, 204" }, "geometry": { "type": "LineString", "coordinates": [ [ 11.033763752928992, 44.290996535415921 ], [ 11.034050501334468, 44.290952435233237 ], [ 11.034260253649338, 44.290918999785049 ], [ 11.034334331076355, 44.290902555150872 ], [ 11.034379996355984, 44.290887709634696 ], [ 11.034434118055566, 44.290831154240259 ], [ 11.034454556497023, 44.290792514250242 ], [ 11.034443405903502, 44.290745867228807 ], [ 11.034416785063792, 44.290664499763452 ], [ 11.034391440774982, 44.290625031556168 ], [ 11.034380422483526, 44.290582757580076 ], [ 11.034398912794126, 44.290551077339479 ], [ 11.03443165349827, 44.290514041251221 ], [ 11.034610488603819, 44.290340437060067 ], [ 11.034721435070338, 44.290244593131305 ], [ 11.034754074612541, 44.290204094435225 ], [ 11.034771891577739, 44.290162036783002 ], [ 11.034761750168702, 44.290065610965414 ], [ 11.034724475157297, 44.290036745682734 ], [ 11.034656238626567, 44.290020642734227 ], [ 11.034547415983399, 44.290020755115059 ], [ 11.034462379928623, 44.290021769706847 ], [ 11.034281465553345, 44.290023930644864 ] ] } },
{ "type": "Feature", "properties": { "CITY_NAME": "CASTEL_D_AIANO", "strokeColor": "#70ACCC", "RGB": "112, 172, 204" }, "geometry": { "type": "LineString", "coordinates": [ [ 11.032827922141578, 44.291138356457154 ], [ 11.032842561527756, 44.291194534113707 ], [ 11.03287270780638, 44.291225167251319 ], [ 11.032924788023479, 44.291265982878691 ], [ 11.03297933584798, 44.291305115119521 ], [ 11.033009037456226, 44.291332302624987 ], [ 11.033044482822232, 44.291376939909618 ], [ 11.033093161250155, 44.291449271260831 ], [ 11.033131867448169, 44.29151466156079 ], [ 11.033183821335786, 44.291618334864047 ], [ 11.03319484628584, 44.291659440254605 ] ] } },
{ "type": "Feature", "properties": { "CITY_NAME": "CASTEL_D_AIANO", "strokeColor": "#70ACCC", "RGB": "112, 172, 204" }, "geometry": { "type": "LineString", "coordinates": [ [ 11.032294301925857, 44.295403845587984 ], [ 11.032368065827599, 44.295431611129658 ], [ 11.032424076439932, 44.295444773029168 ], [ 11.03245795435306, 44.295444214124814 ], [ 11.032484491261188, 44.295440117201899 ], [ 11.032522977713366, 44.295427408765349 ], [ 11.032548952004188, 44.295407771142123 ], [ 11.032572087501151, 44.295380843985896 ] ] } },
{ "type": "Feature", "properties": { "CITY_NAME": "CASTEL_D_AIANO", "strokeColor": "#70ACCC", "RGB": "112, 172, 204" }, "geometry": { "type": "LineString", "coordinates": [ [ 10.985669838586642, 44.295588927294702 ], [ 10.985822667351396, 44.295546692775531 ], [ 10.986080784302159, 44.295487813405806 ] ] } },
{ "type": "Feature", "properties": { "CITY_NAME": "CASTEL_D_AIANO", "strokeColor": "#70ACCC", "RGB": "112, 172, 204" }, "geometry": { "type": "LineString", "coordinates": [ [ 11.032583633846189, 44.293984246096571 ], [ 11.032733759404696, 44.294009268325837 ], [ 11.032835976090952, 44.294025063655418 ], [ 11.032933380426877, 44.294037290296984 ], [ 11.033054867254922, 44.294047468445214 ], [ 11.033147228193327, 44.294059782001398 ], [ 11.033328072752253, 44.29409688752731 ] ] } },
{ "type": "Feature", "properties": { "CITY_NAME": "CASTEL_D_AIANO", "strokeColor": "#70ACCC", "RGB": "112, 172, 204" }, "geometry": { "type": "LineString", "coordinates": [ [ 11.033328072752253, 44.29409688752731 ], [ 11.033429778957542, 44.29402726382984 ], [ 11.033597723948523, 44.293914707622001 ], [ 11.033820067297791, 44.293761050031307 ], [ 11.033947605754065, 44.293668324361732 ], [ 11.034049467517431, 44.293593555783126 ], [ 11.034143530728032, 44.293522184190209 ], [ 11.03419548512286, 44.293482938697238 ], [ 11.034228418393564, 44.293456257085069 ], [ 11.034247312211631, 44.293440226632143 ], [ 11.03426798291852, 44.293403348020263 ], [ 11.034301992349393, 44.293336292626741 ], [ 11.034298190425226, 44.293230088359273 ] ] } },
{ "type": "Feature", "properties": { "CITY_NAME": "CASTEL_D_AIANO", "strokeColor": "#70ACCC", "RGB": "112, 172, 204" }, "geometry": { "type": "LineString", "coordinates": [ [ 10.982847265692708, 44.296985453121962 ], [ 10.983065791982158, 44.297071788912831 ], [ 10.983304056829452, 44.297203233481724 ], [ 10.98345567766175, 44.297284569905344 ], [ 10.983505716726048, 44.29732168572653 ], [ 10.983550475482774, 44.29736425987933 ], [ 10.983613873777609, 44.297434913459057 ] ] } },
{ "type": "Feature", "properties": { "CITY_NAME": "CASTEL_D_AIANO", "strokeColor": "#70ACCC", "RGB": "112, 172, 204" }, "geometry": { "type": "LineString", "coordinates": [ [ 10.983815855525547, 44.29716317301606 ], [ 10.98395045592248, 44.297165974201093 ] ] } },
{ "type": "Feature", "properties": { "CITY_NAME": "CASTEL_D_AIANO", "strokeColor": "#70ACCC", "RGB": "112, 172, 204" }, "geometry": { "type": "LineString", "coordinates": [ [ 10.981455449934684, 44.295189548440803 ], [ 10.981125167309733, 44.294989197472255 ] ] } },
{ "type": "Feature", "properties": { "CITY_NAME": "CASTEL_D_AIANO", "strokeColor": "#70ACCC", "RGB": "112, 172, 204" }, "geometry": { "type": "LineString", "coordinates": [ [ 10.987073401474039, 44.295391544532791 ], [ 10.987121027578397, 44.295558019341371 ], [ 10.987172021012414, 44.295663749670261 ], [ 10.987214976155487, 44.295717138358206 ], [ 10.987281520827091, 44.295780176322495 ], [ 10.987383043268043, 44.295869877957294 ], [ 10.987430340047176, 44.295928441488194 ], [ 10.987566955102794, 44.296083446890364 ], [ 10.987643840281406, 44.29616856971942 ], [ 10.987720091808956, 44.29625916468494 ], [ 10.987798115658908, 44.296364642048168 ] ] } },
{ "type": "Feature", "properties": { "CITY_NAME": "CASTEL_D_AIANO", "strokeColor": "#70ACCC", "RGB": "112, 172, 204" }, "geometry": { "type": "LineString", "coordinates": [ [ 10.986303014032792, 44.292387572981568 ], [ 10.986073417929401, 44.292484490137205 ], [ 10.985761589827201, 44.292552242347952 ], [ 10.985597672025531, 44.292599609521268 ], [ 10.985488206378093, 44.292682724589902 ], [ 10.985322418971407, 44.292882423321608 ], [ 10.985254938935334, 44.292960508376012 ] ] } },
{ "type": "Feature", "properties": { "CITY_NAME": "CASTEL_D_AIANO", "strokeColor": "#70ACCC", "RGB": "112, 172, 204" }, "geometry": { "type": "LineString", "coordinates": [ [ 10.98495533476243, 44.29256011985597 ], [ 10.985022754893631, 44.292553239095277 ] ] } }
]
}
