{
"type": "FeatureCollection",
"name": "CASTEL_DI_CASIO",
"crs": { "type": "name", "properties": { "name": "urn:ogc:def:crs:OGC:1.3:CRS84" } },
"features": [
{ "type": "Feature", "properties": { "CITY_NAME": "CASTEL_DI_CASIO", "strokeColor": "#70ACCC", "RGB": "112, 172, 204" }, "geometry": { "type": "LineString", "coordinates": [ [ 10.985613846481328, 44.177747925074705 ], [ 10.985725065279729, 44.177764195384796 ], [ 10.985853789470939, 44.177784714023332 ], [ 10.986044023255017, 44.177826918041028 ], [ 10.986161965458644, 44.177849789082188 ], [ 10.98630249591247, 44.177898362494609 ], [ 10.986409826638816, 44.177928216065723 ] ] } },
{ "type": "Feature", "properties": { "CITY_NAME": "CASTEL_DI_CASIO", "strokeColor": "#70ACCC", "RGB": "112, 172, 204" }, "geometry": { "type": "LineString", "coordinates": [ [ 10.984426433073319, 44.178770040953147 ], [ 10.984321164576681, 44.178737721560388 ], [ 10.984142780703818, 44.178662312558394 ], [ 10.983915248992991, 44.178546829189997 ], [ 10.983624263525199, 44.178355163479793 ], [ 10.983179269055364, 44.178042318325367 ], [ 10.982861319106453, 44.177703512756018 ], [ 10.982554802148035, 44.177260064119373 ] ] } },
{ "type": "Feature", "properties": { "CITY_NAME": "CASTEL_DI_CASIO", "strokeColor": "#70ACCC", "RGB": "112, 172, 204" }, "geometry": { "type": "LineString", "coordinates": [ [ 10.980377123755853, 44.176892446045727 ], [ 10.980583246915153, 44.176949515085518 ], [ 10.980666480177327, 44.176992291860159 ], [ 10.980761823847931, 44.177060080610438 ], [ 10.980860126597314, 44.177138037333364 ], [ 10.981052407605887, 44.177304913850335 ], [ 10.981118108816434, 44.177364752739457 ], [ 10.98129549345658, 44.177523459493855 ], [ 10.981373280418547, 44.177581075461816 ] ] } },
{ "type": "Feature", "properties": { "CITY_NAME": "CASTEL_DI_CASIO", "strokeColor": "#70ACCC", "RGB": "112, 172, 204" }, "geometry": { "type": "LineString", "coordinates": [ [ 10.980377123755853, 44.176892446045727 ], [ 10.980414427226338, 44.176589899265629 ], [ 10.980457420626745, 44.17631778948892 ], [ 10.980576211494729, 44.175875969020844 ], [ 10.980620630935196, 44.175720226999019 ], [ 10.980668523902889, 44.175505604057911 ], [ 10.980772789692706, 44.175083064147501 ], [ 10.980868003879021, 44.174640810448579 ], [ 10.980932858088144, 44.174343007280143 ], [ 10.98101656663045, 44.174079261521243 ], [ 10.981087827724457, 44.173873295467985 ] ] } },
{ "type": "Feature", "properties": { "CITY_NAME": "CASTEL_DI_CASIO", "strokeColor": "#70ACCC", "RGB": "112, 172, 204" }, "geometry": { "type": "LineString", "coordinates": [ [ 11.036955827122519, 44.162388166892782 ], [ 11.03714767941233, 44.162349537152586 ] ] } },
{ "type": "Feature", "properties": { "CITY_NAME": "CASTEL_DI_CASIO", "strokeColor": "#70ACCC", "RGB": "112, 172, 204" }, "geometry": { "type": "LineString", "coordinates": [ [ 11.037287441996313, 44.162401579079742 ], [ 11.037305934937784, 44.162399302693451 ], [ 11.037303260157092, 44.162373813181652 ], [ 11.037329982181156, 44.162366912750137 ], [ 11.037323213231595, 44.162326908593684 ], [ 11.037498660323196, 44.162307104677502 ] ] } },
{ "type": "Feature", "properties": { "CITY_NAME": "CASTEL_DI_CASIO", "strokeColor": "#70ACCC", "RGB": "112, 172, 204" }, "geometry": { "type": "LineString", "coordinates": [ [ 11.036554471148847, 44.161766200091279 ], [ 11.036533814583393, 44.161688157958253 ], [ 11.036519744908659, 44.161592660222894 ], [ 11.036510617325133, 44.161536286362093 ], [ 11.036463404203232, 44.161417715080354 ], [ 11.036399933257885, 44.161296722867945 ], [ 11.036351991029974, 44.161209178346716 ], [ 11.036289839152117, 44.161126470652576 ], [ 11.036244821089637, 44.161071706373974 ], [ 11.036212785217703, 44.161028547844197 ] ] } },
{ "type": "Feature", "properties": { "CITY_NAME": "CASTEL_DI_CASIO", "strokeColor": "#70ACCC", "RGB": "112, 172, 204" }, "geometry": { "type": "LineString", "coordinates": [ [ 11.036480851388939, 44.162460750045085 ], [ 11.036616966354687, 44.16252012332572 ], [ 11.036972019903432, 44.162462293897327 ] ] } },
{ "type": "Feature", "properties": { "CITY_NAME": "CASTEL_DI_CASIO", "strokeColor": "#70ACCC", "RGB": "112, 172, 204" }, "geometry": { "type": "LineString", "coordinates": [ [ 11.036480851388939, 44.162460750045085 ], [ 11.036508796839868, 44.162266913279453 ], [ 11.036531370200168, 44.162191685230866 ], [ 11.036564090986788, 44.162098018865727 ], [ 11.03658839750047, 44.162020933170382 ], [ 11.036611345848319, 44.161956642558366 ], [ 11.036652013712898, 44.161832722735781 ], [ 11.036675652049606, 44.161788484065347 ], [ 11.036700262903302, 44.16177250311496 ], [ 11.036741164523136, 44.161759854445691 ], [ 11.036776896476235, 44.161753691053462 ], [ 11.036829106244687, 44.161756330459824 ] ] } },
{ "type": "Feature", "properties": { "CITY_NAME": "CASTEL_DI_CASIO", "strokeColor": "#70ACCC", "RGB": "112, 172, 204" }, "geometry": { "type": "LineString", "coordinates": [ [ 10.985338252597545, 44.176225776790979 ], [ 10.985614461305511, 44.176084782404715 ] ] } },
{ "type": "Feature", "properties": { "CITY_NAME": "CASTEL_DI_CASIO", "strokeColor": "#70ACCC", "RGB": "112, 172, 204" }, "geometry": { "type": "LineString", "coordinates": [ [ 10.986194725645879, 44.178102846441064 ], [ 10.986543794842339, 44.178161196964012 ] ] } },
{ "type": "Feature", "properties": { "CITY_NAME": "CASTEL_DI_CASIO", "strokeColor": "#70ACCC", "RGB": "112, 172, 204" }, "geometry": { "type": "LineString", "coordinates": [ [ 10.984426433073319, 44.178770040953147 ], [ 10.984457943760553, 44.178679696816964 ], [ 10.984529563250634, 44.178619362412228 ], [ 10.98466433384462, 44.178504515273588 ], [ 10.985303910887419, 44.178002340291556 ], [ 10.985332940087032, 44.177964312642288 ] ] } },
{ "type": "Feature", "properties": { "CITY_NAME": "CASTEL_DI_CASIO", "strokeColor": "#70ACCC", "RGB": "112, 172, 204" }, "geometry": { "type": "LineString", "coordinates": [ [ 10.985613846481328, 44.177747925074705 ], [ 10.985744427348306, 44.17763647343039 ], [ 10.986003710892684, 44.177421535854535 ], [ 10.986079565008, 44.177357641736982 ], [ 10.98645451301309, 44.177037821532743 ], [ 10.986481545327749, 44.177004327154869 ], [ 10.986469148240372, 44.176960194600255 ], [ 10.986441293943107, 44.176908387516029 ], [ 10.986405121941699, 44.176866974198653 ], [ 10.986351202981842, 44.176814518496919 ], [ 10.986293623705375, 44.176781469523959 ], [ 10.986249533433991, 44.176761819249279 ], [ 10.986214317921538, 44.176747690133233 ] ] } },
{ "type": "Feature", "properties": { "CITY_NAME": "CASTEL_DI_CASIO", "strokeColor": "#70ACCC", "RGB": "112, 172, 204" }, "geometry": { "type": "LineString", "coordinates": [ [ 10.981674347956533, 44.161950986700226 ], [ 10.981814743915603, 44.162292758191739 ], [ 10.981878753383997, 44.162425623190337 ], [ 10.981915855834863, 44.16254451777408 ], [ 10.981966173586933, 44.162663237905484 ], [ 10.981982160270499, 44.162744207906002 ], [ 10.981984282414215, 44.162806261763599 ], [ 10.981959489597113, 44.162854345393662 ], [ 10.981933879916951, 44.162878563407666 ], [ 10.981837231077876, 44.162951479447734 ], [ 10.981765212706202, 44.162971538503832 ], [ 10.981679490792674, 44.162977452881215 ], [ 10.981560574203296, 44.162979032906343 ], [ 10.981480483933984, 44.162956218698554 ], [ 10.981379115675969, 44.162890708250941 ], [ 10.981214409452743, 44.162711422583868 ], [ 10.981007830446178, 44.16246583056283 ], [ 10.980849939359315, 44.162291225678729 ], [ 10.980670643290857, 44.162069144911108 ], [ 10.980538567524613, 44.161875090819251 ], [ 10.980487197332213, 44.16172294721985 ], [ 10.980442437982287, 44.161570715957147 ], [ 10.980429939903251, 44.161432096966031 ], [ 10.98044696635794, 44.161007665257301 ], [ 10.98043300566547, 44.160897463762872 ] ] } },
{ "type": "Feature", "properties": { "CITY_NAME": "CASTEL_DI_CASIO", "strokeColor": "#70ACCC", "RGB": "112, 172, 204" }, "geometry": { "type": "LineString", "coordinates": [ [ 10.988500373274977, 44.178800630725085 ], [ 10.988388302184182, 44.179009777758907 ], [ 10.988283717544899, 44.179120938237894 ], [ 10.988181593620144, 44.179177440497419 ], [ 10.988059387143723, 44.179217247687589 ], [ 10.987877624039507, 44.179227437866594 ], [ 10.987622078546963, 44.17923557994915 ], [ 10.987540375625928, 44.179192723117211 ], [ 10.987344343981503, 44.179104202714711 ], [ 10.986990849825705, 44.178915079324817 ], [ 10.986825714093516, 44.178843057838385 ], [ 10.986663253208992, 44.178785777110036 ], [ 10.986536454130073, 44.178756275055697 ], [ 10.986358121917384, 44.178741380014955 ], [ 10.985851424380703, 44.178764069806249 ], [ 10.985240059959466, 44.1787744403549 ], [ 10.98463303242535, 44.178784730456414 ], [ 10.984426433073319, 44.178770040953147 ] ] } },
{ "type": "Feature", "properties": { "CITY_NAME": "CASTEL_DI_CASIO", "strokeColor": "#70ACCC", "RGB": "112, 172, 204" }, "geometry": { "type": "LineString", "coordinates": [ [ 11.038154438196145, 44.162561791688589 ], [ 11.038140309500214, 44.162412446913287 ], [ 11.038147663434968, 44.162312877565618 ], [ 11.038159998622255, 44.16220135685527 ] ] } },
{ "type": "Feature", "properties": { "CITY_NAME": "CASTEL_DI_CASIO", "strokeColor": "#70ACCC", "RGB": "112, 172, 204" }, "geometry": { "type": "LineString", "coordinates": [ [ 11.037177975028783, 44.161762355202427 ], [ 11.037278678294793, 44.161764056377116 ], [ 11.037382848059488, 44.161762042167304 ], [ 11.037467450044335, 44.161765879671329 ], [ 11.037555736953006, 44.161772381997785 ] ] } },
{ "type": "Feature", "properties": { "CITY_NAME": "CASTEL_DI_CASIO", "strokeColor": "#70ACCC", "RGB": "112, 172, 204" }, "geometry": { "type": "LineString", "coordinates": [ [ 10.981674347956533, 44.161950986700226 ], [ 10.981390412851376, 44.161743319915956 ] ] } },
{ "type": "Feature", "properties": { "CITY_NAME": "CASTEL_DI_CASIO", "strokeColor": "#70ACCC", "RGB": "112, 172, 204" }, "geometry": { "type": "LineString", "coordinates": [ [ 10.981390412851376, 44.161743319915956 ], [ 10.981244912612791, 44.161569825825943 ], [ 10.981205904322875, 44.161393644102141 ], [ 10.981175993147627, 44.160706353101126 ] ] } },
{ "type": "Feature", "properties": { "CITY_NAME": "CASTEL_DI_CASIO", "strokeColor": "#70ACCC", "RGB": "112, 172, 204" }, "geometry": { "type": "LineString", "coordinates": [ [ 11.03714767941233, 44.162349537152586 ], [ 11.037153739516178, 44.162377709515013 ], [ 11.037202588325693, 44.162373018979494 ], [ 11.037209294413008, 44.162411199340418 ], [ 11.037287441996313, 44.162401579079742 ] ] } },
{ "type": "Feature", "properties": { "CITY_NAME": "CASTEL_DI_CASIO", "strokeColor": "#70ACCC", "RGB": "112, 172, 204" }, "geometry": { "type": "LineString", "coordinates": [ [ 11.037491752946792, 44.162266642943344 ], [ 11.037485154793663, 44.162228006017166 ], [ 11.037279424165005, 44.162249882505172 ], [ 11.037279885465635, 44.162263281659655 ], [ 11.037195648919681, 44.162272186757562 ], [ 11.037193427830763, 44.162258820797014 ], [ 11.037129475267985, 44.162264907949286 ], [ 11.03714767941233, 44.162349537152586 ] ] } },
{ "type": "Feature", "properties": { "CITY_NAME": "CASTEL_DI_CASIO", "strokeColor": "#70ACCC", "RGB": "112, 172, 204" }, "geometry": { "type": "LineString", "coordinates": [ [ 10.981674347956533, 44.161950986700226 ], [ 10.981956851794784, 44.162104804932845 ], [ 10.982330364441928, 44.162155110651064 ], [ 10.982749712139183, 44.162165503637993 ], [ 10.982867007691414, 44.162172105518465 ] ] } },
{ "type": "Feature", "properties": { "CITY_NAME": "CASTEL_DI_CASIO", "strokeColor": "#70ACCC", "RGB": "112, 172, 204" }, "geometry": { "type": "LineString", "coordinates": [ [ 11.033737961520162, 44.161435079896457 ], [ 11.033902510713684, 44.16146601618108 ], [ 11.034245507315651, 44.161511454723993 ], [ 11.034615308978815, 44.161568144768815 ], [ 11.034915395400139, 44.161609585883959 ], [ 11.035088188334868, 44.161637017208982 ], [ 11.035158788949053, 44.16164867663241 ] ] } },
{ "type": "Feature", "properties": { "CITY_NAME": "CASTEL_DI_CASIO", "strokeColor": "#70ACCC", "RGB": "112, 172, 204" }, "geometry": { "type": "LineString", "coordinates": [ [ 10.985332940087032, 44.177964312642288 ], [ 10.985522086538404, 44.178037247687598 ], [ 10.985673090289927, 44.17807445346758 ], [ 10.98577334564755, 44.178087513004947 ], [ 10.985935187417402, 44.178124538977087 ], [ 10.986035201473594, 44.178130780858275 ], [ 10.986126246443431, 44.178129144308841 ], [ 10.986194725645879, 44.178102846441064 ] ] } },
{ "type": "Feature", "properties": { "CITY_NAME": "CASTEL_DI_CASIO", "strokeColor": "#70ACCC", "RGB": "112, 172, 204" }, "geometry": { "type": "LineString", "coordinates": [ [ 11.036955827122519, 44.162388166892782 ], [ 11.036947565978194, 44.162358034196778 ], [ 11.036525507013868, 44.162420960451179 ], [ 11.036480851388939, 44.162460750045085 ] ] } },
{ "type": "Feature", "properties": { "CITY_NAME": "CASTEL_DI_CASIO", "strokeColor": "#70ACCC", "RGB": "112, 172, 204" }, "geometry": { "type": "LineString", "coordinates": [ [ 11.036351699896345, 44.16240219595084 ], [ 11.036377811031263, 44.162273088046611 ], [ 11.036402557001109, 44.162208763622324 ], [ 11.036452298527829, 44.162087408200641 ], [ 11.036480384167103, 44.162015721804416 ], [ 11.036510902414005, 44.161910241276665 ], [ 11.036538612748634, 44.161827617414467 ], [ 11.036554471148847, 44.161766200091279 ] ] } },
{ "type": "Feature", "properties": { "CITY_NAME": "CASTEL_DI_CASIO", "strokeColor": "#70ACCC", "RGB": "112, 172, 204" }, "geometry": { "type": "LineString", "coordinates": [ [ 10.985338252597545, 44.176225776790979 ], [ 10.984976569377055, 44.176322923115457 ], [ 10.984832155314281, 44.176274112149798 ], [ 10.984045969100087, 44.17491581795047 ], [ 10.983972181352932, 44.174764632019624 ] ] } },
{ "type": "Feature", "properties": { "CITY_NAME": "CASTEL_DI_CASIO", "strokeColor": "#70ACCC", "RGB": "112, 172, 204" }, "geometry": { "type": "LineString", "coordinates": [ [ 10.985332940087032, 44.177964312642288 ], [ 10.985424205454386, 44.17790701317189 ], [ 10.985613846481328, 44.177747925074705 ] ] } },
{ "type": "Feature", "properties": { "CITY_NAME": "CASTEL_DI_CASIO", "strokeColor": "#70ACCC", "RGB": "112, 172, 204" }, "geometry": { "type": "LineString", "coordinates": [ [ 10.982554802148035, 44.177260064119373 ], [ 10.982394274064148, 44.17713904073544 ], [ 10.981806930242863, 44.176714764262258 ], [ 10.981432118972897, 44.176333095555755 ], [ 10.98128628230943, 44.176183095891304 ], [ 10.981241203696799, 44.176067922063801 ], [ 10.981233433670644, 44.17596808589515 ], [ 10.981289059135868, 44.175762795277699 ], [ 10.981316019547178, 44.175542035925147 ], [ 10.981293322312656, 44.175385634065186 ], [ 10.981189690457196, 44.175014232260573 ], [ 10.98112083965327, 44.174649062986106 ], [ 10.981119628816856, 44.174364756217912 ], [ 10.981138055610739, 44.174085843714344 ], [ 10.981148448202724, 44.174030637548185 ], [ 10.981150443273597, 44.173961012796575 ], [ 10.981087827724457, 44.173873295467985 ] ] } },
{ "type": "Feature", "properties": { "CITY_NAME": "CASTEL_DI_CASIO", "strokeColor": "#70ACCC", "RGB": "112, 172, 204" }, "geometry": { "type": "LineString", "coordinates": [ [ 11.036480851388939, 44.162460750045085 ], [ 11.036351699896345, 44.16240219595084 ] ] } },
{ "type": "Feature", "properties": { "CITY_NAME": "CASTEL_DI_CASIO", "strokeColor": "#70ACCC", "RGB": "112, 172, 204" }, "geometry": { "type": "LineString", "coordinates": [ [ 11.033394987871295, 44.164759045792181 ], [ 11.03337672352877, 44.164698229322831 ], [ 11.033302285887467, 44.164571838907669 ], [ 11.033181619208724, 44.164393827709624 ], [ 11.033073201098336, 44.164233895264992 ], [ 11.032983582131656, 44.164084092316664 ], [ 11.032917468598743, 44.163938413805006 ], [ 11.032797589969547, 44.163692469839212 ], [ 11.032748959759219, 44.163584803397931 ], [ 11.03271094960702, 44.163472372531501 ], [ 11.032701478298698, 44.163405933654452 ], [ 11.032699629875484, 44.163352124551793 ], [ 11.032712619990384, 44.163311721593722 ], [ 11.032737934199492, 44.163263811269132 ], [ 11.032761764136149, 44.163225049277948 ], [ 11.032810458223564, 44.163177596956587 ], [ 11.032890518285667, 44.163133600721387 ], [ 11.033018662808143, 44.163065082007201 ] ] } },
{ "type": "Feature", "properties": { "CITY_NAME": "CASTEL_DI_CASIO", "strokeColor": "#70ACCC", "RGB": "112, 172, 204" }, "geometry": { "type": "LineString", "coordinates": [ [ 11.037780931095902, 44.161788093968489 ], [ 11.037896410609708, 44.161801368168703 ], [ 11.037952338056066, 44.161807584262633 ], [ 11.037992322439242, 44.161820494149126 ], [ 11.038023388321392, 44.161835400716285 ], [ 11.038053034957612, 44.161861281248243 ], [ 11.038073827189377, 44.161890983151451 ], [ 11.038093795898556, 44.161948991922891 ], [ 11.038105892165511, 44.161987078733389 ], [ 11.03813669377398, 44.162098707356449 ], [ 11.038158962450595, 44.16217127265638 ], [ 11.038159998622255, 44.16220135685527 ] ] } },
{ "type": "Feature", "properties": { "CITY_NAME": "CASTEL_DI_CASIO", "strokeColor": "#70ACCC", "RGB": "112, 172, 204" }, "geometry": { "type": "LineString", "coordinates": [ [ 11.036829106244687, 44.161756330459824 ], [ 11.036983783912879, 44.161759725089105 ], [ 11.03709876233523, 44.161758413243589 ], [ 11.037177975028783, 44.161762355202427 ] ] } },
{ "type": "Feature", "properties": { "CITY_NAME": "CASTEL_DI_CASIO", "strokeColor": "#70ACCC", "RGB": "112, 172, 204" }, "geometry": { "type": "LineString", "coordinates": [ [ 10.982335281459454, 44.178099463031252 ], [ 10.982425279063396, 44.178094084334674 ], [ 10.98257468570363, 44.178114674373965 ], [ 10.982732821592943, 44.178136931276242 ], [ 10.982908888580473, 44.17817591130548 ], [ 10.982973823347098, 44.178197954051335 ], [ 10.983097990345454, 44.178252357839142 ], [ 10.98322918730587, 44.178333892581591 ], [ 10.983410660290572, 44.178439779658305 ], [ 10.98357444986917, 44.178548251377762 ], [ 10.983776479526036, 44.178647457048314 ], [ 10.983879988977655, 44.178694071058359 ], [ 10.984000443908084, 44.178729726442896 ], [ 10.984156489089022, 44.178766826830824 ], [ 10.984255917313469, 44.178783993963208 ], [ 10.984426433073319, 44.178770040953147 ] ] } },
{ "type": "Feature", "properties": { "CITY_NAME": "CASTEL_DI_CASIO", "strokeColor": "#70ACCC", "RGB": "112, 172, 204" }, "geometry": { "type": "LineString", "coordinates": [ [ 10.981373280418547, 44.177581075461816 ], [ 10.981465941598392, 44.177655036744696 ], [ 10.981603595669617, 44.177763956691891 ], [ 10.981778778992364, 44.17785483757141 ], [ 10.981956183354125, 44.177933882915688 ], [ 10.982110380100568, 44.178004809396946 ], [ 10.982287747190473, 44.178079393850894 ], [ 10.982335281459454, 44.178099463031252 ] ] } },
{ "type": "Feature", "properties": { "CITY_NAME": "CASTEL_DI_CASIO", "strokeColor": "#70ACCC", "RGB": "112, 172, 204" }, "geometry": { "type": "LineString", "coordinates": [ [ 10.986214317921538, 44.176747690133233 ], [ 10.986128176850196, 44.176766364394325 ], [ 10.98588228525297, 44.176896408150391 ], [ 10.985662966917733, 44.176746073177029 ], [ 10.985727617670058, 44.176675386811382 ], [ 10.985687314457865, 44.176603533706448 ], [ 10.985338252597545, 44.176225776790979 ] ] } },
{ "type": "Feature", "properties": { "CITY_NAME": "CASTEL_DI_CASIO", "strokeColor": "#70ACCC", "RGB": "112, 172, 204" }, "geometry": { "type": "LineString", "coordinates": [ [ 10.987862858968027, 44.178298219503318 ], [ 10.987873101715852, 44.178343537288221 ], [ 10.987882667466137, 44.178432098670186 ], [ 10.987936919444756, 44.178495939411675 ], [ 10.988162675798902, 44.178628272388195 ], [ 10.988354733942415, 44.178727104262798 ], [ 10.988500373274977, 44.178800630725085 ] ] } },
{ "type": "Feature", "properties": { "CITY_NAME": "CASTEL_DI_CASIO", "strokeColor": "#70ACCC", "RGB": "112, 172, 204" }, "geometry": { "type": "LineString", "coordinates": [ [ 11.036578877943326, 44.162632226497159 ], [ 11.036480851388939, 44.162460750045085 ] ] } },
{ "type": "Feature", "properties": { "CITY_NAME": "CASTEL_DI_CASIO", "strokeColor": "#70ACCC", "RGB": "112, 172, 204" }, "geometry": { "type": "LineString", "coordinates": [ [ 10.986409826638816, 44.177928216065723 ], [ 10.986514271028398, 44.177937647675662 ], [ 10.986777246519418, 44.178014660344672 ], [ 10.987273951343198, 44.178139658257699 ], [ 10.987768601049739, 44.178269255230241 ], [ 10.987862858968027, 44.178298219503318 ] ] } },
{ "type": "Feature", "properties": { "CITY_NAME": "CASTEL_DI_CASIO", "strokeColor": "#70ACCC", "RGB": "112, 172, 204" }, "geometry": { "type": "LineString", "coordinates": [ [ 11.036649775835629, 44.16302124369043 ], [ 11.036630743404022, 44.162833715909031 ], [ 11.036603347915088, 44.162716581082151 ], [ 11.036578877943326, 44.162632226497159 ] ] } },
{ "type": "Feature", "properties": { "CITY_NAME": "CASTEL_DI_CASIO", "strokeColor": "#70ACCC", "RGB": "112, 172, 204" }, "geometry": { "type": "LineString", "coordinates": [ [ 10.986543794842339, 44.178161196964012 ], [ 10.986803906887975, 44.178218928899923 ], [ 10.98707275625862, 44.178278775180381 ], [ 10.987099348641268, 44.178232776758676 ], [ 10.987115527418132, 44.178136916902204 ] ] } },
{ "type": "Feature", "properties": { "CITY_NAME": "CASTEL_DI_CASIO", "strokeColor": "#70ACCC", "RGB": "112, 172, 204" }, "geometry": { "type": "LineString", "coordinates": [ [ 10.97964437472324, 44.154799980352635 ], [ 10.979702339842484, 44.15489677887112 ], [ 10.979696752087913, 44.155067788750721 ], [ 10.979704195880885, 44.155388875831214 ], [ 10.979776892279563, 44.155487971305092 ], [ 10.979879481809158, 44.155623184779373 ], [ 10.980057648376745, 44.155823751212743 ], [ 10.980170350561378, 44.15594197939545 ], [ 10.980220766451566, 44.156033305904764 ], [ 10.980253186999393, 44.156125226233939 ], [ 10.98027232283469, 44.156259115271013 ], [ 10.980270073152894, 44.156311820593558 ], [ 10.980284237666991, 44.156617148151206 ], [ 10.980270871773797, 44.156656658629053 ], [ 10.980195746030892, 44.15670507272101 ], [ 10.979458389530043, 44.156865239359568 ], [ 10.979321456471501, 44.156901131314946 ], [ 10.979227620160263, 44.156928720791157 ], [ 10.979174153506184, 44.15696630443184 ], [ 10.978985055695045, 44.157199170341755 ], [ 10.978941646562767, 44.157318429420307 ], [ 10.978878542733497, 44.157487458548658 ], [ 10.978819549333478, 44.157626791730969 ] ] } },
{ "type": "Feature", "properties": { "CITY_NAME": "CASTEL_DI_CASIO", "strokeColor": "#70ACCC", "RGB": "112, 172, 204" }, "geometry": { "type": "LineString", "coordinates": [ [ 11.036972019903432, 44.162462293897327 ], [ 11.036955827122519, 44.162388166892782 ] ] } },
{ "type": "Feature", "properties": { "CITY_NAME": "CASTEL_DI_CASIO", "strokeColor": "#70ACCC", "RGB": "112, 172, 204" }, "geometry": { "type": "LineString", "coordinates": [ [ 11.033018662808143, 44.163065082007201 ], [ 11.033244807646842, 44.16294994336689 ], [ 11.033415122515359, 44.16287477724569 ], [ 11.033514747063508, 44.162824145348125 ], [ 11.033590717738814, 44.162786011320449 ], [ 11.033700195315625, 44.162729169035181 ], [ 11.033796823556159, 44.162664550851161 ], [ 11.033864896788604, 44.162605777285997 ], [ 11.033891606435249, 44.162535769000982 ], [ 11.033883978556066, 44.162460227680015 ], [ 11.033875782299129, 44.162357705250734 ], [ 11.033844992280814, 44.162235740632312 ], [ 11.033831064292398, 44.162133290568605 ], [ 11.03382919340611, 44.161970014335239 ], [ 11.033827443208059, 44.161817199327317 ] ] } },
{ "type": "Feature", "properties": { "CITY_NAME": "CASTEL_DI_CASIO", "strokeColor": "#70ACCC", "RGB": "112, 172, 204" }, "geometry": { "type": "LineString", "coordinates": [ [ 11.037555736953006, 44.161772381997785 ], [ 11.037661923662908, 44.161776712927903 ], [ 11.037780931095902, 44.161788093968489 ] ] } },
{ "type": "Feature", "properties": { "CITY_NAME": "CASTEL_DI_CASIO", "strokeColor": "#70ACCC", "RGB": "112, 172, 204" }, "geometry": { "type": "LineString", "coordinates": [ [ 10.981087827724457, 44.173873295467985 ], [ 10.981089066662305, 44.17381922673583 ], [ 10.981039092986535, 44.173716638468257 ] ] } },
{ "type": "Feature", "properties": { "CITY_NAME": "CASTEL_DI_CASIO", "strokeColor": "#70ACCC", "RGB": "112, 172, 204" }, "geometry": { "type": "LineString", "coordinates": [ [ 11.033827443208059, 44.161817199327317 ], [ 11.033934912653869, 44.161766722640536 ], [ 11.034027652782726, 44.161724976504154 ], [ 11.034116198477877, 44.161697177850954 ], [ 11.03417618833743, 44.161685624280665 ], [ 11.034258383424886, 44.161682212743578 ], [ 11.034321123139037, 44.161687931136719 ], [ 11.034384585033266, 44.161704215248328 ], [ 11.034431635446234, 44.161734496187862 ], [ 11.034476177483185, 44.161765007259568 ], [ 11.034520893804588, 44.161800622655583 ], [ 11.03463936603962, 44.161942790736525 ], [ 11.034756156568365, 44.162109251953225 ], [ 11.034967621427553, 44.162344051938341 ], [ 11.035187099281412, 44.162611599660359 ], [ 11.03545213308278, 44.162945071171229 ] ] } },
{ "type": "Feature", "properties": { "CITY_NAME": "CASTEL_DI_CASIO", "strokeColor": "#70ACCC", "RGB": "112, 172, 204" }, "geometry": { "type": "LineString", "coordinates": [ [ 11.03592595465812, 44.16350522033575 ], [ 11.035985214612065, 44.163608250182556 ], [ 11.036212759841218, 44.163899482279056 ], [ 11.036404475644952, 44.164144887968476 ] ] } },
{ "type": "Feature", "properties": { "CITY_NAME": "CASTEL_DI_CASIO", "strokeColor": "#70ACCC", "RGB": "112, 172, 204" }, "geometry": { "type": "LineString", "coordinates": [ [ 11.037498660323196, 44.162307104677502 ], [ 11.037491752946792, 44.162266642943344 ] ] } },
{ "type": "Feature", "properties": { "CITY_NAME": "CASTEL_DI_CASIO", "strokeColor": "#70ACCC", "RGB": "112, 172, 204" }, "geometry": { "type": "LineString", "coordinates": [ [ 11.037491752946792, 44.162266642943344 ], [ 11.037596751189557, 44.162258443946136 ] ] } },
{ "type": "Feature", "properties": { "CITY_NAME": "CASTEL_DI_CASIO", "strokeColor": "#70ACCC", "RGB": "112, 172, 204" }, "geometry": { "type": "LineString", "coordinates": [ [ 11.03592595465812, 44.16350522033575 ], [ 11.036056823009485, 44.16344331823381 ], [ 11.036351616494098, 44.163287834686408 ], [ 11.036422299670093, 44.163252729868198 ], [ 11.036496229788332, 44.163207528671322 ], [ 11.036541893404038, 44.16317655221745 ], [ 11.036591784392929, 44.163111746016433 ], [ 11.036626136927635, 44.16306547965695 ], [ 11.036649775835629, 44.16302124369043 ] ] } },
{ "type": "Feature", "properties": { "CITY_NAME": "CASTEL_DI_CASIO", "strokeColor": "#70ACCC", "RGB": "112, 172, 204" }, "geometry": { "type": "LineString", "coordinates": [ [ 11.03545213308278, 44.162945071171229 ], [ 11.035487663375417, 44.162989777365262 ], [ 11.035643384184885, 44.163180135627485 ], [ 11.035758494364449, 44.163339404366248 ], [ 11.035814827776585, 44.163409587432149 ], [ 11.03592595465812, 44.16350522033575 ] ] } },
{ "type": "Feature", "properties": { "CITY_NAME": "CASTEL_DI_CASIO", "strokeColor": "#70ACCC", "RGB": "112, 172, 204" }, "geometry": { "type": "LineString", "coordinates": [ [ 11.036649775835629, 44.16302124369043 ], [ 11.036723917274113, 44.163034411828683 ], [ 11.036792513706851, 44.163043125963107 ], [ 11.036889594777008, 44.163043995377194 ], [ 11.036986865349652, 44.163050333398765 ], [ 11.037084922034483, 44.163053929381867 ], [ 11.037165619058918, 44.163066423900574 ], [ 11.037265979221988, 44.163080072885862 ], [ 11.037353130203243, 44.163091631952014 ], [ 11.037428942420973, 44.163101119976083 ], [ 11.037482888117241, 44.163101906787226 ], [ 11.037531318851281, 44.163099151128968 ], [ 11.037581231720008, 44.163087244385991 ], [ 11.037625412374009, 44.163065414076037 ], [ 11.037690549217048, 44.163025849178624 ], [ 11.037870421336647, 44.162925695195135 ], [ 11.037938647611877, 44.16287147473291 ], [ 11.038024802766392, 44.162815995237722 ], [ 11.038073805989496, 44.162777650770984 ], [ 11.038113797437221, 44.162738601025268 ], [ 11.038130943249232, 44.162714567402837 ], [ 11.038148119159631, 44.162691444352014 ], [ 11.038154438196145, 44.162561791688589 ] ] } },
{ "type": "Feature", "properties": { "CITY_NAME": "CASTEL_DI_CASIO", "strokeColor": "#70ACCC", "RGB": "112, 172, 204" }, "geometry": { "type": "LineString", "coordinates": [ [ 11.037596751189557, 44.162258443946136 ], [ 11.037749718770296, 44.162258046241668 ], [ 11.037899091817581, 44.162244644510906 ] ] } },
{ "type": "Feature", "properties": { "CITY_NAME": "CASTEL_DI_CASIO", "strokeColor": "#70ACCC", "RGB": "112, 172, 204" }, "geometry": { "type": "LineString", "coordinates": [ [ 10.981390412851376, 44.161743319915956 ], [ 10.981541029334112, 44.161507789459449 ], [ 10.981615566321977, 44.161413784984305 ], [ 10.981741031728292, 44.161309642411581 ], [ 10.982018707238504, 44.161118185807403 ], [ 10.982263041224758, 44.160977135769905 ] ] } }
]
}
