{
"type": "FeatureCollection",
"name": "CASTIGLIONE_DEI_PEPOLI",
"crs": { "type": "name", "properties": { "name": "urn:ogc:def:crs:OGC:1.3:CRS84" } },
"features": [
{ "type": "Feature", "properties": { "CITY_NAME": "CASTIGLIONE_DEI_PEPOLI", "strokeColor": "#70ACCC", "RGB": "112, 172, 204" }, "geometry": { "type": "LineString", "coordinates": [ [ 11.152839252388436, 44.141718471405937 ], [ 11.153246562455353, 44.141652324830609 ] ] } },
{ "type": "Feature", "properties": { "CITY_NAME": "CASTIGLIONE_DEI_PEPOLI", "strokeColor": "#70ACCC", "RGB": "112, 172, 204" }, "geometry": { "type": "LineString", "coordinates": [ [ 11.157615745125927, 44.142014495312409 ], [ 11.157536431593243, 44.142065126417158 ], [ 11.157481590153004, 44.142092284123223 ], [ 11.15739262660113, 44.142097675986712 ] ] } },
{ "type": "Feature", "properties": { "CITY_NAME": "CASTIGLIONE_DEI_PEPOLI", "strokeColor": "#70ACCC", "RGB": "112, 172, 204" }, "geometry": { "type": "LineString", "coordinates": [ [ 11.166503926312927, 44.140557872663692 ], [ 11.166396446188781, 44.140444467017396 ], [ 11.166313998074932, 44.140374633087553 ], [ 11.166249089749636, 44.140347394876549 ], [ 11.166154681988127, 44.140329053976984 ], [ 11.166043236417455, 44.140323119222323 ] ] } },
{ "type": "Feature", "properties": { "CITY_NAME": "CASTIGLIONE_DEI_PEPOLI", "strokeColor": "#70ACCC", "RGB": "112, 172, 204" }, "geometry": { "type": "LineString", "coordinates": [ [ 11.153572184771749, 44.141701540708191 ], [ 11.154257669610367, 44.141490458463316 ] ] } },
{ "type": "Feature", "properties": { "CITY_NAME": "CASTIGLIONE_DEI_PEPOLI", "strokeColor": "#70ACCC", "RGB": "112, 172, 204" }, "geometry": { "type": "LineString", "coordinates": [ [ 11.199748447888604, 44.129701168011003 ], [ 11.200000139812408, 44.13004641079965 ], [ 11.199757057600765, 44.130166200088219 ] ] } },
{ "type": "Feature", "properties": { "CITY_NAME": "CASTIGLIONE_DEI_PEPOLI", "strokeColor": "#70ACCC", "RGB": "112, 172, 204" }, "geometry": { "type": "LineString", "coordinates": [ [ 11.162660080723787, 44.142712626451114 ], [ 11.162998338046913, 44.14258064745075 ], [ 11.163445263716373, 44.142598183704671 ], [ 11.16402658689451, 44.142611606609044 ], [ 11.164345287308521, 44.142618964020443 ] ] } },
{ "type": "Feature", "properties": { "CITY_NAME": "CASTIGLIONE_DEI_PEPOLI", "strokeColor": "#70ACCC", "RGB": "112, 172, 204" }, "geometry": { "type": "LineString", "coordinates": [ [ 11.155760461153282, 44.14135496053931 ], [ 11.155964988269469, 44.14132524416307 ], [ 11.156100434182644, 44.141309066978664 ], [ 11.156823248070316, 44.141292188509347 ] ] } },
{ "type": "Feature", "properties": { "CITY_NAME": "CASTIGLIONE_DEI_PEPOLI", "strokeColor": "#70ACCC", "RGB": "112, 172, 204" }, "geometry": { "type": "LineString", "coordinates": [ [ 11.195801851910918, 44.129677460661568 ], [ 11.19590621847229, 44.129662503686689 ], [ 11.196175665757517, 44.129643419311904 ], [ 11.196403735408923, 44.129618655156314 ], [ 11.196614865083781, 44.129556437623002 ], [ 11.196790025463569, 44.129529761751741 ], [ 11.196934218878683, 44.12954845737984 ] ] } },
{ "type": "Feature", "properties": { "CITY_NAME": "CASTIGLIONE_DEI_PEPOLI", "strokeColor": "#70ACCC", "RGB": "112, 172, 204" }, "geometry": { "type": "LineString", "coordinates": [ [ 11.199858223556921, 44.129569548271071 ], [ 11.199891507516272, 44.129343508303926 ], [ 11.199908552212985, 44.129253301148559 ] ] } },
{ "type": "Feature", "properties": { "CITY_NAME": "CASTIGLIONE_DEI_PEPOLI", "strokeColor": "#70ACCC", "RGB": "112, 172, 204" }, "geometry": { "type": "LineString", "coordinates": [ [ 11.197665734948787, 44.129429266644117 ], [ 11.19781805249308, 44.129473749919569 ], [ 11.197987689088961, 44.12949900663746 ], [ 11.19806015998088, 44.129503983165009 ] ] } },
{ "type": "Feature", "properties": { "CITY_NAME": "CASTIGLIONE_DEI_PEPOLI", "strokeColor": "#70ACCC", "RGB": "112, 172, 204" }, "geometry": { "type": "LineString", "coordinates": [ [ 11.152861706328219, 44.141932873419435 ], [ 11.153043481452974, 44.14195776638703 ], [ 11.153621559988947, 44.141885957850882 ], [ 11.153572184771749, 44.141701540708191 ] ] } },
{ "type": "Feature", "properties": { "CITY_NAME": "CASTIGLIONE_DEI_PEPOLI", "strokeColor": "#70ACCC", "RGB": "112, 172, 204" }, "geometry": { "type": "LineString", "coordinates": [ [ 11.15739262660113, 44.142097675986712 ], [ 11.157319782862341, 44.142154177161956 ], [ 11.157219898073686, 44.142159803123995 ], [ 11.157052567659449, 44.142111687894449 ], [ 11.156895702812799, 44.142060950211778 ], [ 11.156790088043801, 44.142021637991903 ] ] } },
{ "type": "Feature", "properties": { "CITY_NAME": "CASTIGLIONE_DEI_PEPOLI", "strokeColor": "#70ACCC", "RGB": "112, 172, 204" }, "geometry": { "type": "LineString", "coordinates": [ [ 11.194760213055641, 44.130084783506568 ], [ 11.194977025826546, 44.129995031849447 ], [ 11.195160247842303, 44.129952999094449 ], [ 11.195386651702025, 44.129874877944559 ], [ 11.195532901222636, 44.129796055710734 ], [ 11.195670423309215, 44.129718287904851 ], [ 11.19573198138035, 44.129695191620769 ], [ 11.195801851910918, 44.129677460661568 ] ] } },
{ "type": "Feature", "properties": { "CITY_NAME": "CASTIGLIONE_DEI_PEPOLI", "strokeColor": "#70ACCC", "RGB": "112, 172, 204" }, "geometry": { "type": "LineString", "coordinates": [ [ 11.197150762363446, 44.129640856474722 ], [ 11.197339597495958, 44.129714164296303 ], [ 11.198313675320458, 44.130054203141796 ], [ 11.198554233512613, 44.130119276518862 ], [ 11.198624304933027, 44.130132395365855 ] ] } },
{ "type": "Feature", "properties": { "CITY_NAME": "CASTIGLIONE_DEI_PEPOLI", "strokeColor": "#70ACCC", "RGB": "112, 172, 204" }, "geometry": { "type": "LineString", "coordinates": [ [ 11.165906642659795, 44.143337407200541 ], [ 11.166125194057397, 44.143467454388691 ] ] } },
{ "type": "Feature", "properties": { "CITY_NAME": "CASTIGLIONE_DEI_PEPOLI", "strokeColor": "#70ACCC", "RGB": "112, 172, 204" }, "geometry": { "type": "LineString", "coordinates": [ [ 11.201206917416346, 44.128922170018257 ], [ 11.200865279675019, 44.129209344613663 ], [ 11.200726260137339, 44.129312301281693 ] ] } },
{ "type": "Feature", "properties": { "CITY_NAME": "CASTIGLIONE_DEI_PEPOLI", "strokeColor": "#70ACCC", "RGB": "112, 172, 204" }, "geometry": { "type": "LineString", "coordinates": [ [ 11.201155545623465, 44.128891504493701 ], [ 11.200972775875655, 44.128809082081055 ], [ 11.200593091761103, 44.128616331969425 ], [ 11.200415621719031, 44.128461038111055 ] ] } },
{ "type": "Feature", "properties": { "CITY_NAME": "CASTIGLIONE_DEI_PEPOLI", "strokeColor": "#70ACCC", "RGB": "112, 172, 204" }, "geometry": { "type": "LineString", "coordinates": [ [ 11.200726260137339, 44.129312301281693 ], [ 11.200651306273967, 44.129346880775138 ], [ 11.20056317157094, 44.129352797188659 ], [ 11.200413124822742, 44.129324771992614 ] ] } },
{ "type": "Feature", "properties": { "CITY_NAME": "CASTIGLIONE_DEI_PEPOLI", "strokeColor": "#70ACCC", "RGB": "112, 172, 204" }, "geometry": { "type": "LineString", "coordinates": [ [ 11.200040502487019, 44.128896948231052 ], [ 11.200083024919984, 44.128813137548185 ], [ 11.200234700197154, 44.12858501446302 ], [ 11.200415621719031, 44.128461038111055 ] ] } },
{ "type": "Feature", "properties": { "CITY_NAME": "CASTIGLIONE_DEI_PEPOLI", "strokeColor": "#70ACCC", "RGB": "112, 172, 204" }, "geometry": { "type": "LineString", "coordinates": [ [ 11.154103873859526, 44.142461477727814 ], [ 11.154070921913389, 44.142475423888456 ], [ 11.154000839236732, 44.142548054807243 ], [ 11.153960581802906, 44.142641116498083 ], [ 11.153982626523831, 44.142720447297656 ], [ 11.154031644902293, 44.142776042228185 ], [ 11.154122187708879, 44.142820864005607 ], [ 11.154237964437382, 44.142841519859637 ], [ 11.154386814553428, 44.142908054358259 ], [ 11.154438976533161, 44.142951757049921 ], [ 11.154483212399844, 44.143016571141374 ], [ 11.154518198251523, 44.143066970242216 ] ] } },
{ "type": "Feature", "properties": { "CITY_NAME": "CASTIGLIONE_DEI_PEPOLI", "strokeColor": "#70ACCC", "RGB": "112, 172, 204" }, "geometry": { "type": "LineString", "coordinates": [ [ 11.199943113812596, 44.129112264466755 ], [ 11.199952971719549, 44.129068087231246 ], [ 11.199997801208548, 44.128937844591071 ], [ 11.200040502487019, 44.128896948231052 ] ] } },
{ "type": "Feature", "properties": { "CITY_NAME": "CASTIGLIONE_DEI_PEPOLI", "strokeColor": "#70ACCC", "RGB": "112, 172, 204" }, "geometry": { "type": "LineString", "coordinates": [ [ 11.156355522113138, 44.141974810912529 ], [ 11.156330768912085, 44.142040499387221 ] ] } },
{ "type": "Feature", "properties": { "CITY_NAME": "CASTIGLIONE_DEI_PEPOLI", "strokeColor": "#70ACCC", "RGB": "112, 172, 204" }, "geometry": { "type": "LineString", "coordinates": [ [ 11.164259113640787, 44.143100151875863 ], [ 11.164126201292463, 44.143098810345499 ], [ 11.163802133694547, 44.143110243526024 ] ] } },
{ "type": "Feature", "properties": { "CITY_NAME": "CASTIGLIONE_DEI_PEPOLI", "strokeColor": "#70ACCC", "RGB": "112, 172, 204" }, "geometry": { "type": "LineString", "coordinates": [ [ 11.199151625175841, 44.130024111081902 ], [ 11.199392989204698, 44.129919940527941 ] ] } },
{ "type": "Feature", "properties": { "CITY_NAME": "CASTIGLIONE_DEI_PEPOLI", "strokeColor": "#70ACCC", "RGB": "112, 172, 204" }, "geometry": { "type": "LineString", "coordinates": [ [ 11.154027544209555, 44.143352894054686 ], [ 11.153939459178138, 44.143372186322779 ], [ 11.153218670534592, 44.143468927831677 ], [ 11.153009512941866, 44.143496630671564 ], [ 11.152832077131531, 44.14353468374118 ], [ 11.152746233786399, 44.143560045019775 ], [ 11.15267308511638, 44.143597943199097 ], [ 11.152591827785002, 44.143649686974484 ], [ 11.15230760323688, 44.143858126074235 ], [ 11.152232229840724, 44.14390204845062 ], [ 11.152157734433962, 44.143931259397391 ], [ 11.152008071039671, 44.14396787934956 ], [ 11.15184610055063, 44.144001083872816 ], [ 11.151699107922468, 44.144018485527596 ], [ 11.151491527812432, 44.144041605702853 ], [ 11.151281327363495, 44.144043780575743 ], [ 11.150749050710841, 44.144032915300961 ], [ 11.150465640741995, 44.1440224839194 ], [ 11.150255433748569, 44.143991185361706 ] ] } },
{ "type": "Feature", "properties": { "CITY_NAME": "CASTIGLIONE_DEI_PEPOLI", "strokeColor": "#70ACCC", "RGB": "112, 172, 204" }, "geometry": { "type": "LineString", "coordinates": [ [ 11.163802133694547, 44.143110243526024 ], [ 11.163755220900875, 44.143111262104298 ], [ 11.163174929639716, 44.143136314555413 ], [ 11.162921949450837, 44.14313905656627 ], [ 11.162665684092152, 44.143147325104607 ], [ 11.16251295860555, 44.143171040682695 ], [ 11.162396555069705, 44.14323328567675 ], [ 11.162317631476757, 44.143303598848739 ], [ 11.162062530739002, 44.143625620293605 ] ] } },
{ "type": "Feature", "properties": { "CITY_NAME": "CASTIGLIONE_DEI_PEPOLI", "strokeColor": "#70ACCC", "RGB": "112, 172, 204" }, "geometry": { "type": "LineString", "coordinates": [ [ 11.151044127621482, 44.141698512248908 ], [ 11.151170571566277, 44.14168522671681 ], [ 11.151325639769658, 44.14168677725349 ], [ 11.151454299091931, 44.14168622505003 ], [ 11.151626334975662, 44.1416830466842 ], [ 11.151711552727699, 44.141683297407468 ] ] } },
{ "type": "Feature", "properties": { "CITY_NAME": "CASTIGLIONE_DEI_PEPOLI", "strokeColor": "#70ACCC", "RGB": "112, 172, 204" }, "geometry": { "type": "LineString", "coordinates": [ [ 11.20115933716407, 44.127967493280572 ], [ 11.20192596969051, 44.127260276846179 ] ] } },
{ "type": "Feature", "properties": { "CITY_NAME": "CASTIGLIONE_DEI_PEPOLI", "strokeColor": "#70ACCC", "RGB": "112, 172, 204" }, "geometry": { "type": "LineString", "coordinates": [ [ 11.166043236417455, 44.140323119222323 ], [ 11.165614267534687, 44.140330261348474 ], [ 11.165243566833981, 44.140351999309765 ], [ 11.164878717560194, 44.140368251192285 ], [ 11.164620903757424, 44.140382013838696 ], [ 11.164328452595363, 44.140412669469264 ] ] } },
{ "type": "Feature", "properties": { "CITY_NAME": "CASTIGLIONE_DEI_PEPOLI", "strokeColor": "#70ACCC", "RGB": "112, 172, 204" }, "geometry": { "type": "LineString", "coordinates": [ [ 11.154257669610367, 44.141490458463316 ], [ 11.154816345237087, 44.141373585741519 ], [ 11.155525521375164, 44.141301920766914 ] ] } },
{ "type": "Feature", "properties": { "CITY_NAME": "CASTIGLIONE_DEI_PEPOLI", "strokeColor": "#70ACCC", "RGB": "112, 172, 204" }, "geometry": { "type": "LineString", "coordinates": [ [ 11.200942275437075, 44.128136729116129 ], [ 11.201068515557731, 44.128051282833873 ], [ 11.20115933716407, 44.127967493280572 ] ] } },
{ "type": "Feature", "properties": { "CITY_NAME": "CASTIGLIONE_DEI_PEPOLI", "strokeColor": "#70ACCC", "RGB": "112, 172, 204" }, "geometry": { "type": "LineString", "coordinates": [ [ 11.152373248027398, 44.142180697227047 ], [ 11.152524754520099, 44.142371209700251 ], [ 11.152565712371999, 44.142396890502923 ], [ 11.152598722852833, 44.142396273641019 ], [ 11.152645359153682, 44.142388106510161 ], [ 11.15276383230537, 44.142348504900724 ], [ 11.152805462374481, 44.142345904157409 ], [ 11.152846555268274, 44.142375227662527 ], [ 11.152987046463123, 44.142643415126223 ], [ 11.153099811165591, 44.143006928570138 ], [ 11.153144070021815, 44.143074476985227 ] ] } },
{ "type": "Feature", "properties": { "CITY_NAME": "CASTIGLIONE_DEI_PEPOLI", "strokeColor": "#70ACCC", "RGB": "112, 172, 204" }, "geometry": { "type": "LineString", "coordinates": [ [ 11.1629637061924, 44.140691287746343 ], [ 11.163236249663298, 44.140557341311592 ], [ 11.163512391690412, 44.140472169586573 ], [ 11.163851182749291, 44.140429610971879 ], [ 11.164070924127182, 44.14042473828669 ] ] } },
{ "type": "Feature", "properties": { "CITY_NAME": "CASTIGLIONE_DEI_PEPOLI", "strokeColor": "#70ACCC", "RGB": "112, 172, 204" }, "geometry": { "type": "LineString", "coordinates": [ [ 11.199757057600765, 44.130166200088219 ], [ 11.199392989204698, 44.129919940527941 ] ] } },
{ "type": "Feature", "properties": { "CITY_NAME": "CASTIGLIONE_DEI_PEPOLI", "strokeColor": "#70ACCC", "RGB": "112, 172, 204" }, "geometry": { "type": "LineString", "coordinates": [ [ 11.162660080723787, 44.142712626451114 ], [ 11.162866421301215, 44.142794718562712 ], [ 11.163126304354043, 44.142877069096812 ], [ 11.163711129514525, 44.143035935084406 ], [ 11.163802133694547, 44.143110243526024 ] ] } },
{ "type": "Feature", "properties": { "CITY_NAME": "CASTIGLIONE_DEI_PEPOLI", "strokeColor": "#70ACCC", "RGB": "112, 172, 204" }, "geometry": { "type": "LineString", "coordinates": [ [ 11.20192596969051, 44.127260276846179 ], [ 11.202419891969178, 44.126806762983108 ], [ 11.202630688995058, 44.12655253887479 ], [ 11.202786071835019, 44.126264693502236 ], [ 11.202900719160107, 44.126016960187037 ], [ 11.202960289591086, 44.125745046406749 ], [ 11.203013560355773, 44.12546537550822 ], [ 11.203069629222821, 44.125010879728627 ], [ 11.203084150422873, 44.12491141783029 ], [ 11.203126601752409, 44.124835058308747 ], [ 11.203209022591162, 44.124781582351737 ], [ 11.203298078431175, 44.124745302979164 ], [ 11.203436187745494, 44.124733313603059 ], [ 11.203641843229789, 44.124775270812265 ] ] } },
{ "type": "Feature", "properties": { "CITY_NAME": "CASTIGLIONE_DEI_PEPOLI", "strokeColor": "#70ACCC", "RGB": "112, 172, 204" }, "geometry": { "type": "LineString", "coordinates": [ [ 11.156800566127838, 44.142487356018393 ], [ 11.156955577076724, 44.142268981637997 ], [ 11.156330768912085, 44.142040499387221 ] ] } },
{ "type": "Feature", "properties": { "CITY_NAME": "CASTIGLIONE_DEI_PEPOLI", "strokeColor": "#70ACCC", "RGB": "112, 172, 204" }, "geometry": { "type": "LineString", "coordinates": [ [ 11.156330768912085, 44.142040499387221 ], [ 11.156253839936024, 44.142267235329044 ], [ 11.156800566127838, 44.142487356018393 ] ] } },
{ "type": "Feature", "properties": { "CITY_NAME": "CASTIGLIONE_DEI_PEPOLI", "strokeColor": "#70ACCC", "RGB": "112, 172, 204" }, "geometry": { "type": "LineString", "coordinates": [ [ 11.161064338720353, 44.141489469741742 ], [ 11.161215995061179, 44.141434918262966 ], [ 11.161988398809029, 44.141131168344856 ], [ 11.162169988335428, 44.141048425604474 ], [ 11.1629637061924, 44.140691287746343 ] ] } },
{ "type": "Feature", "properties": { "CITY_NAME": "CASTIGLIONE_DEI_PEPOLI", "strokeColor": "#70ACCC", "RGB": "112, 172, 204" }, "geometry": { "type": "LineString", "coordinates": [ [ 11.153572184771749, 44.141701540708191 ], [ 11.153546458923048, 44.14159944741187 ] ] } },
{ "type": "Feature", "properties": { "CITY_NAME": "CASTIGLIONE_DEI_PEPOLI", "strokeColor": "#70ACCC", "RGB": "112, 172, 204" }, "geometry": { "type": "LineString", "coordinates": [ [ 11.158408039701962, 44.14233509803563 ], [ 11.158244794686219, 44.142261490730093 ], [ 11.157708679593146, 44.142048911908418 ], [ 11.157641672884813, 44.142023319105917 ], [ 11.157615745125927, 44.142014495312409 ] ] } },
{ "type": "Feature", "properties": { "CITY_NAME": "CASTIGLIONE_DEI_PEPOLI", "strokeColor": "#70ACCC", "RGB": "112, 172, 204" }, "geometry": { "type": "LineString", "coordinates": [ [ 11.157615745125927, 44.142014495312409 ], [ 11.157382217385429, 44.141927237177214 ] ] } },
{ "type": "Feature", "properties": { "CITY_NAME": "CASTIGLIONE_DEI_PEPOLI", "strokeColor": "#70ACCC", "RGB": "112, 172, 204" }, "geometry": { "type": "LineString", "coordinates": [ [ 11.157382217385429, 44.141927237177214 ], [ 11.157036850961825, 44.141796516679292 ], [ 11.156212620442684, 44.141477500458016 ], [ 11.155760461153282, 44.14135496053931 ] ] } },
{ "type": "Feature", "properties": { "CITY_NAME": "CASTIGLIONE_DEI_PEPOLI", "strokeColor": "#70ACCC", "RGB": "112, 172, 204" }, "geometry": { "type": "LineString", "coordinates": [ [ 11.154257669610367, 44.141490458463316 ], [ 11.154178002110518, 44.141271326341645 ] ] } },
{ "type": "Feature", "properties": { "CITY_NAME": "CASTIGLIONE_DEI_PEPOLI", "strokeColor": "#70ACCC", "RGB": "112, 172, 204" }, "geometry": { "type": "LineString", "coordinates": [ [ 11.154103873859526, 44.142461477727814 ], [ 11.153766278795745, 44.14245328487479 ], [ 11.153502693883071, 44.142472871619127 ], [ 11.153387610957134, 44.142502242879772 ], [ 11.153277707808552, 44.14251476971333 ], [ 11.153204830579986, 44.142507758432671 ], [ 11.153160034070661, 44.142475097223645 ], [ 11.153143869565438, 44.14243143094609 ], [ 11.153179873988215, 44.14238469497986 ], [ 11.153248829655494, 44.14236456209629 ], [ 11.153370191243681, 44.142347639082416 ], [ 11.153599030019675, 44.142330804759645 ], [ 11.153804102180223, 44.142299761224777 ], [ 11.153911346079736, 44.142293573598714 ], [ 11.15410905898602, 44.142294870561507 ], [ 11.154172921040409, 44.142288733968044 ], [ 11.154218689446193, 44.142266959998572 ], [ 11.154240244364086, 44.142220514290415 ], [ 11.154227041596142, 44.142178892712053 ], [ 11.154193784086775, 44.142146012424377 ], [ 11.154134731914107, 44.1421240713047 ], [ 11.154053341356956, 44.142127658437921 ], [ 11.153879587594139, 44.142143447476585 ], [ 11.153754374543983, 44.142135311561141 ], [ 11.153572831676019, 44.142096820688863 ], [ 11.153437573186645, 44.142053278374625 ], [ 11.153240649437107, 44.142069500676158 ], [ 11.15305753274118, 44.142066624255342 ], [ 11.152968241844173, 44.142009655367303 ], [ 11.152861706328219, 44.141932873419435 ] ] } },
{ "type": "Feature", "properties": { "CITY_NAME": "CASTIGLIONE_DEI_PEPOLI", "strokeColor": "#70ACCC", "RGB": "112, 172, 204" }, "geometry": { "type": "LineString", "coordinates": [ [ 11.200415621719031, 44.128461038111055 ], [ 11.200693783032946, 44.12830490469868 ] ] } },
{ "type": "Feature", "properties": { "CITY_NAME": "CASTIGLIONE_DEI_PEPOLI", "strokeColor": "#70ACCC", "RGB": "112, 172, 204" }, "geometry": { "type": "LineString", "coordinates": [ [ 11.199748447888604, 44.129701168011003 ], [ 11.199858223556921, 44.129569548271071 ] ] } },
{ "type": "Feature", "properties": { "CITY_NAME": "CASTIGLIONE_DEI_PEPOLI", "strokeColor": "#70ACCC", "RGB": "112, 172, 204" }, "geometry": { "type": "LineString", "coordinates": [ [ 11.198795510361839, 44.130137017992674 ], [ 11.198852255803546, 44.130124613838277 ], [ 11.198924174685411, 44.13010324749073 ], [ 11.199151625175841, 44.130024111081902 ] ] } },
{ "type": "Feature", "properties": { "CITY_NAME": "CASTIGLIONE_DEI_PEPOLI", "strokeColor": "#70ACCC", "RGB": "112, 172, 204" }, "geometry": { "type": "LineString", "coordinates": [ [ 11.196934218878683, 44.12954845737984 ], [ 11.197064376164393, 44.129607321896756 ], [ 11.197150762363446, 44.129640856474722 ] ] } },
{ "type": "Feature", "properties": { "CITY_NAME": "CASTIGLIONE_DEI_PEPOLI", "strokeColor": "#70ACCC", "RGB": "112, 172, 204" }, "geometry": { "type": "LineString", "coordinates": [ [ 11.154384088044578, 44.142368487920237 ], [ 11.154215022854361, 44.142414436678237 ], [ 11.154103873859526, 44.142461477727814 ] ] } },
{ "type": "Feature", "properties": { "CITY_NAME": "CASTIGLIONE_DEI_PEPOLI", "strokeColor": "#70ACCC", "RGB": "112, 172, 204" }, "geometry": { "type": "LineString", "coordinates": [ [ 11.196934218878683, 44.12954845737984 ], [ 11.197074918732728, 44.12949209732318 ], [ 11.19720947790225, 44.129467570449336 ], [ 11.197350363515557, 44.129450805689004 ], [ 11.19753663868919, 44.12943951265374 ], [ 11.197665734948787, 44.129429266644117 ] ] } },
{ "type": "Feature", "properties": { "CITY_NAME": "CASTIGLIONE_DEI_PEPOLI", "strokeColor": "#70ACCC", "RGB": "112, 172, 204" }, "geometry": { "type": "LineString", "coordinates": [ [ 11.199908552212985, 44.129253301148559 ], [ 11.199943113812596, 44.129112264466755 ] ] } },
{ "type": "Feature", "properties": { "CITY_NAME": "CASTIGLIONE_DEI_PEPOLI", "strokeColor": "#70ACCC", "RGB": "112, 172, 204" }, "geometry": { "type": "LineString", "coordinates": [ [ 11.200693783032946, 44.12830490469868 ], [ 11.200942275437075, 44.128136729116129 ] ] } },
{ "type": "Feature", "properties": { "CITY_NAME": "CASTIGLIONE_DEI_PEPOLI", "strokeColor": "#70ACCC", "RGB": "112, 172, 204" }, "geometry": { "type": "LineString", "coordinates": [ [ 11.14862911838746, 44.141727392721286 ], [ 11.148769806415876, 44.141794543703426 ], [ 11.148805506571243, 44.14183060451942 ] ] } },
{ "type": "Feature", "properties": { "CITY_NAME": "CASTIGLIONE_DEI_PEPOLI", "strokeColor": "#70ACCC", "RGB": "112, 172, 204" }, "geometry": { "type": "LineString", "coordinates": [ [ 11.153246562455353, 44.141652324830609 ], [ 11.153404981181192, 44.141622347177822 ], [ 11.153546458923048, 44.14159944741187 ] ] } },
{ "type": "Feature", "properties": { "CITY_NAME": "CASTIGLIONE_DEI_PEPOLI", "strokeColor": "#70ACCC", "RGB": "112, 172, 204" }, "geometry": { "type": "LineString", "coordinates": [ [ 11.166125194057397, 44.143467454388691 ], [ 11.166218408813878, 44.14352297004406 ] ] } },
{ "type": "Feature", "properties": { "CITY_NAME": "CASTIGLIONE_DEI_PEPOLI", "strokeColor": "#70ACCC", "RGB": "112, 172, 204" }, "geometry": { "type": "LineString", "coordinates": [ [ 11.149235087822682, 44.143894903380868 ], [ 11.14932483122155, 44.143872770966873 ], [ 11.149456049602126, 44.143855685497634 ], [ 11.149577206963201, 44.143847005482634 ], [ 11.149678359389959, 44.143857875802304 ], [ 11.149791966229639, 44.143875813966574 ], [ 11.150020461869536, 44.143941790136125 ], [ 11.150255433748569, 44.143991185361706 ] ] } },
{ "type": "Feature", "properties": { "CITY_NAME": "CASTIGLIONE_DEI_PEPOLI", "strokeColor": "#70ACCC", "RGB": "112, 172, 204" }, "geometry": { "type": "LineString", "coordinates": [ [ 11.154518198251523, 44.143066970242216 ], [ 11.154480810622575, 44.14309226937042 ], [ 11.154439322847738, 44.143147725146093 ], [ 11.154386913282895, 44.143190621488344 ], [ 11.154305212907982, 44.143242262304916 ], [ 11.154173537426267, 44.143308498102876 ], [ 11.154108437565585, 44.143335249899806 ], [ 11.154027544209555, 44.143352894054686 ] ] } },
{ "type": "Feature", "properties": { "CITY_NAME": "CASTIGLIONE_DEI_PEPOLI", "strokeColor": "#70ACCC", "RGB": "112, 172, 204" }, "geometry": { "type": "LineString", "coordinates": [ [ 11.154027544209555, 44.143352894054686 ], [ 11.153999440842881, 44.143309905064214 ], [ 11.153967188406614, 44.143284081281607 ], [ 11.153924750367034, 44.143264830999598 ], [ 11.15383142666507, 44.143232871108552 ], [ 11.153670321938838, 44.143201281102812 ], [ 11.153466944964261, 44.143154988348627 ], [ 11.153144070021815, 44.143074476985227 ] ] } },
{ "type": "Feature", "properties": { "CITY_NAME": "CASTIGLIONE_DEI_PEPOLI", "strokeColor": "#70ACCC", "RGB": "112, 172, 204" }, "geometry": { "type": "LineString", "coordinates": [ [ 11.164345287308521, 44.142618964020443 ], [ 11.164259113640787, 44.143100151875863 ] ] } },
{ "type": "Feature", "properties": { "CITY_NAME": "CASTIGLIONE_DEI_PEPOLI", "strokeColor": "#70ACCC", "RGB": "112, 172, 204" }, "geometry": { "type": "LineString", "coordinates": [ [ 11.154178002110518, 44.141271326341645 ], [ 11.153621833043095, 44.141429214444493 ] ] } },
{ "type": "Feature", "properties": { "CITY_NAME": "CASTIGLIONE_DEI_PEPOLI", "strokeColor": "#70ACCC", "RGB": "112, 172, 204" }, "geometry": { "type": "LineString", "coordinates": [ [ 11.198624304933027, 44.130132395365855 ], [ 11.198669565389633, 44.130140869129107 ], [ 11.198733575522853, 44.13014522846472 ], [ 11.198795510361839, 44.130137017992674 ] ] } },
{ "type": "Feature", "properties": { "CITY_NAME": "CASTIGLIONE_DEI_PEPOLI", "strokeColor": "#70ACCC", "RGB": "112, 172, 204" }, "geometry": { "type": "LineString", "coordinates": [ [ 11.164328452595363, 44.140412669469264 ], [ 11.164271177781281, 44.140412013811513 ], [ 11.164070924127182, 44.14042473828669 ] ] } },
{ "type": "Feature", "properties": { "CITY_NAME": "CASTIGLIONE_DEI_PEPOLI", "strokeColor": "#70ACCC", "RGB": "112, 172, 204" }, "geometry": { "type": "LineString", "coordinates": [ [ 11.165680049356158, 44.14327118370143 ], [ 11.165906642659795, 44.143337407200541 ] ] } },
{ "type": "Feature", "properties": { "CITY_NAME": "CASTIGLIONE_DEI_PEPOLI", "strokeColor": "#70ACCC", "RGB": "112, 172, 204" }, "geometry": { "type": "LineString", "coordinates": [ [ 11.201155545623465, 44.128891504493701 ], [ 11.201242089142806, 44.128810087735239 ], [ 11.201575927814055, 44.128425499425113 ] ] } },
{ "type": "Feature", "properties": { "CITY_NAME": "CASTIGLIONE_DEI_PEPOLI", "strokeColor": "#70ACCC", "RGB": "112, 172, 204" }, "geometry": { "type": "LineString", "coordinates": [ [ 11.151711552727699, 44.141683297407468 ], [ 11.151832113050526, 44.141698400700385 ], [ 11.152131900290604, 44.141716574211273 ], [ 11.152257256913622, 44.141720641609091 ], [ 11.152357803957498, 44.141712398415237 ], [ 11.15279582212032, 44.141614938106379 ] ] } },
{ "type": "Feature", "properties": { "CITY_NAME": "CASTIGLIONE_DEI_PEPOLI", "strokeColor": "#70ACCC", "RGB": "112, 172, 204" }, "geometry": { "type": "LineString", "coordinates": [ [ 11.153621833043095, 44.141429214444493 ], [ 11.153671620306351, 44.141573056796624 ], [ 11.153546458923048, 44.14159944741187 ] ] } },
{ "type": "Feature", "properties": { "CITY_NAME": "CASTIGLIONE_DEI_PEPOLI", "strokeColor": "#70ACCC", "RGB": "112, 172, 204" }, "geometry": { "type": "LineString", "coordinates": [ [ 11.160255841997724, 44.141763048932681 ], [ 11.160399493327263, 44.141726695759246 ], [ 11.160646014988579, 44.141643873970793 ], [ 11.160914573773763, 44.141543337905183 ], [ 11.161064338720353, 44.141489469741742 ] ] } },
{ "type": "Feature", "properties": { "CITY_NAME": "CASTIGLIONE_DEI_PEPOLI", "strokeColor": "#70ACCC", "RGB": "112, 172, 204" }, "geometry": { "type": "LineString", "coordinates": [ [ 11.156790088043801, 44.142021637991903 ], [ 11.156623404977941, 44.141938685971304 ], [ 11.156396604107991, 44.141870895787704 ], [ 11.156247075745421, 44.141887387854702 ], [ 11.155965977624552, 44.141987136836562 ], [ 11.155002043892212, 44.142255956253123 ], [ 11.154676669977663, 44.142316623331553 ], [ 11.154384088044578, 44.142368487920237 ] ] } },
{ "type": "Feature", "properties": { "CITY_NAME": "CASTIGLIONE_DEI_PEPOLI", "strokeColor": "#70ACCC", "RGB": "112, 172, 204" }, "geometry": { "type": "LineString", "coordinates": [ [ 11.165680049356158, 44.14327118370143 ], [ 11.165558717955486, 44.143220857211368 ], [ 11.165465105962062, 44.143190653507958 ], [ 11.165347242733263, 44.143165444443902 ], [ 11.165113326127452, 44.1431168156588 ], [ 11.164965910050265, 44.143094872854896 ], [ 11.16480997403961, 44.143078552648362 ], [ 11.164666947971439, 44.143081134357445 ], [ 11.16442291939831, 44.143097130899925 ], [ 11.164259113640787, 44.143100151875863 ] ] } },
{ "type": "Feature", "properties": { "CITY_NAME": "CASTIGLIONE_DEI_PEPOLI", "strokeColor": "#70ACCC", "RGB": "112, 172, 204" }, "geometry": { "type": "LineString", "coordinates": [ [ 11.148805506571243, 44.14183060451942 ], [ 11.148819777815428, 44.141919589870611 ], [ 11.14877866742771, 44.142069154766467 ], [ 11.148768507121941, 44.142210840257775 ], [ 11.148794887449709, 44.142354581395573 ], [ 11.148845497221227, 44.142451312527072 ], [ 11.148896748818146, 44.142519732157332 ], [ 11.148976402631428, 44.14255931787018 ], [ 11.149076133938227, 44.142579358106026 ], [ 11.14917651439168, 44.14257108843897 ], [ 11.149348180253902, 44.142520407586083 ], [ 11.149571232012725, 44.142451425552423 ], [ 11.149872560769623, 44.142340824649565 ], [ 11.150098710162471, 44.142259021391702 ], [ 11.150249378881515, 44.142197803883143 ], [ 11.150348100525537, 44.14214212175964 ], [ 11.150622137147469, 44.141941741757343 ], [ 11.150792668053178, 44.141808093256806 ], [ 11.150881154871865, 44.14175718241021 ], [ 11.151044127621482, 44.141698512248908 ] ] } },
{ "type": "Feature", "properties": { "CITY_NAME": "CASTIGLIONE_DEI_PEPOLI", "strokeColor": "#70ACCC", "RGB": "112, 172, 204" }, "geometry": { "type": "LineString", "coordinates": [ [ 11.201206917416346, 44.128922170018257 ], [ 11.201155545623465, 44.128891504493701 ] ] } },
{ "type": "Feature", "properties": { "CITY_NAME": "CASTIGLIONE_DEI_PEPOLI", "strokeColor": "#70ACCC", "RGB": "112, 172, 204" }, "geometry": { "type": "LineString", "coordinates": [ [ 11.199151625175841, 44.130024111081902 ], [ 11.199262112769276, 44.130122621581371 ], [ 11.199356246009151, 44.130179119821101 ], [ 11.199503082141643, 44.130212098723277 ], [ 11.199772947081472, 44.130397811865528 ], [ 11.199920414388668, 44.13045469928651 ], [ 11.200074555155089, 44.130459773888468 ], [ 11.200395269504437, 44.130414505642534 ], [ 11.200502067486449, 44.130420278550396 ], [ 11.200750574109239, 44.130438874108286 ], [ 11.200835544409141, 44.130431618556457 ], [ 11.200935732469135, 44.130404925457604 ], [ 11.201039563835973, 44.130403084406396 ], [ 11.201150235106036, 44.130439456485519 ], [ 11.201223417907382, 44.130497595843309 ] ] } },
{ "type": "Feature", "properties": { "CITY_NAME": "CASTIGLIONE_DEI_PEPOLI", "strokeColor": "#70ACCC", "RGB": "112, 172, 204" }, "geometry": { "type": "LineString", "coordinates": [ [ 11.199392989204698, 44.129919940527941 ], [ 11.199647521824549, 44.129776743076881 ], [ 11.199748447888604, 44.129701168011003 ] ] } },
{ "type": "Feature", "properties": { "CITY_NAME": "CASTIGLIONE_DEI_PEPOLI", "strokeColor": "#70ACCC", "RGB": "112, 172, 204" }, "geometry": { "type": "LineString", "coordinates": [ [ 11.19806015998088, 44.129503983165009 ], [ 11.19812898042184, 44.12956894190603 ], [ 11.198262993389001, 44.129683170985764 ], [ 11.19844147771494, 44.129702049968948 ], [ 11.198851540324759, 44.129665602192283 ], [ 11.199130827979944, 44.129643257600584 ], [ 11.199328678929961, 44.129624710893758 ], [ 11.199380442665561, 44.129630118712008 ], [ 11.199440558911823, 44.1296313889628 ], [ 11.19951250463682, 44.129625647496269 ], [ 11.19961208019112, 44.129586720447094 ], [ 11.199748447888604, 44.129701168011003 ] ] } },
{ "type": "Feature", "properties": { "CITY_NAME": "CASTIGLIONE_DEI_PEPOLI", "strokeColor": "#70ACCC", "RGB": "112, 172, 204" }, "geometry": { "type": "LineString", "coordinates": [ [ 11.155760461153282, 44.14135496053931 ], [ 11.155616350104594, 44.141341543892878 ], [ 11.155525521375164, 44.141301920766914 ] ] } },
{ "type": "Feature", "properties": { "CITY_NAME": "CASTIGLIONE_DEI_PEPOLI", "strokeColor": "#70ACCC", "RGB": "112, 172, 204" }, "geometry": { "type": "LineString", "coordinates": [ [ 11.15739262660113, 44.142097675986712 ], [ 11.157370384373623, 44.142031058329763 ], [ 11.157373759103818, 44.141977945695984 ], [ 11.157382217385429, 44.141927237177214 ] ] } },
{ "type": "Feature", "properties": { "CITY_NAME": "CASTIGLIONE_DEI_PEPOLI", "strokeColor": "#70ACCC", "RGB": "112, 172, 204" }, "geometry": { "type": "LineString", "coordinates": [ [ 11.16129048405716, 44.143177926141306 ], [ 11.161747792507457, 44.143010062011605 ], [ 11.161979938416145, 44.142938201557605 ], [ 11.162245034643291, 44.142863197652517 ], [ 11.162533250663374, 44.142747713186147 ], [ 11.162660080723787, 44.142712626451114 ] ] } },
{ "type": "Feature", "properties": { "CITY_NAME": "CASTIGLIONE_DEI_PEPOLI", "strokeColor": "#70ACCC", "RGB": "112, 172, 204" }, "geometry": { "type": "LineString", "coordinates": [ [ 11.156823248070316, 44.141292188509347 ], [ 11.157022416732852, 44.141304332260226 ], [ 11.157212095958364, 44.141342139063774 ], [ 11.157387080437443, 44.141414611360119 ], [ 11.157603423344305, 44.141561791018859 ], [ 11.15773543652093, 44.141677101091794 ], [ 11.157862108699776, 44.141813188422113 ], [ 11.158181147696105, 44.14213033390223 ], [ 11.158408039701962, 44.14233509803563 ] ] } },
{ "type": "Feature", "properties": { "CITY_NAME": "CASTIGLIONE_DEI_PEPOLI", "strokeColor": "#70ACCC", "RGB": "112, 172, 204" }, "geometry": { "type": "LineString", "coordinates": [ [ 11.162062530739002, 44.143625620293605 ], [ 11.162014563553399, 44.14368618559611 ], [ 11.161914028693726, 44.143813537036785 ], [ 11.161836435174928, 44.143884222626149 ], [ 11.16174504684466, 44.143913224854337 ], [ 11.161625346403957, 44.143931799902703 ], [ 11.16145985820652, 44.143939352951605 ], [ 11.161226777158458, 44.14395906798736 ], [ 11.161041303162628, 44.143991597804053 ], [ 11.160891194382096, 44.144036250574771 ], [ 11.160667431066903, 44.144116882155096 ], [ 11.160560400650656, 44.144147082412374 ], [ 11.160440469236187, 44.144159281904827 ], [ 11.160294485962101, 44.144129104153848 ], [ 11.160199345441654, 44.144059712127401 ], [ 11.160131087892557, 44.143963392844164 ], [ 11.160100173579776, 44.143794371279419 ], [ 11.160099884819738, 44.143695910034197 ], [ 11.160051740407685, 44.143578254653342 ], [ 11.159973950544972, 44.143506721004869 ], [ 11.159786870352724, 44.143407070700611 ], [ 11.159548914166761, 44.143300136320271 ], [ 11.159247489207125, 44.143195745745246 ], [ 11.158941239602079, 44.143012255367978 ], [ 11.158669206749618, 44.142701295401196 ], [ 11.158517199944548, 44.14251120661892 ], [ 11.158408039701962, 44.14233509803563 ] ] } },
{ "type": "Feature", "properties": { "CITY_NAME": "CASTIGLIONE_DEI_PEPOLI", "strokeColor": "#70ACCC", "RGB": "112, 172, 204" }, "geometry": { "type": "LineString", "coordinates": [ [ 11.156355522113138, 44.141974810912529 ], [ 11.1564674186557, 44.141978684904416 ], [ 11.156681346570704, 44.142013392251073 ], [ 11.156790088043801, 44.142021637991903 ] ] } },
{ "type": "Feature", "properties": { "CITY_NAME": "CASTIGLIONE_DEI_PEPOLI", "strokeColor": "#70ACCC", "RGB": "112, 172, 204" }, "geometry": { "type": "LineString", "coordinates": [ [ 11.160482655024307, 44.143120064682627 ], [ 11.1605815033152, 44.143150654168871 ], [ 11.160816678719788, 44.143267382151969 ], [ 11.160924508549741, 44.143284279655113 ], [ 11.161071517396273, 44.143273750466967 ], [ 11.16129048405716, 44.143177926141306 ] ] } }
]
}
