{
"type": "FeatureCollection",
"name": "DOZZA",
"crs": { "type": "name", "properties": { "name": "urn:ogc:def:crs:OGC:1.3:CRS84" } },
"features": [
{ "type": "Feature", "properties": { "CITY_NAME": "DOZZA", "strokeColor": "#70ACCC", "RGB": "112, 172, 204" }, "geometry": { "type": "LineString", "coordinates": [ [ 11.643063303760481, 44.384793695449595 ], [ 11.643187268152772, 44.384959220098146 ], [ 11.643414005856307, 44.385376365347618 ], [ 11.643783404033876, 44.386107052597509 ] ] } },
{ "type": "Feature", "properties": { "CITY_NAME": "DOZZA", "strokeColor": "#70ACCC", "RGB": "112, 172, 204" }, "geometry": { "type": "LineString", "coordinates": [ [ 11.641750476918602, 44.38370009760564 ], [ 11.642423100746607, 44.384289555555235 ], [ 11.642854519813477, 44.384654668703007 ], [ 11.643063303760481, 44.384793695449595 ] ] } },
{ "type": "Feature", "properties": { "CITY_NAME": "DOZZA", "strokeColor": "#70ACCC", "RGB": "112, 172, 204" }, "geometry": { "type": "LineString", "coordinates": [ [ 11.637170325793514, 44.382542439775719 ], [ 11.6379246442111, 44.382241322291293 ], [ 11.637790352739186, 44.382056765636051 ] ] } },
{ "type": "Feature", "properties": { "CITY_NAME": "DOZZA", "strokeColor": "#70ACCC", "RGB": "112, 172, 204" }, "geometry": { "type": "LineString", "coordinates": [ [ 11.645607547920852, 44.379926657343916 ], [ 11.645635697169352, 44.380022439004364 ], [ 11.645675298495211, 44.380095599738084 ] ] } },
{ "type": "Feature", "properties": { "CITY_NAME": "DOZZA", "strokeColor": "#70ACCC", "RGB": "112, 172, 204" }, "geometry": { "type": "LineString", "coordinates": [ [ 11.641013765044191, 44.379577308436971 ], [ 11.641304052619589, 44.379957115706375 ] ] } },
{ "type": "Feature", "properties": { "CITY_NAME": "DOZZA", "strokeColor": "#70ACCC", "RGB": "112, 172, 204" }, "geometry": { "type": "LineString", "coordinates": [ [ 11.62892427787801, 44.360212043661051 ], [ 11.629234932594823, 44.360186611160714 ], [ 11.629459751543836, 44.360149826631513 ], [ 11.629599409713746, 44.360108471182009 ] ] } },
{ "type": "Feature", "properties": { "CITY_NAME": "DOZZA", "strokeColor": "#70ACCC", "RGB": "112, 172, 204" }, "geometry": { "type": "LineString", "coordinates": [ [ 11.632025446190534, 44.35988851338697 ], [ 11.631709452993842, 44.359847036044911 ], [ 11.631235722863211, 44.359787096841558 ], [ 11.630741738075017, 44.359710574937594 ] ] } },
{ "type": "Feature", "properties": { "CITY_NAME": "DOZZA", "strokeColor": "#70ACCC", "RGB": "112, 172, 204" }, "geometry": { "type": "LineString", "coordinates": [ [ 11.639486676163427, 44.381133675376567 ], [ 11.639363530315846, 44.381006568249518 ], [ 11.638895092448818, 44.380446290942103 ] ] } },
{ "type": "Feature", "properties": { "CITY_NAME": "DOZZA", "strokeColor": "#70ACCC", "RGB": "112, 172, 204" }, "geometry": { "type": "LineString", "coordinates": [ [ 11.628520746095024, 44.359971388057339 ], [ 11.628628943285589, 44.360002213728734 ], [ 11.628738251480151, 44.360037141456829 ], [ 11.628851506295351, 44.360064018885026 ], [ 11.6289448009293, 44.360081522246041 ], [ 11.62903090593853, 44.360090180304439 ], [ 11.629139119411903, 44.360101393597745 ], [ 11.62927494791159, 44.360109754229676 ], [ 11.629355081115795, 44.360113730445114 ], [ 11.629460208785808, 44.360115995593532 ], [ 11.629599409713746, 44.360108471182009 ] ] } },
{ "type": "Feature", "properties": { "CITY_NAME": "DOZZA", "strokeColor": "#70ACCC", "RGB": "112, 172, 204" }, "geometry": { "type": "LineString", "coordinates": [ [ 11.639486676163427, 44.381133675376567 ], [ 11.640007249666386, 44.380931855155701 ], [ 11.640069081731561, 44.380888259145223 ], [ 11.64016629862469, 44.380756013516006 ], [ 11.640188204004454, 44.380695781199329 ], [ 11.640146301406228, 44.38063352542882 ], [ 11.639674209926184, 44.380082402416257 ] ] } },
{ "type": "Feature", "properties": { "CITY_NAME": "DOZZA", "strokeColor": "#70ACCC", "RGB": "112, 172, 204" }, "geometry": { "type": "LineString", "coordinates": [ [ 11.632802289082088, 44.359924921246225 ], [ 11.632670821942027, 44.359890058359952 ], [ 11.632780713569826, 44.359672941310016 ] ] } },
{ "type": "Feature", "properties": { "CITY_NAME": "DOZZA", "strokeColor": "#70ACCC", "RGB": "112, 172, 204" }, "geometry": { "type": "LineString", "coordinates": [ [ 11.637991161651843, 44.384561858625787 ], [ 11.638648272083044, 44.384229247198803 ] ] } },
{ "type": "Feature", "properties": { "CITY_NAME": "DOZZA", "strokeColor": "#70ACCC", "RGB": "112, 172, 204" }, "geometry": { "type": "LineString", "coordinates": [ [ 11.628520746095024, 44.359971388057339 ], [ 11.628416870683505, 44.359937082246198 ], [ 11.628101546052429, 44.359807295259991 ], [ 11.627486834684678, 44.359538169920263 ], [ 11.626748665405346, 44.359149337347482 ], [ 11.626024030228471, 44.35881816070787 ], [ 11.625932431469659, 44.358757705377698 ] ] } },
{ "type": "Feature", "properties": { "CITY_NAME": "DOZZA", "strokeColor": "#70ACCC", "RGB": "112, 172, 204" }, "geometry": { "type": "LineString", "coordinates": [ [ 11.637922118782679, 44.379282408238794 ], [ 11.63781693162082, 44.379319572396938 ] ] } },
{ "type": "Feature", "properties": { "CITY_NAME": "DOZZA", "strokeColor": "#70ACCC", "RGB": "112, 172, 204" }, "geometry": { "type": "LineString", "coordinates": [ [ 11.639513946700296, 44.383047712913942 ], [ 11.639685149383245, 44.382976421821247 ], [ 11.639848214516551, 44.383172230311409 ] ] } },
{ "type": "Feature", "properties": { "CITY_NAME": "DOZZA", "strokeColor": "#70ACCC", "RGB": "112, 172, 204" }, "geometry": { "type": "LineString", "coordinates": [ [ 11.639162599056418, 44.38287193743006 ], [ 11.638911712323866, 44.383113689413122 ], [ 11.638538463947933, 44.383275193520312 ], [ 11.638342619642041, 44.383192798639797 ] ] } },
{ "type": "Feature", "properties": { "CITY_NAME": "DOZZA", "strokeColor": "#70ACCC", "RGB": "112, 172, 204" }, "geometry": { "type": "LineString", "coordinates": [ [ 11.636773723802655, 44.383945395351972 ], [ 11.636457081412312, 44.384070352088322 ], [ 11.636160878745697, 44.383722871896303 ] ] } },
{ "type": "Feature", "properties": { "CITY_NAME": "DOZZA", "strokeColor": "#70ACCC", "RGB": "112, 172, 204" }, "geometry": { "type": "LineString", "coordinates": [ [ 11.639939550296489, 44.381617597345979 ], [ 11.640134174622508, 44.381815794986572 ] ] } },
{ "type": "Feature", "properties": { "CITY_NAME": "DOZZA", "strokeColor": "#70ACCC", "RGB": "112, 172, 204" }, "geometry": { "type": "LineString", "coordinates": [ [ 11.6327288574101, 44.360063687597396 ], [ 11.632802289082088, 44.359924921246225 ] ] } },
{ "type": "Feature", "properties": { "CITY_NAME": "DOZZA", "strokeColor": "#70ACCC", "RGB": "112, 172, 204" }, "geometry": { "type": "LineString", "coordinates": [ [ 11.635616636485327, 44.380384769051709 ], [ 11.635537710343121, 44.380468344877883 ], [ 11.634535302913877, 44.380067063677906 ], [ 11.634678569683931, 44.379981996244922 ], [ 11.635616636485327, 44.380384769051709 ] ] } },
{ "type": "Feature", "properties": { "CITY_NAME": "DOZZA", "strokeColor": "#70ACCC", "RGB": "112, 172, 204" }, "geometry": { "type": "LineString", "coordinates": [ [ 11.632847155504862, 44.379925625280706 ], [ 11.632795739720454, 44.379853176410748 ], [ 11.632518091957483, 44.37957790304398 ], [ 11.63259873791127, 44.37953258257923 ], [ 11.632639168283783, 44.379567382679149 ], [ 11.632960461554852, 44.379876183314458 ] ] } },
{ "type": "Feature", "properties": { "CITY_NAME": "DOZZA", "strokeColor": "#70ACCC", "RGB": "112, 172, 204" }, "geometry": { "type": "LineString", "coordinates": [ [ 11.64397863716866, 44.37801653329236 ], [ 11.644748215728329, 44.378961248821774 ], [ 11.645010628010757, 44.379299453717032 ] ] } },
{ "type": "Feature", "properties": { "CITY_NAME": "DOZZA", "strokeColor": "#70ACCC", "RGB": "112, 172, 204" }, "geometry": { "type": "LineString", "coordinates": [ [ 11.62447146428123, 44.361323428718684 ], [ 11.624029646907712, 44.361147999721737 ], [ 11.623952600268938, 44.361109843821552 ] ] } },
{ "type": "Feature", "properties": { "CITY_NAME": "DOZZA", "strokeColor": "#70ACCC", "RGB": "112, 172, 204" }, "geometry": { "type": "LineString", "coordinates": [ [ 11.623952600268938, 44.361109843821552 ], [ 11.622998614357879, 44.360769072765272 ], [ 11.622700399104991, 44.360685171452758 ] ] } },
{ "type": "Feature", "properties": { "CITY_NAME": "DOZZA", "strokeColor": "#70ACCC", "RGB": "112, 172, 204" }, "geometry": { "type": "LineString", "coordinates": [ [ 11.639030071321677, 44.38469342608898 ], [ 11.638917525256307, 44.384556597253756 ] ] } },
{ "type": "Feature", "properties": { "CITY_NAME": "DOZZA", "strokeColor": "#70ACCC", "RGB": "112, 172, 204" }, "geometry": { "type": "LineString", "coordinates": [ [ 11.638104556794048, 44.37823587281396 ], [ 11.637901424645525, 44.378002607361168 ] ] } },
{ "type": "Feature", "properties": { "CITY_NAME": "DOZZA", "strokeColor": "#70ACCC", "RGB": "112, 172, 204" }, "geometry": { "type": "LineString", "coordinates": [ [ 11.637991161651843, 44.384561858625787 ], [ 11.637865886793456, 44.384396801517418 ] ] } },
{ "type": "Feature", "properties": { "CITY_NAME": "DOZZA", "strokeColor": "#70ACCC", "RGB": "112, 172, 204" }, "geometry": { "type": "LineString", "coordinates": [ [ 11.632330490659776, 44.384980811337371 ], [ 11.632353270644037, 44.385026990123571 ], [ 11.63241047160596, 44.385110714820627 ], [ 11.632434608500279, 44.385172199269945 ] ] } },
{ "type": "Feature", "properties": { "CITY_NAME": "DOZZA", "strokeColor": "#70ACCC", "RGB": "112, 172, 204" }, "geometry": { "type": "LineString", "coordinates": [ [ 11.640385134402591, 44.383076639261702 ], [ 11.640324951106361, 44.383294257023316 ], [ 11.640059158406929, 44.383400177189138 ] ] } },
{ "type": "Feature", "properties": { "CITY_NAME": "DOZZA", "strokeColor": "#70ACCC", "RGB": "112, 172, 204" }, "geometry": { "type": "LineString", "coordinates": [ [ 11.639939550296489, 44.381617597345979 ], [ 11.640268571023714, 44.381480190061232 ], [ 11.640583754630937, 44.38134751234923 ], [ 11.640683501938211, 44.381058455639732 ], [ 11.640971245257106, 44.380673355993025 ] ] } },
{ "type": "Feature", "properties": { "CITY_NAME": "DOZZA", "strokeColor": "#70ACCC", "RGB": "112, 172, 204" }, "geometry": { "type": "LineString", "coordinates": [ [ 11.645522122574814, 44.380008777429573 ], [ 11.645569744260666, 44.380027431886241 ], [ 11.64562540479375, 44.380067533459886 ], [ 11.645675298495211, 44.380095599738084 ] ] } },
{ "type": "Feature", "properties": { "CITY_NAME": "DOZZA", "strokeColor": "#70ACCC", "RGB": "112, 172, 204" }, "geometry": { "type": "LineString", "coordinates": [ [ 11.632802289082088, 44.359924921246225 ], [ 11.632933483340869, 44.35995402763632 ], [ 11.633044959491642, 44.359736865682777 ] ] } },
{ "type": "Feature", "properties": { "CITY_NAME": "DOZZA", "strokeColor": "#70ACCC", "RGB": "112, 172, 204" }, "geometry": { "type": "LineString", "coordinates": [ [ 11.638471880247614, 44.379960833732426 ], [ 11.638895092448818, 44.380446290942103 ] ] } },
{ "type": "Feature", "properties": { "CITY_NAME": "DOZZA", "strokeColor": "#70ACCC", "RGB": "112, 172, 204" }, "geometry": { "type": "LineString", "coordinates": [ [ 11.645010628010757, 44.379299453717032 ], [ 11.645281205621217, 44.379626828478862 ], [ 11.645484087008404, 44.379876227423026 ] ] } },
{ "type": "Feature", "properties": { "CITY_NAME": "DOZZA", "strokeColor": "#70ACCC", "RGB": "112, 172, 204" }, "geometry": { "type": "LineString", "coordinates": [ [ 11.641502448447534, 44.379880623743588 ], [ 11.640958716826811, 44.379117584030332 ] ] } },
{ "type": "Feature", "properties": { "CITY_NAME": "DOZZA", "strokeColor": "#70ACCC", "RGB": "112, 172, 204" }, "geometry": { "type": "LineString", "coordinates": [ [ 11.621368578853174, 44.360271594660361 ], [ 11.621518613609004, 44.360346336722777 ], [ 11.622250867683494, 44.360579850385236 ], [ 11.622700399104991, 44.360685171452758 ] ] } },
{ "type": "Feature", "properties": { "CITY_NAME": "DOZZA", "strokeColor": "#70ACCC", "RGB": "112, 172, 204" }, "geometry": { "type": "LineString", "coordinates": [ [ 11.629599409713746, 44.360108471182009 ], [ 11.629649925724115, 44.36009428499613 ], [ 11.629869309440993, 44.360067373015276 ], [ 11.630135261982975, 44.360004265291678 ], [ 11.630531285921691, 44.359840797804203 ], [ 11.630933985277634, 44.359854161286904 ], [ 11.631594784313895, 44.359887926890501 ], [ 11.632025446190534, 44.35988851338697 ] ] } },
{ "type": "Feature", "properties": { "CITY_NAME": "DOZZA", "strokeColor": "#70ACCC", "RGB": "112, 172, 204" }, "geometry": { "type": "LineString", "coordinates": [ [ 11.630547036874534, 44.359527993728022 ], [ 11.630817512670989, 44.359626416751993 ], [ 11.631495618940175, 44.359735581511693 ] ] } },
{ "type": "Feature", "properties": { "CITY_NAME": "DOZZA", "strokeColor": "#70ACCC", "RGB": "112, 172, 204" }, "geometry": { "type": "LineString", "coordinates": [ [ 11.6346987858708, 44.382633046637373 ], [ 11.634143511626991, 44.382769660910476 ] ] } },
{ "type": "Feature", "properties": { "CITY_NAME": "DOZZA", "strokeColor": "#70ACCC", "RGB": "112, 172, 204" }, "geometry": { "type": "LineString", "coordinates": [ [ 11.639674209926184, 44.380082402416257 ], [ 11.638895092448818, 44.380446290942103 ] ] } },
{ "type": "Feature", "properties": { "CITY_NAME": "DOZZA", "strokeColor": "#70ACCC", "RGB": "112, 172, 204" }, "geometry": { "type": "LineString", "coordinates": [ [ 11.634569611146651, 44.381341979084027 ], [ 11.633778012988639, 44.38100906226272 ], [ 11.633664281918858, 44.380949557089096 ], [ 11.63305191040245, 44.380709049987487 ], [ 11.632202992213285, 44.380325593412394 ] ] } },
{ "type": "Feature", "properties": { "CITY_NAME": "DOZZA", "strokeColor": "#70ACCC", "RGB": "112, 172, 204" }, "geometry": { "type": "LineString", "coordinates": [ [ 11.636083048944947, 44.361799231851485 ], [ 11.63673397283088, 44.362039895271224 ], [ 11.636173946424126, 44.362760861312211 ] ] } },
{ "type": "Feature", "properties": { "CITY_NAME": "DOZZA", "strokeColor": "#70ACCC", "RGB": "112, 172, 204" }, "geometry": { "type": "LineString", "coordinates": [ [ 11.637865886793456, 44.384396801517418 ], [ 11.638375875372517, 44.384192614539245 ] ] } },
{ "type": "Feature", "properties": { "CITY_NAME": "DOZZA", "strokeColor": "#70ACCC", "RGB": "112, 172, 204" }, "geometry": { "type": "LineString", "coordinates": [ [ 11.621368578853174, 44.360271594660361 ], [ 11.620954005412811, 44.360019986231826 ], [ 11.620737982877058, 44.359891041558299 ], [ 11.620290189684882, 44.359635543493049 ], [ 11.619891509437021, 44.359395951371518 ], [ 11.619710776144958, 44.359292687073285 ] ] } },
{ "type": "Feature", "properties": { "CITY_NAME": "DOZZA", "strokeColor": "#70ACCC", "RGB": "112, 172, 204" }, "geometry": { "type": "LineString", "coordinates": [ [ 11.624640118045075, 44.358998358680196 ], [ 11.624025618391604, 44.358762111986437 ] ] } },
{ "type": "Feature", "properties": { "CITY_NAME": "DOZZA", "strokeColor": "#70ACCC", "RGB": "112, 172, 204" }, "geometry": { "type": "LineString", "coordinates": [ [ 11.621009263996138, 44.36056396790584 ], [ 11.620838833572675, 44.360456280782024 ] ] } },
{ "type": "Feature", "properties": { "CITY_NAME": "DOZZA", "strokeColor": "#70ACCC", "RGB": "112, 172, 204" }, "geometry": { "type": "LineString", "coordinates": [ [ 11.633638960563285, 44.379530052402664 ], [ 11.634158940193215, 44.379268637813986 ] ] } },
{ "type": "Feature", "properties": { "CITY_NAME": "DOZZA", "strokeColor": "#70ACCC", "RGB": "112, 172, 204" }, "geometry": { "type": "LineString", "coordinates": [ [ 11.633206500067022, 44.379762440287507 ], [ 11.633363028566832, 44.379668773486529 ], [ 11.633638960563285, 44.379530052402664 ] ] } },
{ "type": "Feature", "properties": { "CITY_NAME": "DOZZA", "strokeColor": "#70ACCC", "RGB": "112, 172, 204" }, "geometry": { "type": "LineString", "coordinates": [ [ 11.633638960563285, 44.379530052402664 ], [ 11.633114668628883, 44.378990961911704 ] ] } },
{ "type": "Feature", "properties": { "CITY_NAME": "DOZZA", "strokeColor": "#70ACCC", "RGB": "112, 172, 204" }, "geometry": { "type": "LineString", "coordinates": [ [ 11.637580057998157, 44.377678681556468 ], [ 11.637300685696445, 44.377813072264338 ] ] } },
{ "type": "Feature", "properties": { "CITY_NAME": "DOZZA", "strokeColor": "#70ACCC", "RGB": "112, 172, 204" }, "geometry": { "type": "LineString", "coordinates": [ [ 11.63222216283752, 44.385008404471037 ], [ 11.632203010038683, 44.384953775819071 ], [ 11.632170275716671, 44.384894233396302 ], [ 11.632158092345122, 44.384831079625265 ] ] } },
{ "type": "Feature", "properties": { "CITY_NAME": "DOZZA", "strokeColor": "#70ACCC", "RGB": "112, 172, 204" }, "geometry": { "type": "LineString", "coordinates": [ [ 11.634158940193215, 44.379268637813986 ], [ 11.6342808244649, 44.379179485555355 ], [ 11.634237858841082, 44.379081957070895 ], [ 11.633780484485595, 44.378644571739585 ] ] } },
{ "type": "Feature", "properties": { "CITY_NAME": "DOZZA", "strokeColor": "#70ACCC", "RGB": "112, 172, 204" }, "geometry": { "type": "LineString", "coordinates": [ [ 11.635684241440822, 44.382436511585354 ], [ 11.635500152669074, 44.381794951681741 ], [ 11.635327354260573, 44.381657299337007 ], [ 11.634830578183202, 44.381451711959834 ] ] } },
{ "type": "Feature", "properties": { "CITY_NAME": "DOZZA", "strokeColor": "#70ACCC", "RGB": "112, 172, 204" }, "geometry": { "type": "LineString", "coordinates": [ [ 11.649666037491562, 44.380358977935117 ], [ 11.6506230137707, 44.381935613806384 ] ] } },
{ "type": "Feature", "properties": { "CITY_NAME": "DOZZA", "strokeColor": "#70ACCC", "RGB": "112, 172, 204" }, "geometry": { "type": "LineString", "coordinates": [ [ 11.634830578183202, 44.381451711959834 ], [ 11.634569611146651, 44.381341979084027 ] ] } },
{ "type": "Feature", "properties": { "CITY_NAME": "DOZZA", "strokeColor": "#70ACCC", "RGB": "112, 172, 204" }, "geometry": { "type": "LineString", "coordinates": [ [ 11.645484087008404, 44.379876227423026 ], [ 11.645483545438454, 44.379919227815726 ], [ 11.645522122574814, 44.380008777429573 ] ] } },
{ "type": "Feature", "properties": { "CITY_NAME": "DOZZA", "strokeColor": "#70ACCC", "RGB": "112, 172, 204" }, "geometry": { "type": "LineString", "coordinates": [ [ 11.641304052619589, 44.379957115706375 ], [ 11.640853668994172, 44.380130766326175 ] ] } },
{ "type": "Feature", "properties": { "CITY_NAME": "DOZZA", "strokeColor": "#70ACCC", "RGB": "112, 172, 204" }, "geometry": { "type": "LineString", "coordinates": [ [ 11.641013765044191, 44.379577308436971 ], [ 11.640553315965233, 44.379738957011135 ], [ 11.640491294573124, 44.37967610085775 ] ] } },
{ "type": "Feature", "properties": { "CITY_NAME": "DOZZA", "strokeColor": "#70ACCC", "RGB": "112, 172, 204" }, "geometry": { "type": "LineString", "coordinates": [ [ 11.638039981442713, 44.379425655750723 ], [ 11.637922118782679, 44.379282408238794 ] ] } },
{ "type": "Feature", "properties": { "CITY_NAME": "DOZZA", "strokeColor": "#70ACCC", "RGB": "112, 172, 204" }, "geometry": { "type": "LineString", "coordinates": [ [ 11.640491294573124, 44.37967610085775 ], [ 11.640088465190676, 44.379189821582791 ], [ 11.640468292373908, 44.379022864771109 ], [ 11.640653408178759, 44.379137082095085 ], [ 11.640745881989446, 44.37919234298603 ] ] } },
{ "type": "Feature", "properties": { "CITY_NAME": "DOZZA", "strokeColor": "#70ACCC", "RGB": "112, 172, 204" }, "geometry": { "type": "LineString", "coordinates": [ [ 11.643433772745315, 44.377303915915448 ], [ 11.64397863716866, 44.37801653329236 ] ] } },
{ "type": "Feature", "properties": { "CITY_NAME": "DOZZA", "strokeColor": "#70ACCC", "RGB": "112, 172, 204" }, "geometry": { "type": "LineString", "coordinates": [ [ 11.636880316922481, 44.385198012535746 ], [ 11.636932336286058, 44.385151630833775 ], [ 11.637511461988169, 44.384841413978648 ] ] } },
{ "type": "Feature", "properties": { "CITY_NAME": "DOZZA", "strokeColor": "#70ACCC", "RGB": "112, 172, 204" }, "geometry": { "type": "LineString", "coordinates": [ [ 11.63886903047872, 44.382614099795362 ], [ 11.639059924412289, 44.382819042071958 ], [ 11.639162599056418, 44.38287193743006 ] ] } },
{ "type": "Feature", "properties": { "CITY_NAME": "DOZZA", "strokeColor": "#70ACCC", "RGB": "112, 172, 204" }, "geometry": { "type": "LineString", "coordinates": [ [ 11.635640363647537, 44.362107418093075 ], [ 11.635486523525131, 44.362079686658795 ], [ 11.635005738031532, 44.361897689026613 ], [ 11.634501208717401, 44.361522964412451 ], [ 11.634108768608035, 44.361365020980578 ] ] } },
{ "type": "Feature", "properties": { "CITY_NAME": "DOZZA", "strokeColor": "#70ACCC", "RGB": "112, 172, 204" }, "geometry": { "type": "LineString", "coordinates": [ [ 11.638793101195962, 44.379077925297331 ], [ 11.63855284404799, 44.378781543464335 ] ] } },
{ "type": "Feature", "properties": { "CITY_NAME": "DOZZA", "strokeColor": "#70ACCC", "RGB": "112, 172, 204" }, "geometry": { "type": "LineString", "coordinates": [ [ 11.620838833572675, 44.360456280782024 ], [ 11.619416023465243, 44.359557246041646 ] ] } },
{ "type": "Feature", "properties": { "CITY_NAME": "DOZZA", "strokeColor": "#70ACCC", "RGB": "112, 172, 204" }, "geometry": { "type": "LineString", "coordinates": [ [ 11.640491294573124, 44.37967610085775 ], [ 11.640055648390787, 44.379889097568579 ], [ 11.639674209926184, 44.380082402416257 ] ] } },
{ "type": "Feature", "properties": { "CITY_NAME": "DOZZA", "strokeColor": "#70ACCC", "RGB": "112, 172, 204" }, "geometry": { "type": "LineString", "coordinates": [ [ 11.62892427787801, 44.360212043661051 ], [ 11.628588176122605, 44.360026467769735 ], [ 11.628520746095024, 44.359971388057339 ] ] } },
{ "type": "Feature", "properties": { "CITY_NAME": "DOZZA", "strokeColor": "#70ACCC", "RGB": "112, 172, 204" }, "geometry": { "type": "LineString", "coordinates": [ [ 11.631495618940175, 44.359735581511693 ], [ 11.632025446190534, 44.35988851338697 ] ] } },
{ "type": "Feature", "properties": { "CITY_NAME": "DOZZA", "strokeColor": "#70ACCC", "RGB": "112, 172, 204" }, "geometry": { "type": "LineString", "coordinates": [ [ 11.632396233196705, 44.385187426467262 ], [ 11.632334331697033, 44.385126063902163 ], [ 11.632272818415787, 44.385050455504249 ], [ 11.63222216283752, 44.385008404471037 ] ] } },
{ "type": "Feature", "properties": { "CITY_NAME": "DOZZA", "strokeColor": "#70ACCC", "RGB": "112, 172, 204" }, "geometry": { "type": "LineString", "coordinates": [ [ 11.63222216283752, 44.385008404471037 ], [ 11.632206769808983, 44.385082301474114 ], [ 11.632185955770161, 44.385139593795138 ], [ 11.632145342645039, 44.385217210702827 ], [ 11.632119961171625, 44.385289309719141 ] ] } },
{ "type": "Feature", "properties": { "CITY_NAME": "DOZZA", "strokeColor": "#70ACCC", "RGB": "112, 172, 204" }, "geometry": { "type": "LineString", "coordinates": [ [ 11.624970262301698, 44.358652292665468 ], [ 11.624791529583849, 44.35864912225756 ], [ 11.624226263418533, 44.358685100367438 ], [ 11.624025618391604, 44.358762111986437 ] ] } },
{ "type": "Feature", "properties": { "CITY_NAME": "DOZZA", "strokeColor": "#70ACCC", "RGB": "112, 172, 204" }, "geometry": { "type": "LineString", "coordinates": [ [ 11.640385134402591, 44.383076639261702 ], [ 11.640344108407273, 44.383008463848569 ], [ 11.640258679831835, 44.383010442631161 ], [ 11.639848214516551, 44.383172230311409 ] ] } },
{ "type": "Feature", "properties": { "CITY_NAME": "DOZZA", "strokeColor": "#B3B3B3", "RGB": "179, 179, 179" }, "geometry": { "type": "LineString", "coordinates": [ [ 11.658081095860016, 44.375314249546115 ], [ 11.658093524777504, 44.375212155858179 ], [ 11.658085452644176, 44.375049975766103 ], [ 11.658010701493778, 44.374902771435508 ] ] } },
{ "type": "Feature", "properties": { "CITY_NAME": "DOZZA", "strokeColor": "#70ACCC", "RGB": "112, 172, 204" }, "geometry": { "type": "LineString", "coordinates": [ [ 11.636532230190815, 44.361201784289612 ], [ 11.636440518430726, 44.361406993031963 ], [ 11.636338936939639, 44.361563699762421 ], [ 11.636083048944947, 44.361799231851485 ] ] } },
{ "type": "Feature", "properties": { "CITY_NAME": "DOZZA", "strokeColor": "#70ACCC", "RGB": "112, 172, 204" }, "geometry": { "type": "LineString", "coordinates": [ [ 11.632119961171625, 44.385289309719141 ], [ 11.631170104610018, 44.385653068056563 ] ] } },
{ "type": "Feature", "properties": { "CITY_NAME": "DOZZA", "strokeColor": "#70ACCC", "RGB": "112, 172, 204" }, "geometry": { "type": "LineString", "coordinates": [ [ 11.636799403720802, 44.383447867377065 ], [ 11.637123181011003, 44.383806955206218 ], [ 11.636773723802655, 44.383945395351972 ] ] } },
{ "type": "Feature", "properties": { "CITY_NAME": "DOZZA", "strokeColor": "#70ACCC", "RGB": "112, 172, 204" }, "geometry": { "type": "LineString", "coordinates": [ [ 11.635818295353777, 44.382800431340122 ], [ 11.635779686304241, 44.382695403580385 ], [ 11.635684241440822, 44.382436511585354 ] ] } },
{ "type": "Feature", "properties": { "CITY_NAME": "DOZZA", "strokeColor": "#70ACCC", "RGB": "112, 172, 204" }, "geometry": { "type": "LineString", "coordinates": [ [ 11.645522122574814, 44.380008777429573 ], [ 11.645493430204235, 44.380041340761046 ], [ 11.645490973861756, 44.380162582886982 ] ] } },
{ "type": "Feature", "properties": { "CITY_NAME": "DOZZA", "strokeColor": "#70ACCC", "RGB": "112, 172, 204" }, "geometry": { "type": "LineString", "coordinates": [ [ 11.638039981442713, 44.379425655750723 ], [ 11.638471880247614, 44.379960833732426 ] ] } },
{ "type": "Feature", "properties": { "CITY_NAME": "DOZZA", "strokeColor": "#70ACCC", "RGB": "112, 172, 204" }, "geometry": { "type": "LineString", "coordinates": [ [ 11.640745881989446, 44.37919234298603 ], [ 11.641013765044191, 44.379577308436971 ] ] } },
{ "type": "Feature", "properties": { "CITY_NAME": "DOZZA", "strokeColor": "#70ACCC", "RGB": "112, 172, 204" }, "geometry": { "type": "LineString", "coordinates": [ [ 11.632960461554852, 44.379876183314458 ], [ 11.633206500067022, 44.379762440287507 ] ] } },
{ "type": "Feature", "properties": { "CITY_NAME": "DOZZA", "strokeColor": "#70ACCC", "RGB": "112, 172, 204" }, "geometry": { "type": "LineString", "coordinates": [ [ 11.63781693162082, 44.379319572396938 ], [ 11.637427790237478, 44.378759737648139 ] ] } },
{ "type": "Feature", "properties": { "CITY_NAME": "DOZZA", "strokeColor": "#70ACCC", "RGB": "112, 172, 204" }, "geometry": { "type": "LineString", "coordinates": [ [ 11.637790352739186, 44.382056765636051 ], [ 11.637748130346196, 44.382008313003269 ] ] } },
{ "type": "Feature", "properties": { "CITY_NAME": "DOZZA", "strokeColor": "#70ACCC", "RGB": "112, 172, 204" }, "geometry": { "type": "LineString", "coordinates": [ [ 11.637901424645525, 44.378002607361168 ], [ 11.637580057998157, 44.377678681556468 ] ] } },
{ "type": "Feature", "properties": { "CITY_NAME": "DOZZA", "strokeColor": "#70ACCC", "RGB": "112, 172, 204" }, "geometry": { "type": "LineString", "coordinates": [ [ 11.638793101195962, 44.379077925297331 ], [ 11.639338159935681, 44.379736951912747 ], [ 11.639674209926184, 44.380082402416257 ] ] } },
{ "type": "Feature", "properties": { "CITY_NAME": "DOZZA", "strokeColor": "#70ACCC", "RGB": "112, 172, 204" }, "geometry": { "type": "LineString", "coordinates": [ [ 11.639486676163427, 44.381133675376567 ], [ 11.639547933312274, 44.381199735787845 ], [ 11.639734657151173, 44.381408978564878 ], [ 11.639939550296489, 44.381617597345979 ] ] } },
{ "type": "Feature", "properties": { "CITY_NAME": "DOZZA", "strokeColor": "#70ACCC", "RGB": "112, 172, 204" }, "geometry": { "type": "LineString", "coordinates": [ [ 11.632330490659776, 44.384980811337371 ], [ 11.632288275504884, 44.384933336924618 ], [ 11.632237307755268, 44.38488432231734 ], [ 11.632158092345122, 44.384831079625265 ] ] } },
{ "type": "Feature", "properties": { "CITY_NAME": "DOZZA", "strokeColor": "#70ACCC", "RGB": "112, 172, 204" }, "geometry": { "type": "LineString", "coordinates": [ [ 11.622700399104991, 44.360685171452758 ], [ 11.622641827930703, 44.360141494504163 ], [ 11.622782912166867, 44.359774903157884 ], [ 11.622927289327498, 44.359498748384063 ] ] } },
{ "type": "Feature", "properties": { "CITY_NAME": "DOZZA", "strokeColor": "#70ACCC", "RGB": "112, 172, 204" }, "geometry": { "type": "LineString", "coordinates": [ [ 11.632396233196705, 44.385187426467262 ], [ 11.632119961171625, 44.385289309719141 ] ] } },
{ "type": "Feature", "properties": { "CITY_NAME": "DOZZA", "strokeColor": "#70ACCC", "RGB": "112, 172, 204" }, "geometry": { "type": "LineString", "coordinates": [ [ 11.634158940193215, 44.379268637813986 ], [ 11.634650118571887, 44.379762135636398 ] ] } },
{ "type": "Feature", "properties": { "CITY_NAME": "DOZZA", "strokeColor": "#70ACCC", "RGB": "112, 172, 204" }, "geometry": { "type": "LineString", "coordinates": [ [ 11.624025618391604, 44.358762111986437 ], [ 11.623765028531587, 44.358720196020741 ] ] } },
{ "type": "Feature", "properties": { "CITY_NAME": "DOZZA", "strokeColor": "#70ACCC", "RGB": "112, 172, 204" }, "geometry": { "type": "LineString", "coordinates": [ [ 11.625932431469659, 44.358757705377698 ], [ 11.625778412191687, 44.358720639017811 ], [ 11.625685654504085, 44.358690764475384 ], [ 11.625405629725474, 44.358668412989644 ], [ 11.624970262301698, 44.358652292665468 ] ] } },
{ "type": "Feature", "properties": { "CITY_NAME": "DOZZA", "strokeColor": "#70ACCC", "RGB": "112, 172, 204" }, "geometry": { "type": "LineString", "coordinates": [ [ 11.635871621819614, 44.383847315173419 ], [ 11.635882803472963, 44.383356940825699 ], [ 11.635839167097171, 44.383020160491732 ] ] } },
{ "type": "Feature", "properties": { "CITY_NAME": "DOZZA", "strokeColor": "#70ACCC", "RGB": "112, 172, 204" }, "geometry": { "type": "LineString", "coordinates": [ [ 11.636559019095245, 44.380751978220701 ], [ 11.635616636485327, 44.380384769051709 ] ] } },
{ "type": "Feature", "properties": { "CITY_NAME": "DOZZA", "strokeColor": "#70ACCC", "RGB": "112, 172, 204" }, "geometry": { "type": "LineString", "coordinates": [ [ 11.641502448447534, 44.379880623743588 ], [ 11.641304052619589, 44.379957115706375 ] ] } },
{ "type": "Feature", "properties": { "CITY_NAME": "DOZZA", "strokeColor": "#70ACCC", "RGB": "112, 172, 204" }, "geometry": { "type": "LineString", "coordinates": [ [ 11.632847155504862, 44.379925625280706 ], [ 11.632960461554852, 44.379876183314458 ] ] } },
{ "type": "Feature", "properties": { "CITY_NAME": "DOZZA", "strokeColor": "#70ACCC", "RGB": "112, 172, 204" }, "geometry": { "type": "LineString", "coordinates": [ [ 11.63781693162082, 44.379319572396938 ], [ 11.637402339131274, 44.379492658659906 ] ] } },
{ "type": "Feature", "properties": { "CITY_NAME": "DOZZA", "strokeColor": "#70ACCC", "RGB": "112, 172, 204" }, "geometry": { "type": "LineString", "coordinates": [ [ 11.620639717018062, 44.36178457133709 ], [ 11.620541061204328, 44.361494830495111 ], [ 11.620473823714175, 44.361278372416116 ], [ 11.620452231701492, 44.361183808419874 ], [ 11.620429618647517, 44.361076676658257 ], [ 11.620435241246732, 44.360978926621414 ], [ 11.620498368027111, 44.360931204351964 ], [ 11.620621039609576, 44.360848217078988 ], [ 11.621009263996138, 44.36056396790584 ] ] } },
{ "type": "Feature", "properties": { "CITY_NAME": "DOZZA", "strokeColor": "#70ACCC", "RGB": "112, 172, 204" }, "geometry": { "type": "LineString", "coordinates": [ [ 11.621009263996138, 44.36056396790584 ], [ 11.621368578853174, 44.360271594660361 ] ] } },
{ "type": "Feature", "properties": { "CITY_NAME": "DOZZA", "strokeColor": "#70ACCC", "RGB": "112, 172, 204" }, "geometry": { "type": "LineString", "coordinates": [ [ 11.637865886793456, 44.384396801517418 ], [ 11.637732269285042, 44.384447364103544 ] ] } },
{ "type": "Feature", "properties": { "CITY_NAME": "DOZZA", "strokeColor": "#70ACCC", "RGB": "112, 172, 204" }, "geometry": { "type": "LineString", "coordinates": [ [ 11.63855284404799, 44.378781543464335 ], [ 11.638200833211009, 44.378347295816042 ], [ 11.638104556794048, 44.37823587281396 ] ] } },
{ "type": "Feature", "properties": { "CITY_NAME": "DOZZA", "strokeColor": "#70ACCC", "RGB": "112, 172, 204" }, "geometry": { "type": "LineString", "coordinates": [ [ 11.639513946700296, 44.383047712913942 ], [ 11.639162599056418, 44.38287193743006 ] ] } },
{ "type": "Feature", "properties": { "CITY_NAME": "DOZZA", "strokeColor": "#70ACCC", "RGB": "112, 172, 204" }, "geometry": { "type": "LineString", "coordinates": [ [ 11.637511461988169, 44.384841413978648 ], [ 11.637776966363036, 44.384670276576301 ], [ 11.637991161651843, 44.384561858625787 ] ] } },
{ "type": "Feature", "properties": { "CITY_NAME": "DOZZA", "strokeColor": "#70ACCC", "RGB": "112, 172, 204" }, "geometry": { "type": "LineString", "coordinates": [ [ 11.640385134402591, 44.383076639261702 ], [ 11.639884371827216, 44.383293362469296 ] ] } },
{ "type": "Feature", "properties": { "CITY_NAME": "DOZZA", "strokeColor": "#70ACCC", "RGB": "112, 172, 204" }, "geometry": { "type": "LineString", "coordinates": [ [ 11.637402339131274, 44.379492658659906 ], [ 11.636979661705523, 44.379007548077475 ] ] } },
{ "type": "Feature", "properties": { "CITY_NAME": "DOZZA", "strokeColor": "#70ACCC", "RGB": "112, 172, 204" }, "geometry": { "type": "LineString", "coordinates": [ [ 11.645010628010757, 44.379299453717032 ], [ 11.643766764166202, 44.379738618562293 ], [ 11.64191204206965, 44.380419965293918 ], [ 11.641709445396819, 44.380162958737927 ], [ 11.641502448447534, 44.379880623743588 ] ] } },
{ "type": "Feature", "properties": { "CITY_NAME": "DOZZA", "strokeColor": "#70ACCC", "RGB": "112, 172, 204" }, "geometry": { "type": "LineString", "coordinates": [ [ 11.632202992213285, 44.380325593412394 ], [ 11.631678001539939, 44.38011302478953 ], [ 11.631313019077758, 44.379948231849632 ], [ 11.631214624027395, 44.379859076825731 ] ] } },
{ "type": "Feature", "properties": { "CITY_NAME": "DOZZA", "strokeColor": "#70ACCC", "RGB": "112, 172, 204" }, "geometry": { "type": "LineString", "coordinates": [ [ 11.632771279463816, 44.385055566664917 ], [ 11.632581752042006, 44.385026948586706 ], [ 11.632478365400967, 44.385015740764011 ], [ 11.632410068461843, 44.384997448736215 ], [ 11.632330490659776, 44.384980811337371 ] ] } },
{ "type": "Feature", "properties": { "CITY_NAME": "DOZZA", "strokeColor": "#70ACCC", "RGB": "112, 172, 204" }, "geometry": { "type": "LineString", "coordinates": [ [ 11.622927289327498, 44.359498748384063 ], [ 11.623392453572084, 44.359031625275001 ], [ 11.623765028531587, 44.358720196020741 ] ] } },
{ "type": "Feature", "properties": { "CITY_NAME": "DOZZA", "strokeColor": "#70ACCC", "RGB": "112, 172, 204" }, "geometry": { "type": "LineString", "coordinates": [ [ 11.639848214516551, 44.383172230311409 ], [ 11.639673741997804, 44.383248339880353 ], [ 11.639513946700296, 44.383047712913942 ] ] } },
{ "type": "Feature", "properties": { "CITY_NAME": "DOZZA", "strokeColor": "#70ACCC", "RGB": "112, 172, 204" }, "geometry": { "type": "LineString", "coordinates": [ [ 11.631301625684939, 44.383514967429221 ], [ 11.630783175135074, 44.382728664803516 ] ] } },
{ "type": "Feature", "properties": { "CITY_NAME": "DOZZA", "strokeColor": "#70ACCC", "RGB": "112, 172, 204" }, "geometry": { "type": "LineString", "coordinates": [ [ 11.641128172871388, 44.381744196756713 ], [ 11.641368154830335, 44.38203692879128 ], [ 11.641509537389918, 44.382238944379118 ], [ 11.641875668848632, 44.382737520095404 ], [ 11.642315723593269, 44.383390068603134 ], [ 11.641655336121802, 44.383643222095365 ] ] } },
{ "type": "Feature", "properties": { "CITY_NAME": "DOZZA", "strokeColor": "#70ACCC", "RGB": "112, 172, 204" }, "geometry": { "type": "LineString", "coordinates": [ [ 11.645484087008404, 44.379876227423026 ], [ 11.645607547920852, 44.379926657343916 ] ] } },
{ "type": "Feature", "properties": { "CITY_NAME": "DOZZA", "strokeColor": "#70ACCC", "RGB": "112, 172, 204" }, "geometry": { "type": "LineString", "coordinates": [ [ 11.637402339131274, 44.379492658659906 ], [ 11.637546790851248, 44.379686573438221 ] ] } },
{ "type": "Feature", "properties": { "CITY_NAME": "DOZZA", "strokeColor": "#70ACCC", "RGB": "112, 172, 204" }, "geometry": { "type": "LineString", "coordinates": [ [ 11.638039981442713, 44.379425655750723 ], [ 11.638228391029259, 44.379317223757248 ], [ 11.638793101195962, 44.379077925297331 ] ] } },
{ "type": "Feature", "properties": { "CITY_NAME": "DOZZA", "strokeColor": "#70ACCC", "RGB": "112, 172, 204" }, "geometry": { "type": "LineString", "coordinates": [ [ 11.63855284404799, 44.378781543464335 ], [ 11.638192648345237, 44.378925966465651 ] ] } },
{ "type": "Feature", "properties": { "CITY_NAME": "DOZZA", "strokeColor": "#70ACCC", "RGB": "112, 172, 204" }, "geometry": { "type": "LineString", "coordinates": [ [ 11.624970262301698, 44.358652292665468 ], [ 11.62495756571851, 44.358712254663857 ], [ 11.625188847433085, 44.358897266760096 ], [ 11.625460414037708, 44.359027499340421 ], [ 11.625283637951975, 44.359242847297693 ], [ 11.624640118045075, 44.358998358680196 ] ] } },
{ "type": "Feature", "properties": { "CITY_NAME": "DOZZA", "strokeColor": "#70ACCC", "RGB": "112, 172, 204" }, "geometry": { "type": "LineString", "coordinates": [ [ 11.625111389457768, 44.364435262508124 ], [ 11.624718761475883, 44.363758056985148 ], [ 11.624585627412511, 44.363622184779032 ], [ 11.624030704746882, 44.363123119731902 ], [ 11.623995054800794, 44.363062159037348 ], [ 11.623888798182659, 44.362970505254083 ], [ 11.623614831875567, 44.36270896287018 ], [ 11.623325414021314, 44.362055652678606 ], [ 11.622940471985778, 44.36112485567233 ], [ 11.622798405325687, 44.360845839922199 ], [ 11.622700399104991, 44.360685171452758 ] ] } },
{ "type": "Feature", "properties": { "CITY_NAME": "DOZZA", "strokeColor": "#70ACCC", "RGB": "112, 172, 204" }, "geometry": { "type": "LineString", "coordinates": [ [ 11.640958716826811, 44.379117584030332 ], [ 11.640745881989446, 44.37919234298603 ] ] } },
{ "type": "Feature", "properties": { "CITY_NAME": "DOZZA", "strokeColor": "#70ACCC", "RGB": "112, 172, 204" }, "geometry": { "type": "LineString", "coordinates": [ [ 11.625932431469659, 44.358757705377698 ], [ 11.626065931796429, 44.35876599556012 ], [ 11.626353688699975, 44.358827121380322 ], [ 11.627114238941195, 44.359064888077157 ], [ 11.62743788383117, 44.359235907803246 ], [ 11.627624118817868, 44.359263434665003 ] ] } },
{ "type": "Feature", "properties": { "CITY_NAME": "DOZZA", "strokeColor": "#70ACCC", "RGB": "112, 172, 204" }, "geometry": { "type": "LineString", "coordinates": [ [ 11.640958716826811, 44.379117584030332 ], [ 11.64397863716866, 44.37801653329236 ] ] } },
{ "type": "Feature", "properties": { "CITY_NAME": "DOZZA", "strokeColor": "#70ACCC", "RGB": "112, 172, 204" }, "geometry": { "type": "LineString", "coordinates": [ [ 11.636083048944947, 44.361799231851485 ], [ 11.635640363647537, 44.362107418093075 ] ] } },
{ "type": "Feature", "properties": { "CITY_NAME": "DOZZA", "strokeColor": "#70ACCC", "RGB": "112, 172, 204" }, "geometry": { "type": "LineString", "coordinates": [ [ 11.632158092345122, 44.384831079625265 ], [ 11.631982814152179, 44.384587308983015 ], [ 11.631301625684939, 44.383514967429221 ] ] } },
{ "type": "Feature", "properties": { "CITY_NAME": "DOZZA", "strokeColor": "#70ACCC", "RGB": "112, 172, 204" }, "geometry": { "type": "LineString", "coordinates": [ [ 11.631301625684939, 44.383514967429221 ], [ 11.63058522785785, 44.383671016142642 ], [ 11.62991996405243, 44.383742610968724 ], [ 11.631170104610018, 44.385653068056563 ] ] } },
{ "type": "Feature", "properties": { "CITY_NAME": "DOZZA", "strokeColor": "#70ACCC", "RGB": "112, 172, 204" }, "geometry": { "type": "LineString", "coordinates": [ [ 11.635839167097171, 44.383020160491732 ], [ 11.635818295353777, 44.382800431340122 ] ] } },
{ "type": "Feature", "properties": { "CITY_NAME": "DOZZA", "strokeColor": "#70ACCC", "RGB": "112, 172, 204" }, "geometry": { "type": "LineString", "coordinates": [ [ 11.635684241440822, 44.382436511585354 ], [ 11.6346987858708, 44.382633046637373 ] ] } },
{ "type": "Feature", "properties": { "CITY_NAME": "DOZZA", "strokeColor": "#70ACCC", "RGB": "112, 172, 204" }, "geometry": { "type": "LineString", "coordinates": [ [ 11.640300779583542, 44.382065565919262 ], [ 11.640392820201418, 44.382206132149392 ], [ 11.641321883058941, 44.383310605788168 ], [ 11.641655336121802, 44.383643222095365 ] ] } },
{ "type": "Feature", "properties": { "CITY_NAME": "DOZZA", "strokeColor": "#70ACCC", "RGB": "112, 172, 204" }, "geometry": { "type": "LineString", "coordinates": [ [ 11.640134174622508, 44.381815794986572 ], [ 11.64027327065426, 44.381990021494765 ], [ 11.640300779583542, 44.382065565919262 ] ] } },
{ "type": "Feature", "properties": { "CITY_NAME": "DOZZA", "strokeColor": "#70ACCC", "RGB": "112, 172, 204" }, "geometry": { "type": "LineString", "coordinates": [ [ 11.632202992213285, 44.380325593412394 ], [ 11.632268631108566, 44.380241553874484 ], [ 11.632847155504862, 44.379925625280706 ] ] } },
{ "type": "Feature", "properties": { "CITY_NAME": "DOZZA", "strokeColor": "#70ACCC", "RGB": "112, 172, 204" }, "geometry": { "type": "LineString", "coordinates": [ [ 11.637922118782679, 44.379282408238794 ], [ 11.637419959890813, 44.378456213659369 ], [ 11.637127473327364, 44.378170583845055 ], [ 11.637108061123415, 44.378151279524687 ] ] } },
{ "type": "Feature", "properties": { "CITY_NAME": "DOZZA", "strokeColor": "#70ACCC", "RGB": "112, 172, 204" }, "geometry": { "type": "LineString", "coordinates": [ [ 11.634124352679187, 44.384563274309734 ], [ 11.633895969843826, 44.384014132137168 ], [ 11.633582271767924, 44.38340091421459 ] ] } },
{ "type": "Feature", "properties": { "CITY_NAME": "DOZZA", "strokeColor": "#70ACCC", "RGB": "112, 172, 204" }, "geometry": { "type": "LineString", "coordinates": [ [ 11.638104556794048, 44.37823587281396 ], [ 11.637759997731392, 44.378388402793597 ] ] } },
{ "type": "Feature", "properties": { "CITY_NAME": "DOZZA", "strokeColor": "#70ACCC", "RGB": "112, 172, 204" }, "geometry": { "type": "LineString", "coordinates": [ [ 11.637108061123415, 44.378151279524687 ], [ 11.636780186829881, 44.377825225034428 ], [ 11.636643619807826, 44.377700422628465 ], [ 11.636191697083154, 44.377382035611113 ] ] } },
{ "type": "Feature", "properties": { "CITY_NAME": "DOZZA", "strokeColor": "#B3B3B3", "RGB": "179, 179, 179" }, "geometry": { "type": "LineString", "coordinates": [ [ 11.64560714288263, 44.383584401677922 ], [ 11.645648471080897, 44.383520005450315 ], [ 11.645769619728933, 44.383460103239116 ], [ 11.645948344363864, 44.383399840338456 ], [ 11.646165014515796, 44.383400147104105 ] ] } },
{ "type": "Feature", "properties": { "CITY_NAME": "DOZZA", "strokeColor": "#70ACCC", "RGB": "112, 172, 204" }, "geometry": { "type": "LineString", "coordinates": [ [ 11.643063303760481, 44.384793695449595 ], [ 11.643364848388485, 44.384860701142578 ], [ 11.6444444061918, 44.38514198819405 ] ] } },
{ "type": "Feature", "properties": { "CITY_NAME": "DOZZA", "strokeColor": "#70ACCC", "RGB": "112, 172, 204" }, "geometry": { "type": "LineString", "coordinates": [ [ 11.633206500067022, 44.379762440287507 ], [ 11.633536753165702, 44.380061848044903 ], [ 11.633719152298626, 44.380198112171769 ] ] } },
{ "type": "Feature", "properties": { "CITY_NAME": "DOZZA", "strokeColor": "#70ACCC", "RGB": "112, 172, 204" }, "geometry": { "type": "LineString", "coordinates": [ [ 11.636063794693817, 44.385596370658533 ], [ 11.636457351470936, 44.386083054343771 ], [ 11.637159036194793, 44.386966428895128 ] ] } },
{ "type": "Feature", "properties": { "CITY_NAME": "DOZZA", "strokeColor": "#70ACCC", "RGB": "112, 172, 204" }, "geometry": { "type": "LineString", "coordinates": [ [ 11.632771279463816, 44.385055566664917 ], [ 11.632434608500279, 44.385172199269945 ] ] } },
{ "type": "Feature", "properties": { "CITY_NAME": "DOZZA", "strokeColor": "#70ACCC", "RGB": "112, 172, 204" }, "geometry": { "type": "LineString", "coordinates": [ [ 11.633410250861365, 44.384836376698431 ], [ 11.633637859790159, 44.385432591068614 ] ] } }
]
}
