{
"type": "FeatureCollection",
"name": "FIRENZUOLA",
"crs": { "type": "name", "properties": { "name": "urn:ogc:def:crs:OGC:1.3:CRS84" } },
"features": [
{ "type": "Feature", "properties": { "CITY_NAME": "FIRENZUOLA", "strokeColor": "#B3B3B3", "RGB": "179, 179, 179" }, "geometry": { "type": "LineString", "coordinates": [ [ 11.381876176754854, 44.117077793200608 ], [ 11.382067285568331, 44.116871462382584 ], [ 11.382627305919504, 44.116416394531456 ], [ 11.382968649612671, 44.116136444803992 ], [ 11.383129791344633, 44.116020444230891 ], [ 11.383160236624843, 44.115951557384832 ], [ 11.383079171834042, 44.115936202869079 ], [ 11.382885133776684, 44.115936875359445 ], [ 11.382442906535985, 44.11588476088361 ], [ 11.381953382677391, 44.115833626846076 ], [ 11.381753417303711, 44.115803692660656 ], [ 11.381656703472613, 44.115751120729094 ], [ 11.381598754942271, 44.115721622626005 ], [ 11.381427963643493, 44.115711553255998 ], [ 11.380995865018514, 44.11571830730697 ] ] } },
{ "type": "Feature", "properties": { "CITY_NAME": "FIRENZUOLA", "strokeColor": "#70ACCC", "RGB": "112, 172, 204" }, "geometry": { "type": "LineString", "coordinates": [ [ 11.374062591070283, 44.086959930034055 ], [ 11.373977099848872, 44.087082766043288 ], [ 11.373845285286462, 44.087230646551106 ], [ 11.373625945588598, 44.087496812436839 ] ] } },
{ "type": "Feature", "properties": { "CITY_NAME": "FIRENZUOLA", "strokeColor": "#70ACCC", "RGB": "112, 172, 204" }, "geometry": { "type": "LineString", "coordinates": [ [ 11.374248653086671, 44.086588216663877 ], [ 11.374117360072651, 44.086881234878668 ], [ 11.374062591070283, 44.086959930034055 ] ] } },
{ "type": "Feature", "properties": { "CITY_NAME": "FIRENZUOLA", "strokeColor": "#70ACCC", "RGB": "112, 172, 204" }, "geometry": { "type": "LineString", "coordinates": [ [ 11.378869293695532, 44.085029387893528 ], [ 11.37838300851771, 44.084924897226536 ] ] } },
{ "type": "Feature", "properties": { "CITY_NAME": "FIRENZUOLA", "strokeColor": "#70ACCC", "RGB": "112, 172, 204" }, "geometry": { "type": "LineString", "coordinates": [ [ 11.338055047242548, 44.102528176426375 ], [ 11.338064651901744, 44.102283586942704 ] ] } },
{ "type": "Feature", "properties": { "CITY_NAME": "FIRENZUOLA", "strokeColor": "#70ACCC", "RGB": "112, 172, 204" }, "geometry": { "type": "LineString", "coordinates": [ [ 11.373625945588598, 44.087496812436839 ], [ 11.373601508627047, 44.087625308689063 ], [ 11.373618674848306, 44.087789199271697 ], [ 11.373618276041841, 44.087911437442472 ], [ 11.373598999524901, 44.088091362940979 ], [ 11.373562923704366, 44.088248717507895 ], [ 11.373491935360782, 44.088460271752595 ], [ 11.373329423232393, 44.088635525363792 ], [ 11.373072087323202, 44.088824204106487 ], [ 11.372977167172825, 44.088967498601249 ] ] } },
{ "type": "Feature", "properties": { "CITY_NAME": "FIRENZUOLA", "strokeColor": "#70ACCC", "RGB": "112, 172, 204" }, "geometry": { "type": "LineString", "coordinates": [ [ 11.338064651901744, 44.102283586942704 ], [ 11.338073511444167, 44.102057965138712 ], [ 11.338041068513734, 44.101924195093417 ], [ 11.337977899221242, 44.101838041358434 ], [ 11.337848859731556, 44.101734963523462 ], [ 11.337757987813223, 44.10164160446012 ], [ 11.337709033622703, 44.101542049224591 ], [ 11.337614359752935, 44.101299917759263 ], [ 11.33758852271993, 44.10125926108595 ], [ 11.337588191654563, 44.101256726287069 ] ] } },
{ "type": "Feature", "properties": { "CITY_NAME": "FIRENZUOLA", "strokeColor": "#70ACCC", "RGB": "112, 172, 204" }, "geometry": { "type": "LineString", "coordinates": [ [ 11.37210243731632, 44.088821373895904 ], [ 11.372090131669911, 44.089043170938361 ], [ 11.372141749262928, 44.089141413773028 ], [ 11.372387608667163, 44.089327305198736 ], [ 11.372547701578732, 44.089488235315294 ], [ 11.372702593659582, 44.089519403377722 ], [ 11.372817832058313, 44.089486457599143 ], [ 11.372899777172771, 44.089416006068795 ], [ 11.372912845690466, 44.089213292305125 ], [ 11.372977167172825, 44.088967498601249 ] ] } }
]
}
