{
"type": "FeatureCollection",
"name": "FONTANELICE",
"crs": { "type": "name", "properties": { "name": "urn:ogc:def:crs:OGC:1.3:CRS84" } },
"features": [
{ "type": "Feature", "properties": { "CITY_NAME": "FONTANELICE", "strokeColor": "#B3B3B3", "RGB": "179, 179, 179" }, "geometry": { "type": "LineString", "coordinates": [ [ 11.559327786863564, 44.25868169292896 ], [ 11.559144174522787, 44.258616192804588 ], [ 11.558567507381229, 44.258468263798797 ], [ 11.558033002587402, 44.258112808449667 ] ] } },
{ "type": "Feature", "properties": { "CITY_NAME": "FONTANELICE", "strokeColor": "#B3B3B3", "RGB": "179, 179, 179" }, "geometry": { "type": "LineString", "coordinates": [ [ 11.557656132620826, 44.257909577415788 ], [ 11.55737656551568, 44.257733156402224 ], [ 11.556564316440607, 44.257180561900469 ], [ 11.556374438777386, 44.257051818373611 ], [ 11.556180579438815, 44.25689587691577 ] ] } },
{ "type": "Feature", "properties": { "CITY_NAME": "FONTANELICE", "strokeColor": "#B3B3B3", "RGB": "179, 179, 179" }, "geometry": { "type": "LineString", "coordinates": [ [ 11.555514759655535, 44.256475589870433 ], [ 11.554876189915477, 44.256051954879609 ] ] } },
{ "type": "Feature", "properties": { "CITY_NAME": "FONTANELICE", "strokeColor": "#70ACCC", "RGB": "112, 172, 204" }, "geometry": { "type": "LineString", "coordinates": [ [ 11.559710033621604, 44.261066566805589 ], [ 11.559187288652652, 44.260983209488209 ], [ 11.558998743664409, 44.260938844103279 ], [ 11.558858889782224, 44.260886368381584 ] ] } },
{ "type": "Feature", "properties": { "CITY_NAME": "FONTANELICE", "strokeColor": "#B3B3B3", "RGB": "179, 179, 179" }, "geometry": { "type": "LineString", "coordinates": [ [ 11.557691799884472, 44.260080941617197 ], [ 11.558176752050908, 44.259634377681749 ], [ 11.558529706616769, 44.259305302612226 ], [ 11.558666269671328, 44.259188685247231 ], [ 11.558751667026851, 44.259125256467435 ], [ 11.559155439245412, 44.258989008748216 ], [ 11.559401174924716, 44.258914947444993 ], [ 11.559503349424014, 44.258746897886716 ] ] } },
{ "type": "Feature", "properties": { "CITY_NAME": "FONTANELICE", "strokeColor": "#B3B3B3", "RGB": "179, 179, 179" }, "geometry": { "type": "LineString", "coordinates": [ [ 11.558033002587402, 44.258112808449667 ], [ 11.558141102341402, 44.258013793574065 ], [ 11.558283261527771, 44.257914989441844 ], [ 11.558430268115599, 44.257798804512909 ], [ 11.558498554024101, 44.257749249280842 ] ] } },
{ "type": "Feature", "properties": { "CITY_NAME": "FONTANELICE", "strokeColor": "#B3B3B3", "RGB": "179, 179, 179" }, "geometry": { "type": "LineString", "coordinates": [ [ 11.55813898145141, 44.25754332293252 ], [ 11.558314359376986, 44.257436809754928 ] ] } },
{ "type": "Feature", "properties": { "CITY_NAME": "FONTANELICE", "strokeColor": "#B3B3B3", "RGB": "179, 179, 179" }, "geometry": { "type": "LineString", "coordinates": [ [ 11.559217930009721, 44.260445638268607 ], [ 11.559351913983591, 44.260502268528903 ], [ 11.55955668458461, 44.260548305984742 ], [ 11.559889852413983, 44.260593570631563 ] ] } },
{ "type": "Feature", "properties": { "CITY_NAME": "FONTANELICE", "strokeColor": "#B3B3B3", "RGB": "179, 179, 179" }, "geometry": { "type": "LineString", "coordinates": [ [ 11.558033002587402, 44.258112808449667 ], [ 11.557656132620826, 44.257909577415788 ] ] } },
{ "type": "Feature", "properties": { "CITY_NAME": "FONTANELICE", "strokeColor": "#70ACCC", "RGB": "112, 172, 204" }, "geometry": { "type": "LineString", "coordinates": [ [ 11.557898084292969, 44.266106592437332 ], [ 11.558335022139049, 44.26610012244349 ], [ 11.558581942700167, 44.266097458678537 ], [ 11.558685748927605, 44.266066865820498 ], [ 11.558742793240972, 44.266046030355632 ], [ 11.558812631887308, 44.26601044950943 ], [ 11.558862740940421, 44.265984665721554 ], [ 11.558933639350068, 44.265973298512336 ], [ 11.559120332443928, 44.265959338208297 ], [ 11.559429222899549, 44.265935413206499 ], [ 11.559629114076884, 44.265921439756532 ] ] } },
{ "type": "Feature", "properties": { "CITY_NAME": "FONTANELICE", "strokeColor": "#B3B3B3", "RGB": "179, 179, 179" }, "geometry": { "type": "LineString", "coordinates": [ [ 11.562046596441357, 44.260255260375111 ], [ 11.562019553421747, 44.260188721309049 ], [ 11.561936804016471, 44.260026359132496 ], [ 11.561685578950437, 44.259596834850193 ], [ 11.561561286794317, 44.259456605410158 ], [ 11.561447758089123, 44.259347967521485 ], [ 11.561269118831762, 44.259250007485498 ], [ 11.561133943692967, 44.259194308277124 ] ] } },
{ "type": "Feature", "properties": { "CITY_NAME": "FONTANELICE", "strokeColor": "#B3B3B3", "RGB": "179, 179, 179" }, "geometry": { "type": "LineString", "coordinates": [ [ 11.558498554024101, 44.257749249280842 ], [ 11.558551575739111, 44.257669119398386 ], [ 11.558590513309866, 44.257596233752757 ], [ 11.558610925711152, 44.257436992846067 ], [ 11.558602585862713, 44.257353140782357 ] ] } },
{ "type": "Feature", "properties": { "CITY_NAME": "FONTANELICE", "strokeColor": "#B3B3B3", "RGB": "179, 179, 179" }, "geometry": { "type": "LineString", "coordinates": [ [ 11.556180579438815, 44.25689587691577 ], [ 11.555827763739916, 44.256673167259436 ], [ 11.555514759655535, 44.256475589870433 ] ] } },
{ "type": "Feature", "properties": { "CITY_NAME": "FONTANELICE", "strokeColor": "#70ACCC", "RGB": "112, 172, 204" }, "geometry": { "type": "LineString", "coordinates": [ [ 11.556614269789375, 44.263647395775614 ], [ 11.556873637132545, 44.263157763741823 ] ] } },
{ "type": "Feature", "properties": { "CITY_NAME": "FONTANELICE", "strokeColor": "#B3B3B3", "RGB": "179, 179, 179" }, "geometry": { "type": "LineString", "coordinates": [ [ 11.561133943692967, 44.259194308277124 ], [ 11.560956803354635, 44.259131526990053 ], [ 11.560560664888182, 44.259014399137648 ], [ 11.560344092476383, 44.258922992683317 ] ] } },
{ "type": "Feature", "properties": { "CITY_NAME": "FONTANELICE", "strokeColor": "#B3B3B3", "RGB": "179, 179, 179" }, "geometry": { "type": "LineString", "coordinates": [ [ 11.554876189915477, 44.256051954879609 ], [ 11.554611529419709, 44.25587637818446 ], [ 11.554223355330242, 44.255636670494802 ] ] } },
{ "type": "Feature", "properties": { "CITY_NAME": "FONTANELICE", "strokeColor": "#B3B3B3", "RGB": "179, 179, 179" }, "geometry": { "type": "LineString", "coordinates": [ [ 11.561133943692967, 44.259194308277124 ], [ 11.560957929338574, 44.25938483398415 ], [ 11.560924256887258, 44.259451272397648 ], [ 11.560937378682224, 44.259500897066999 ], [ 11.560968649734683, 44.259547487552233 ], [ 11.561021263403534, 44.259580462265788 ], [ 11.561321549583489, 44.259592116307793 ], [ 11.561409888031388, 44.259605898262791 ], [ 11.561532807831069, 44.259658313301628 ], [ 11.561586214690641, 44.259877809107032 ], [ 11.561591571757504, 44.260085247011197 ], [ 11.561579242293044, 44.260138069730417 ], [ 11.561554588556778, 44.260159640992256 ], [ 11.561443191934075, 44.26020417755025 ] ] } },
{ "type": "Feature", "properties": { "CITY_NAME": "FONTANELICE", "strokeColor": "#70ACCC", "RGB": "112, 172, 204" }, "geometry": { "type": "LineString", "coordinates": [ [ 11.569688054745766, 44.265089261352976 ], [ 11.569543528293185, 44.265021409173677 ], [ 11.567998133049773, 44.264519798499528 ], [ 11.56746082541336, 44.264353054208605 ], [ 11.566936123745174, 44.264188254827758 ] ] } },
{ "type": "Feature", "properties": { "CITY_NAME": "FONTANELICE", "strokeColor": "#B3B3B3", "RGB": "179, 179, 179" }, "geometry": { "type": "LineString", "coordinates": [ [ 11.559217930009721, 44.260445638268607 ], [ 11.559422026679375, 44.26023337667332 ] ] } },
{ "type": "Feature", "properties": { "CITY_NAME": "FONTANELICE", "strokeColor": "#B3B3B3", "RGB": "179, 179, 179" }, "geometry": { "type": "LineString", "coordinates": [ [ 11.562501700585102, 44.261033908938671 ], [ 11.562302351503185, 44.260801628305032 ], [ 11.562128479877044, 44.260456747597871 ], [ 11.562046596441357, 44.260255260375111 ] ] } },
{ "type": "Feature", "properties": { "CITY_NAME": "FONTANELICE", "strokeColor": "#70ACCC", "RGB": "112, 172, 204" }, "geometry": { "type": "LineString", "coordinates": [ [ 11.557349021577108, 44.26577562778148 ], [ 11.557636129827138, 44.265875178100067 ], [ 11.557898084292969, 44.266106592437332 ] ] } },
{ "type": "Feature", "properties": { "CITY_NAME": "FONTANELICE", "strokeColor": "#70ACCC", "RGB": "112, 172, 204" }, "geometry": { "type": "LineString", "coordinates": [ [ 11.556203123962781, 44.264432628679913 ], [ 11.556377330103446, 44.264110101599002 ], [ 11.556614269789375, 44.263647395775614 ] ] } },
{ "type": "Feature", "properties": { "CITY_NAME": "FONTANELICE", "strokeColor": "#70ACCC", "RGB": "112, 172, 204" }, "geometry": { "type": "LineString", "coordinates": [ [ 11.556873637132545, 44.263157763741823 ], [ 11.556896731679831, 44.26310895698257 ], [ 11.556901290700234, 44.263047809235282 ] ] } },
{ "type": "Feature", "properties": { "CITY_NAME": "FONTANELICE", "strokeColor": "#B3B3B3", "RGB": "179, 179, 179" }, "geometry": { "type": "LineString", "coordinates": [ [ 11.558858889782224, 44.260886368381584 ], [ 11.559040126148783, 44.260666478609409 ], [ 11.559217930009721, 44.260445638268607 ] ] } },
{ "type": "Feature", "properties": { "CITY_NAME": "FONTANELICE", "strokeColor": "#70ACCC", "RGB": "112, 172, 204" }, "geometry": { "type": "LineString", "coordinates": [ [ 11.557778292186534, 44.266393203809564 ], [ 11.557836797847807, 44.266274486810431 ], [ 11.557898084292969, 44.266106592437332 ] ] } }
]
}
