{
"type": "FeatureCollection",
"name": "GAGGIO_MONTANO",
"crs": { "type": "name", "properties": { "name": "urn:ogc:def:crs:OGC:1.3:CRS84" } },
"features": [
{ "type": "Feature", "properties": { "CITY_NAME": "GAGGIO_MONTANO", "strokeColor": "#70ACCC", "RGB": "112, 172, 204" }, "geometry": { "type": "LineString", "coordinates": [ [ 10.935530845986749, 44.193698263581638 ], [ 10.935463109139452, 44.193730010301714 ], [ 10.93532092651191, 44.193793992745661 ], [ 10.935117512107485, 44.193906349764291 ], [ 10.935049108732059, 44.193987512673949 ], [ 10.934982146694701, 44.194113783412163 ], [ 10.934923348321789, 44.194238375364819 ], [ 10.93466282034599, 44.194739818051325 ] ] } },
{ "type": "Feature", "properties": { "CITY_NAME": "GAGGIO_MONTANO", "strokeColor": "#70ACCC", "RGB": "112, 172, 204" }, "geometry": { "type": "LineString", "coordinates": [ [ 10.984897270688576, 44.181696298147529 ], [ 10.984688820329362, 44.181617329750893 ], [ 10.984398106137263, 44.181530737027337 ], [ 10.984075377310695, 44.18147057369044 ], [ 10.983805491222421, 44.18142921177887 ], [ 10.983320815065714, 44.181341819904624 ], [ 10.983063339370979, 44.181302691329201 ], [ 10.982764046335724, 44.181253177565544 ] ] } },
{ "type": "Feature", "properties": { "CITY_NAME": "GAGGIO_MONTANO", "strokeColor": "#70ACCC", "RGB": "112, 172, 204" }, "geometry": { "type": "LineString", "coordinates": [ [ 10.936232250087974, 44.195496134880322 ], [ 10.936342796213056, 44.195785358758798 ] ] } },
{ "type": "Feature", "properties": { "CITY_NAME": "GAGGIO_MONTANO", "strokeColor": "#70ACCC", "RGB": "112, 172, 204" }, "geometry": { "type": "LineString", "coordinates": [ [ 10.934559339388089, 44.195315167993733 ], [ 10.934596879778026, 44.195364080314533 ], [ 10.934637254497909, 44.195451528971802 ], [ 10.934680174987358, 44.195547896118782 ], [ 10.934717100375753, 44.195643961479895 ], [ 10.934745592494224, 44.195755730574056 ], [ 10.934777135270579, 44.195869400734736 ], [ 10.934813926682414, 44.196049213780789 ] ] } },
{ "type": "Feature", "properties": { "CITY_NAME": "GAGGIO_MONTANO", "strokeColor": "#70ACCC", "RGB": "112, 172, 204" }, "geometry": { "type": "LineString", "coordinates": [ [ 10.935773026147595, 44.194319261126942 ], [ 10.936232250087974, 44.195496134880322 ] ] } },
{ "type": "Feature", "properties": { "CITY_NAME": "GAGGIO_MONTANO", "strokeColor": "#70ACCC", "RGB": "112, 172, 204" }, "geometry": { "type": "LineString", "coordinates": [ [ 10.937157307323035, 44.195420962601474 ], [ 10.937226813059114, 44.195466259072596 ], [ 10.937267595472871, 44.195592944164574 ] ] } },
{ "type": "Feature", "properties": { "CITY_NAME": "GAGGIO_MONTANO", "strokeColor": "#70ACCC", "RGB": "112, 172, 204" }, "geometry": { "type": "LineString", "coordinates": [ [ 10.980325486314959, 44.180157527931335 ], [ 10.98020202066761, 44.180049164429455 ], [ 10.979588612072153, 44.179533943110201 ] ] } },
{ "type": "Feature", "properties": { "CITY_NAME": "GAGGIO_MONTANO", "strokeColor": "#70ACCC", "RGB": "112, 172, 204" }, "geometry": { "type": "LineString", "coordinates": [ [ 10.935983243021491, 44.198463489604869 ], [ 10.936237584141216, 44.198348056497167 ] ] } },
{ "type": "Feature", "properties": { "CITY_NAME": "GAGGIO_MONTANO", "strokeColor": "#70ACCC", "RGB": "112, 172, 204" }, "geometry": { "type": "LineString", "coordinates": [ [ 10.936587651156124, 44.196407775598175 ], [ 10.93672065698464, 44.196747209905944 ], [ 10.936784454151192, 44.196927596028466 ] ] } },
{ "type": "Feature", "properties": { "CITY_NAME": "GAGGIO_MONTANO", "strokeColor": "#70ACCC", "RGB": "112, 172, 204" }, "geometry": { "type": "LineString", "coordinates": [ [ 10.934813926682414, 44.196049213780789 ], [ 10.934441266369079, 44.196184514623219 ], [ 10.934183784969679, 44.196278764160063 ], [ 10.933859640222062, 44.196399160605786 ], [ 10.933521333239224, 44.19653240918673 ], [ 10.933312492600464, 44.196616340375094 ] ] } },
{ "type": "Feature", "properties": { "CITY_NAME": "GAGGIO_MONTANO", "strokeColor": "#70ACCC", "RGB": "112, 172, 204" }, "geometry": { "type": "LineString", "coordinates": [ [ 10.945171959095175, 44.195211099602176 ], [ 10.94545316545951, 44.195129430505979 ], [ 10.945724920829749, 44.19503674086134 ], [ 10.946201848122982, 44.194870610330483 ], [ 10.946360596228617, 44.194790298481294 ] ] } },
{ "type": "Feature", "properties": { "CITY_NAME": "GAGGIO_MONTANO", "strokeColor": "#70ACCC", "RGB": "112, 172, 204" }, "geometry": { "type": "LineString", "coordinates": [ [ 10.943222739230308, 44.195474576632797 ], [ 10.943372245870419, 44.19556198191318 ], [ 10.94350467101266, 44.195627866923488 ], [ 10.94363566745831, 44.195650141927914 ], [ 10.943768345865937, 44.195655635282854 ], [ 10.943945139649649, 44.195621794068728 ], [ 10.945171959095175, 44.195211099602176 ] ] } },
{ "type": "Feature", "properties": { "CITY_NAME": "GAGGIO_MONTANO", "strokeColor": "#70ACCC", "RGB": "112, 172, 204" }, "geometry": { "type": "LineString", "coordinates": [ [ 10.936914357316429, 44.197320827284067 ], [ 10.93694308107856, 44.197399413842533 ], [ 10.936989407006399, 44.197423228902167 ], [ 10.937030781223752, 44.197523417941888 ], [ 10.937060946910808, 44.197623388351246 ], [ 10.937134064877659, 44.197758507290594 ], [ 10.937210946723136, 44.197917694992235 ] ] } },
{ "type": "Feature", "properties": { "CITY_NAME": "GAGGIO_MONTANO", "strokeColor": "#70ACCC", "RGB": "112, 172, 204" }, "geometry": { "type": "LineString", "coordinates": [ [ 10.937854640938127, 44.195995235238428 ], [ 10.937772817791798, 44.196052502011426 ], [ 10.93769907562303, 44.196105367764311 ], [ 10.937646903952444, 44.196155189966248 ], [ 10.937599827134488, 44.196223618725931 ], [ 10.937542187188466, 44.196311670567738 ] ] } },
{ "type": "Feature", "properties": { "CITY_NAME": "GAGGIO_MONTANO", "strokeColor": "#70ACCC", "RGB": "112, 172, 204" }, "geometry": { "type": "LineString", "coordinates": [ [ 10.936342796213056, 44.195785358758798 ], [ 10.936587651156124, 44.196407775598175 ] ] } },
{ "type": "Feature", "properties": { "CITY_NAME": "GAGGIO_MONTANO", "strokeColor": "#70ACCC", "RGB": "112, 172, 204" }, "geometry": { "type": "LineString", "coordinates": [ [ 10.93466282034599, 44.194739818051325 ], [ 10.93461195856025, 44.194832382072455 ], [ 10.934550956598368, 44.194958549772821 ], [ 10.934511734798853, 44.195041213073118 ], [ 10.934491088142437, 44.195143832064893 ], [ 10.934492440208246, 44.195186216223512 ], [ 10.934537265426535, 44.195279312766004 ], [ 10.934559339388089, 44.195315167993733 ] ] } },
{ "type": "Feature", "properties": { "CITY_NAME": "GAGGIO_MONTANO", "strokeColor": "#70ACCC", "RGB": "112, 172, 204" }, "geometry": { "type": "LineString", "coordinates": [ [ 10.938301912174724, 44.195870532804477 ], [ 10.938996040145765, 44.195654512216144 ] ] } },
{ "type": "Feature", "properties": { "CITY_NAME": "GAGGIO_MONTANO", "strokeColor": "#70ACCC", "RGB": "112, 172, 204" }, "geometry": { "type": "LineString", "coordinates": [ [ 10.93736076727326, 44.195813435420746 ], [ 10.937144323106551, 44.195818881702138 ] ] } },
{ "type": "Feature", "properties": { "CITY_NAME": "GAGGIO_MONTANO", "strokeColor": "#70ACCC", "RGB": "112, 172, 204" }, "geometry": { "type": "LineString", "coordinates": [ [ 10.937267595472871, 44.195592944164574 ], [ 10.937126347914141, 44.195593089471124 ] ] } },
{ "type": "Feature", "properties": { "CITY_NAME": "GAGGIO_MONTANO", "strokeColor": "#70ACCC", "RGB": "112, 172, 204" }, "geometry": { "type": "LineString", "coordinates": [ [ 10.936379049408316, 44.193208290858685 ], [ 10.93627858261136, 44.193205010281055 ], [ 10.936195498964425, 44.193218222878848 ], [ 10.936108818173574, 44.193238670934157 ], [ 10.936048860609713, 44.19325632418041 ], [ 10.935973525679222, 44.193296147912747 ], [ 10.935839138704576, 44.193381933880858 ], [ 10.935718150443519, 44.193479482838008 ], [ 10.93564969246901, 44.193542735466806 ], [ 10.935600988060601, 44.193600906832224 ], [ 10.935575487805931, 44.193641976120418 ], [ 10.935530845986749, 44.193698263581638 ] ] } },
{ "type": "Feature", "properties": { "CITY_NAME": "GAGGIO_MONTANO", "strokeColor": "#70ACCC", "RGB": "112, 172, 204" }, "geometry": { "type": "LineString", "coordinates": [ [ 10.936587651156124, 44.196407775598175 ], [ 10.936318749605434, 44.196430902373912 ], [ 10.934992260063966, 44.196545922543443 ] ] } },
{ "type": "Feature", "properties": { "CITY_NAME": "GAGGIO_MONTANO", "strokeColor": "#70ACCC", "RGB": "112, 172, 204" }, "geometry": { "type": "LineString", "coordinates": [ [ 10.937854640938127, 44.195995235238428 ], [ 10.937973566434836, 44.195975946538539 ], [ 10.938301912174724, 44.195870532804477 ] ] } },
{ "type": "Feature", "properties": { "CITY_NAME": "GAGGIO_MONTANO", "strokeColor": "#70ACCC", "RGB": "112, 172, 204" }, "geometry": { "type": "LineString", "coordinates": [ [ 10.936342796213056, 44.195785358758798 ], [ 10.936225149811794, 44.195798010433492 ], [ 10.934982554768899, 44.196020596214616 ], [ 10.934813926682414, 44.196049213780789 ] ] } },
{ "type": "Feature", "properties": { "CITY_NAME": "GAGGIO_MONTANO", "strokeColor": "#70ACCC", "RGB": "112, 172, 204" }, "geometry": { "type": "LineString", "coordinates": [ [ 10.936747871770875, 44.198760164171055 ], [ 10.936958950665989, 44.19885625773346 ], [ 10.937135972064523, 44.198820321901387 ] ] } },
{ "type": "Feature", "properties": { "CITY_NAME": "GAGGIO_MONTANO", "strokeColor": "#70ACCC", "RGB": "112, 172, 204" }, "geometry": { "type": "LineString", "coordinates": [ [ 10.937267595472871, 44.195592944164574 ], [ 10.93736076727326, 44.195813435420746 ] ] } },
{ "type": "Feature", "properties": { "CITY_NAME": "GAGGIO_MONTANO", "strokeColor": "#70ACCC", "RGB": "112, 172, 204" }, "geometry": { "type": "LineString", "coordinates": [ [ 10.981086841516191, 44.180764920662469 ], [ 10.981031312593128, 44.180732867937351 ], [ 10.980532352893311, 44.180307806342952 ], [ 10.980325486314959, 44.180157527931335 ] ] } },
{ "type": "Feature", "properties": { "CITY_NAME": "GAGGIO_MONTANO", "strokeColor": "#70ACCC", "RGB": "112, 172, 204" }, "geometry": { "type": "LineString", "coordinates": [ [ 10.938996040145765, 44.195654512216144 ], [ 10.939258261806387, 44.195568284871108 ], [ 10.939426733881465, 44.195483837288542 ], [ 10.939654702659148, 44.195351961897046 ], [ 10.939811699128922, 44.195280957544391 ], [ 10.940502466356747, 44.1950970042138 ], [ 10.940720737232503, 44.195033439155118 ], [ 10.940940330259705, 44.194941822916547 ], [ 10.941141778766665, 44.194841586356532 ], [ 10.941298666992051, 44.194790433517774 ], [ 10.941462818200687, 44.194756664313999 ], [ 10.941639790245377, 44.194751072503543 ], [ 10.941823647076529, 44.194774158699595 ], [ 10.941980686312387, 44.194819535742987 ], [ 10.942098439227479, 44.194869943578638 ], [ 10.94234035228355, 44.194998966292566 ] ] } },
{ "type": "Feature", "properties": { "CITY_NAME": "GAGGIO_MONTANO", "strokeColor": "#70ACCC", "RGB": "112, 172, 204" }, "geometry": { "type": "LineString", "coordinates": [ [ 10.935530845986749, 44.193698263581638 ], [ 10.935773026147595, 44.194319261126942 ] ] } },
{ "type": "Feature", "properties": { "CITY_NAME": "GAGGIO_MONTANO", "strokeColor": "#70ACCC", "RGB": "112, 172, 204" }, "geometry": { "type": "LineString", "coordinates": [ [ 10.937768541846603, 44.193082111119978 ], [ 10.937624893432417, 44.193093845090615 ], [ 10.937103740318515, 44.193135183889432 ], [ 10.936816667837309, 44.19316582250385 ], [ 10.936692926552073, 44.193177253682251 ], [ 10.936542535332235, 44.193193871359739 ], [ 10.936435791569528, 44.193209834250638 ], [ 10.936379049408316, 44.193208290858685 ] ] } },
{ "type": "Feature", "properties": { "CITY_NAME": "GAGGIO_MONTANO", "strokeColor": "#70ACCC", "RGB": "112, 172, 204" }, "geometry": { "type": "LineString", "coordinates": [ [ 10.936379049408316, 44.193208290858685 ], [ 10.93637774211083, 44.193167617431705 ], [ 10.936289701250509, 44.192811882657246 ], [ 10.936233861961252, 44.192647560402094 ] ] } },
{ "type": "Feature", "properties": { "CITY_NAME": "GAGGIO_MONTANO", "strokeColor": "#70ACCC", "RGB": "112, 172, 204" }, "geometry": { "type": "LineString", "coordinates": [ [ 10.982764046335724, 44.181253177565544 ], [ 10.982444480434193, 44.181206472788958 ], [ 10.981949708692156, 44.181105769157661 ], [ 10.981481918213669, 44.180987111270099 ], [ 10.981296293031818, 44.180890026182205 ] ] } },
{ "type": "Feature", "properties": { "CITY_NAME": "GAGGIO_MONTANO", "strokeColor": "#70ACCC", "RGB": "112, 172, 204" }, "geometry": { "type": "LineString", "coordinates": [ [ 10.986926286657821, 44.182397005789674 ], [ 10.986362233296871, 44.182196539442316 ], [ 10.986154085425145, 44.182101544826281 ] ] } },
{ "type": "Feature", "properties": { "CITY_NAME": "GAGGIO_MONTANO", "strokeColor": "#70ACCC", "RGB": "112, 172, 204" }, "geometry": { "type": "LineString", "coordinates": [ [ 10.936398276707608, 44.198432548794599 ], [ 10.936317133373429, 44.19849585032437 ], [ 10.936070515661426, 44.198565514435245 ], [ 10.935983243021491, 44.198463489604869 ] ] } },
{ "type": "Feature", "properties": { "CITY_NAME": "GAGGIO_MONTANO", "strokeColor": "#70ACCC", "RGB": "112, 172, 204" }, "geometry": { "type": "LineString", "coordinates": [ [ 10.986154085425145, 44.182101544826281 ], [ 10.985416730827996, 44.181876245829649 ], [ 10.985192875439276, 44.181797157255872 ], [ 10.985013215661249, 44.181737422761188 ], [ 10.984897270688576, 44.181696298147529 ] ] } },
{ "type": "Feature", "properties": { "CITY_NAME": "GAGGIO_MONTANO", "strokeColor": "#70ACCC", "RGB": "112, 172, 204" }, "geometry": { "type": "LineString", "coordinates": [ [ 10.981296293031818, 44.180890026182205 ], [ 10.981086841516191, 44.180764920662469 ] ] } },
{ "type": "Feature", "properties": { "CITY_NAME": "GAGGIO_MONTANO", "strokeColor": "#70ACCC", "RGB": "112, 172, 204" }, "geometry": { "type": "LineString", "coordinates": [ [ 10.936784454151192, 44.196927596028466 ], [ 10.93689537263552, 44.197220678894325 ], [ 10.936914357316429, 44.197320827284067 ] ] } },
{ "type": "Feature", "properties": { "CITY_NAME": "GAGGIO_MONTANO", "strokeColor": "#70ACCC", "RGB": "112, 172, 204" }, "geometry": { "type": "LineString", "coordinates": [ [ 10.986154085425145, 44.182101544826281 ], [ 10.986235146565873, 44.182038039945326 ], [ 10.986285681645164, 44.181984540788356 ], [ 10.98634799606061, 44.18190289482245 ] ] } },
{ "type": "Feature", "properties": { "CITY_NAME": "GAGGIO_MONTANO", "strokeColor": "#70ACCC", "RGB": "112, 172, 204" }, "geometry": { "type": "LineString", "coordinates": [ [ 10.979588612072153, 44.179533943110201 ], [ 10.979462807544168, 44.179441625886902 ], [ 10.979383183344421, 44.179368869415384 ] ] } },
{ "type": "Feature", "properties": { "CITY_NAME": "GAGGIO_MONTANO", "strokeColor": "#70ACCC", "RGB": "112, 172, 204" }, "geometry": { "type": "LineString", "coordinates": [ [ 10.94234035228355, 44.194998966292566 ], [ 10.943222739230308, 44.195474576632797 ] ] } },
{ "type": "Feature", "properties": { "CITY_NAME": "GAGGIO_MONTANO", "strokeColor": "#70ACCC", "RGB": "112, 172, 204" }, "geometry": { "type": "LineString", "coordinates": [ [ 10.936784454151192, 44.196927596028466 ], [ 10.936549198143258, 44.19695927460041 ], [ 10.936129489538182, 44.197025628571701 ], [ 10.935781839293302, 44.197079995502172 ], [ 10.935701980131231, 44.197081213239315 ], [ 10.935575399729165, 44.197047704009741 ], [ 10.935226969337629, 44.196968492569411 ], [ 10.93507415340906, 44.196932645435126 ], [ 10.935024519250051, 44.196922494656881 ], [ 10.934347273916107, 44.197011879758257 ], [ 10.933614685776456, 44.197113522864235 ] ] } },
{ "type": "Feature", "properties": { "CITY_NAME": "GAGGIO_MONTANO", "strokeColor": "#70ACCC", "RGB": "112, 172, 204" }, "geometry": { "type": "LineString", "coordinates": [ [ 10.93736076727326, 44.195813435420746 ], [ 10.937482498180879, 44.19587974022987 ], [ 10.937628587724694, 44.195937113824741 ], [ 10.937854640938127, 44.195995235238428 ] ] } }
]
}
