{
"type": "FeatureCollection",
"name": "GRANAROLO_DELL_EMILIA",
"crs": { "type": "name", "properties": { "name": "urn:ogc:def:crs:OGC:1.3:CRS84" } },
"features": [
{ "type": "Feature", "properties": { "CITY_NAME": "GRANAROLO_DELL_EMILIA", "strokeColor": "#B3B3B3", "RGB": "179, 179, 179" }, "geometry": { "type": "LineString", "coordinates": [ [ 11.397616701087962, 44.552336097312008 ], [ 11.39994602044559, 44.551548639577881 ] ] } },
{ "type": "Feature", "properties": { "CITY_NAME": "GRANAROLO_DELL_EMILIA", "strokeColor": "#B3B3B3", "RGB": "179, 179, 179" }, "geometry": { "type": "LineString", "coordinates": [ [ 11.393902753758592, 44.5535896526237 ], [ 11.394790285763076, 44.553294878758273 ], [ 11.397616701087962, 44.552336097312008 ] ] } }
]
}
