{
"type": "FeatureCollection",
"name": "GRIZZANA_MORANDI",
"crs": { "type": "name", "properties": { "name": "urn:ogc:def:crs:OGC:1.3:CRS84" } },
"features": [
{ "type": "Feature", "properties": { "CITY_NAME": "GRIZZANA_MORANDI", "strokeColor": "#70ACCC", "RGB": "112, 172, 204" }, "geometry": { "type": "LineString", "coordinates": [ [ 11.057532601424585, 44.204508437768695 ], [ 11.057434947922344, 44.204422823909198 ], [ 11.057289946611279, 44.204342885920887 ], [ 11.05708098085643, 44.204240337484336 ], [ 11.056872232966111, 44.204164772182637 ], [ 11.056142920946566, 44.203940065838211 ] ] } },
{ "type": "Feature", "properties": { "CITY_NAME": "GRIZZANA_MORANDI", "strokeColor": "#70ACCC", "RGB": "112, 172, 204" }, "geometry": { "type": "LineString", "coordinates": [ [ 11.161613141609646, 44.30885718085927 ], [ 11.161780364334328, 44.308998201895911 ], [ 11.161875401850612, 44.309068202029017 ], [ 11.162052976338524, 44.309202441964217 ], [ 11.162365168911796, 44.309443479082695 ], [ 11.162453894612625, 44.309481726353617 ], [ 11.162674483462933, 44.309579895440599 ], [ 11.162839400207059, 44.309651132431291 ], [ 11.163189945912121, 44.309875751463125 ] ] } },
{ "type": "Feature", "properties": { "CITY_NAME": "GRIZZANA_MORANDI", "strokeColor": "#70ACCC", "RGB": "112, 172, 204" }, "geometry": { "type": "LineString", "coordinates": [ [ 11.156006956052929, 44.25821169264016 ], [ 11.156177178190585, 44.258232882547873 ], [ 11.156384196445272, 44.25826329401125 ], [ 11.156599984921625, 44.258282669316607 ], [ 11.157095535156387, 44.258236675583944 ], [ 11.157219403418786, 44.258238402928839 ], [ 11.157458469019437, 44.258279464226234 ] ] } },
{ "type": "Feature", "properties": { "CITY_NAME": "GRIZZANA_MORANDI", "strokeColor": "#70ACCC", "RGB": "112, 172, 204" }, "geometry": { "type": "LineString", "coordinates": [ [ 11.163550535694995, 44.309163368879865 ], [ 11.163483473890675, 44.309235107691087 ], [ 11.163448159521556, 44.3093283469181 ], [ 11.163438073981746, 44.309459626814451 ], [ 11.163383336834597, 44.309646723304581 ], [ 11.163332591557456, 44.309869952714237 ] ] } },
{ "type": "Feature", "properties": { "CITY_NAME": "GRIZZANA_MORANDI", "strokeColor": "#70ACCC", "RGB": "112, 172, 204" }, "geometry": { "type": "LineString", "coordinates": [ [ 11.05877454224095, 44.227186943156383 ], [ 11.058885026826772, 44.227065621941954 ], [ 11.058969645592024, 44.226946329034519 ], [ 11.059027160695194, 44.226848566571967 ], [ 11.059078504089545, 44.226723621017591 ], [ 11.05910094514647, 44.226618417996832 ], [ 11.059105769993179, 44.226507219742025 ], [ 11.059103726268134, 44.226348814843952 ], [ 11.059058215427061, 44.226078491667138 ] ] } },
{ "type": "Feature", "properties": { "CITY_NAME": "GRIZZANA_MORANDI", "strokeColor": "#70ACCC", "RGB": "112, 172, 204" }, "geometry": { "type": "LineString", "coordinates": [ [ 11.188725322485515, 44.249056943501429 ], [ 11.188698157657033, 44.248975371866322 ], [ 11.188590403892848, 44.248789779261671 ], [ 11.188474533994862, 44.248651674140383 ] ] } },
{ "type": "Feature", "properties": { "CITY_NAME": "GRIZZANA_MORANDI", "strokeColor": "#70ACCC", "RGB": "112, 172, 204" }, "geometry": { "type": "LineString", "coordinates": [ [ 11.059238637577266, 44.225298488320497 ], [ 11.059475550264365, 44.225133511442387 ], [ 11.059718833897362, 44.224975771891778 ], [ 11.059954995602803, 44.224809332869285 ], [ 11.060128111162848, 44.224683713287533 ], [ 11.060289705622129, 44.224527393155761 ], [ 11.060426774663355, 44.224385335820827 ], [ 11.060624592382869, 44.224151735349729 ], [ 11.060835813326738, 44.223922684924432 ], [ 11.060883108416041, 44.223839543127582 ] ] } },
{ "type": "Feature", "properties": { "CITY_NAME": "GRIZZANA_MORANDI", "strokeColor": "#70ACCC", "RGB": "112, 172, 204" }, "geometry": { "type": "LineString", "coordinates": [ [ 11.05381343163152, 44.228469454999527 ], [ 11.054279602532377, 44.22857841252037 ], [ 11.05424023146319, 44.228677349664025 ] ] } },
{ "type": "Feature", "properties": { "CITY_NAME": "GRIZZANA_MORANDI", "strokeColor": "#70ACCC", "RGB": "112, 172, 204" }, "geometry": { "type": "LineString", "coordinates": [ [ 11.055791604537998, 44.22917348202882 ], [ 11.056466869114349, 44.229239367962393 ], [ 11.056566456422571, 44.229247549714223 ] ] } },
{ "type": "Feature", "properties": { "CITY_NAME": "GRIZZANA_MORANDI", "strokeColor": "#70ACCC", "RGB": "112, 172, 204" }, "geometry": { "type": "LineString", "coordinates": [ [ 11.186293840128045, 44.24683830168722 ], [ 11.185922929488621, 44.246541012946409 ], [ 11.185793584911737, 44.246434607571018 ], [ 11.185622994356059, 44.24629809529354 ], [ 11.1853572289219, 44.24608967753035 ], [ 11.185171555544956, 44.2459562315521 ], [ 11.185034146171077, 44.245884780507573 ] ] } },
{ "type": "Feature", "properties": { "CITY_NAME": "GRIZZANA_MORANDI", "strokeColor": "#70ACCC", "RGB": "112, 172, 204" }, "geometry": { "type": "LineString", "coordinates": [ [ 11.16215569673501, 44.307166201027165 ], [ 11.162200768958233, 44.307110726235919 ], [ 11.16225199261622, 44.307055132230978 ], [ 11.162297046332045, 44.306986903399803 ], [ 11.162324910665749, 44.306942215767094 ], [ 11.162351124010014, 44.306851349514886 ], [ 11.162381087899897, 44.306693256288376 ], [ 11.162411308866623, 44.306554727699378 ], [ 11.162495169858888, 44.306416518296878 ] ] } },
{ "type": "Feature", "properties": { "CITY_NAME": "GRIZZANA_MORANDI", "strokeColor": "#70ACCC", "RGB": "112, 172, 204" }, "geometry": { "type": "LineString", "coordinates": [ [ 11.055697696282337, 44.229441440380761 ], [ 11.055556336806427, 44.22944237180797 ], [ 11.055551965663962, 44.229510227647474 ], [ 11.055361148098919, 44.229508821568054 ], [ 11.055340092811704, 44.229458795557647 ], [ 11.055335565939034, 44.229225262243212 ], [ 11.055653948063508, 44.229216303510121 ], [ 11.055635961775099, 44.229279916471256 ], [ 11.055716696534452, 44.229278110127701 ] ] } },
{ "type": "Feature", "properties": { "CITY_NAME": "GRIZZANA_MORANDI", "strokeColor": "#70ACCC", "RGB": "112, 172, 204" }, "geometry": { "type": "LineString", "coordinates": [ [ 11.055171311493506, 44.228893214021575 ], [ 11.05510694723371, 44.228843519083547 ], [ 11.05505450126026, 44.228785431305397 ], [ 11.055014269849149, 44.228675341220843 ], [ 11.055008172165357, 44.228596420066992 ] ] } },
{ "type": "Feature", "properties": { "CITY_NAME": "GRIZZANA_MORANDI", "strokeColor": "#70ACCC", "RGB": "112, 172, 204" }, "geometry": { "type": "LineString", "coordinates": [ [ 11.051672543327278, 44.226982104471887 ], [ 11.051797544052858, 44.227020120725854 ], [ 11.051922374494543, 44.2271036328926 ], [ 11.052011189466043, 44.227153156748841 ], [ 11.052120364981361, 44.22718688981584 ], [ 11.052231797915574, 44.227185102339199 ], [ 11.0525759258379, 44.227111328943565 ], [ 11.052716924993593, 44.227108151543653 ], [ 11.052843103713784, 44.227129787048327 ], [ 11.052980894151426, 44.227184912725811 ], [ 11.053120259316934, 44.227285530819678 ], [ 11.053277827900102, 44.227466593505277 ], [ 11.05338599798861, 44.227577508025547 ], [ 11.053477243631917, 44.227650530732461 ], [ 11.053576301516232, 44.227696171637206 ], [ 11.053691965675554, 44.22771701306776 ], [ 11.053839639026267, 44.227704638333734 ], [ 11.054028234378286, 44.227663824224472 ], [ 11.054241138172959, 44.227619590711278 ], [ 11.054492786617084, 44.227599500746962 ], [ 11.054747021540058, 44.227599302597042 ], [ 11.054919401743351, 44.227598813268763 ], [ 11.05500915039821, 44.227627117752348 ], [ 11.05509110097643, 44.227682821748004 ], [ 11.055146022186904, 44.22776355969561 ] ] } },
{ "type": "Feature", "properties": { "CITY_NAME": "GRIZZANA_MORANDI", "strokeColor": "#70ACCC", "RGB": "112, 172, 204" }, "geometry": { "type": "LineString", "coordinates": [ [ 11.055791604537998, 44.22917348202882 ], [ 11.056038771140551, 44.229117391688476 ], [ 11.056180856865311, 44.229072876651159 ], [ 11.056267204288428, 44.229027604183592 ], [ 11.056307519764124, 44.228972157158033 ], [ 11.056383853688693, 44.228711915232736 ], [ 11.056484300045327, 44.22854183962064 ], [ 11.056630257747168, 44.228380504496421 ], [ 11.05696868122681, 44.22809523967706 ], [ 11.057188377831061, 44.227906404713693 ], [ 11.057370548570061, 44.227799268704338 ], [ 11.057497853900758, 44.227737022258459 ], [ 11.057669729978667, 44.227670182260333 ], [ 11.058432601668919, 44.227370934660541 ], [ 11.058639481822176, 44.227279247761011 ], [ 11.058725248128459, 44.227222249411192 ], [ 11.05877454224095, 44.227186943156383 ] ] } },
{ "type": "Feature", "properties": { "CITY_NAME": "GRIZZANA_MORANDI", "strokeColor": "#70ACCC", "RGB": "112, 172, 204" }, "geometry": { "type": "LineString", "coordinates": [ [ 11.162331628891527, 44.310500844298808 ], [ 11.161972531807065, 44.310273533370726 ], [ 11.161830393955341, 44.310167105611718 ], [ 11.161724602418809, 44.310082231080592 ], [ 11.161493475695421, 44.309913192914912 ], [ 11.161311715641915, 44.309793652894022 ], [ 11.161067171352123, 44.309611828106192 ] ] } },
{ "type": "Feature", "properties": { "CITY_NAME": "GRIZZANA_MORANDI", "strokeColor": "#70ACCC", "RGB": "112, 172, 204" }, "geometry": { "type": "LineString", "coordinates": [ [ 11.05580363683716, 44.229984968883848 ], [ 11.055697696282337, 44.229441440380761 ] ] } },
{ "type": "Feature", "properties": { "CITY_NAME": "GRIZZANA_MORANDI", "strokeColor": "#70ACCC", "RGB": "112, 172, 204" }, "geometry": { "type": "LineString", "coordinates": [ [ 11.055697696282337, 44.229441440380761 ], [ 11.055693376122083, 44.229381809474816 ], [ 11.05570234411212, 44.229317098442337 ], [ 11.055716696534452, 44.229278110127701 ] ] } },
{ "type": "Feature", "properties": { "CITY_NAME": "GRIZZANA_MORANDI", "strokeColor": "#70ACCC", "RGB": "112, 172, 204" }, "geometry": { "type": "LineString", "coordinates": [ [ 11.059058215427061, 44.226078491667138 ], [ 11.059044454661464, 44.225996750502603 ], [ 11.059029208357638, 44.225884221599316 ] ] } },
{ "type": "Feature", "properties": { "CITY_NAME": "GRIZZANA_MORANDI", "strokeColor": "#70ACCC", "RGB": "112, 172, 204" }, "geometry": { "type": "LineString", "coordinates": [ [ 11.055008172165357, 44.228596420066992 ], [ 11.055256046523894, 44.228664542751339 ], [ 11.055304640922417, 44.228659108089104 ], [ 11.05532032969943, 44.228607036038795 ], [ 11.055320351173222, 44.228555251390269 ], [ 11.055211055496564, 44.228253832434703 ], [ 11.055177372492626, 44.228183594186781 ], [ 11.055129587229326, 44.228108168333129 ], [ 11.055112054646699, 44.228052168409349 ], [ 11.055114175067713, 44.227958559527721 ], [ 11.055128871001063, 44.227876526328195 ], [ 11.055146022186904, 44.22776355969561 ] ] } },
{ "type": "Feature", "properties": { "CITY_NAME": "GRIZZANA_MORANDI", "strokeColor": "#70ACCC", "RGB": "112, 172, 204" }, "geometry": { "type": "LineString", "coordinates": [ [ 11.05377629203417, 44.228570291992888 ], [ 11.053844151002371, 44.228584688949468 ], [ 11.05424023146319, 44.228677349664025 ] ] } },
{ "type": "Feature", "properties": { "CITY_NAME": "GRIZZANA_MORANDI", "strokeColor": "#70ACCC", "RGB": "112, 172, 204" }, "geometry": { "type": "LineString", "coordinates": [ [ 11.161832180046959, 44.307365616595021 ], [ 11.161591023048183, 44.30714652800301 ], [ 11.161522738381358, 44.307055782713462 ], [ 11.161497062918981, 44.307001760067998 ], [ 11.161509013378202, 44.306919455655809 ], [ 11.161527930874705, 44.306798939947249 ], [ 11.161560439643276, 44.306628897873303 ], [ 11.161606192118763, 44.306423702764114 ], [ 11.161711661418131, 44.305996444108168 ], [ 11.161777289546364, 44.305755126740678 ], [ 11.16179491752551, 44.305674598186037 ] ] } },
{ "type": "Feature", "properties": { "CITY_NAME": "GRIZZANA_MORANDI", "strokeColor": "#70ACCC", "RGB": "112, 172, 204" }, "geometry": { "type": "LineString", "coordinates": [ [ 11.162322245814554, 44.308022272636059 ], [ 11.162301274008911, 44.307987146328649 ], [ 11.162260573905099, 44.307850763961426 ], [ 11.162193855791894, 44.307724242666275 ], [ 11.162097172249117, 44.307620023475565 ], [ 11.161832180046959, 44.307365616595021 ] ] } },
{ "type": "Feature", "properties": { "CITY_NAME": "GRIZZANA_MORANDI", "strokeColor": "#70ACCC", "RGB": "112, 172, 204" }, "geometry": { "type": "LineString", "coordinates": [ [ 11.162331628891527, 44.310500844298808 ], [ 11.162440715676224, 44.310477277679631 ], [ 11.162583003968725, 44.310485259203084 ], [ 11.162720236809241, 44.310515318580578 ], [ 11.162860820395965, 44.310556342816199 ], [ 11.162970809086373, 44.310573158016709 ], [ 11.163041737777593, 44.310559509206584 ], [ 11.163111155170206, 44.310517767666738 ], [ 11.163167344124744, 44.310451376613436 ], [ 11.163232069950894, 44.310342500466163 ], [ 11.163271652121642, 44.310221698341969 ], [ 11.163332591557456, 44.309869952714237 ] ] } },
{ "type": "Feature", "properties": { "CITY_NAME": "GRIZZANA_MORANDI", "strokeColor": "#70ACCC", "RGB": "112, 172, 204" }, "geometry": { "type": "LineString", "coordinates": [ [ 11.161067171352123, 44.309611828106192 ], [ 11.160946339233861, 44.309515179997426 ], [ 11.160824576183243, 44.309419528887929 ], [ 11.160587119349861, 44.30922637387205 ], [ 11.160486378807276, 44.30913643481901 ] ] } },
{ "type": "Feature", "properties": { "CITY_NAME": "GRIZZANA_MORANDI", "strokeColor": "#70ACCC", "RGB": "112, 172, 204" }, "geometry": { "type": "LineString", "coordinates": [ [ 11.181742777308047, 44.25046746579013 ], [ 11.181542295873134, 44.250595738536511 ], [ 11.181404390876555, 44.250686313935923 ] ] } },
{ "type": "Feature", "properties": { "CITY_NAME": "GRIZZANA_MORANDI", "strokeColor": "#70ACCC", "RGB": "112, 172, 204" }, "geometry": { "type": "LineString", "coordinates": [ [ 11.152538561360387, 44.257613958688331 ], [ 11.152353346806461, 44.257401697712233 ], [ 11.152027970425891, 44.257117886872614 ], [ 11.151793870734545, 44.256926836222412 ], [ 11.151579088492669, 44.256750918720471 ], [ 11.151317721300583, 44.256597374832673 ], [ 11.150910645263554, 44.256347595233279 ], [ 11.150834283277966, 44.256284546599225 ], [ 11.150755312430039, 44.256177055471319 ], [ 11.150707404323247, 44.256108971115665 ], [ 11.150646233412205, 44.256002143955151 ], [ 11.150506231572299, 44.255683341997468 ], [ 11.15043820470105, 44.255442668515855 ], [ 11.150398757407711, 44.255227451809873 ], [ 11.150361743916736, 44.254997690925187 ] ] } },
{ "type": "Feature", "properties": { "CITY_NAME": "GRIZZANA_MORANDI", "strokeColor": "#70ACCC", "RGB": "112, 172, 204" }, "geometry": { "type": "LineString", "coordinates": [ [ 11.152542897780567, 44.259591956880946 ], [ 11.152636324175695, 44.259538826670521 ], [ 11.152728502335794, 44.259451506997848 ], [ 11.152766923646881, 44.259365199893779 ], [ 11.152778705476218, 44.259304731077201 ], [ 11.152761898237955, 44.259243801954561 ], [ 11.152644862000022, 44.25907134901724 ], [ 11.152422797462568, 44.258774660255931 ], [ 11.152354094206608, 44.258682799371648 ], [ 11.15230192343102, 44.258570074027332 ], [ 11.152254462348541, 44.258456265058335 ] ] } },
{ "type": "Feature", "properties": { "CITY_NAME": "GRIZZANA_MORANDI", "strokeColor": "#70ACCC", "RGB": "112, 172, 204" }, "geometry": { "type": "LineString", "coordinates": [ [ 11.163189945912121, 44.309875751463125 ], [ 11.163332591557456, 44.309869952714237 ] ] } },
{ "type": "Feature", "properties": { "CITY_NAME": "GRIZZANA_MORANDI", "strokeColor": "#70ACCC", "RGB": "112, 172, 204" }, "geometry": { "type": "LineString", "coordinates": [ [ 11.162668481980441, 44.308246149390946 ], [ 11.162322245814554, 44.308022272636059 ] ] } },
{ "type": "Feature", "properties": { "CITY_NAME": "GRIZZANA_MORANDI", "strokeColor": "#70ACCC", "RGB": "112, 172, 204" }, "geometry": { "type": "LineString", "coordinates": [ [ 11.051672543327278, 44.226982104471887 ], [ 11.051725217771603, 44.227094973793172 ], [ 11.051820983513139, 44.227194419607386 ], [ 11.051980543972958, 44.227325597866788 ], [ 11.052080349745518, 44.227393994285841 ], [ 11.052156743811873, 44.22743912811076 ], [ 11.052248361295675, 44.227470381170889 ], [ 11.052363877528771, 44.227486705308785 ], [ 11.052488069164506, 44.227501980297561 ], [ 11.052579149554974, 44.227516876217948 ], [ 11.05271813576435, 44.227558263765658 ], [ 11.052778827525733, 44.227602722426781 ], [ 11.052820755273396, 44.227659295190811 ], [ 11.052854511918881, 44.227732353454734 ], [ 11.052865177344204, 44.227844855680985 ], [ 11.05288474164062, 44.228175291626599 ], [ 11.052892352121317, 44.228247859307643 ], [ 11.052918638220918, 44.228305582023111 ], [ 11.052966174696746, 44.228373857704206 ], [ 11.053030825620993, 44.228432763256365 ], [ 11.053140179566013, 44.228473665707554 ], [ 11.053283968445601, 44.228502187368157 ], [ 11.053474530771478, 44.228522664434017 ], [ 11.053633632726926, 44.228540023866287 ], [ 11.05377629203417, 44.228570291992888 ] ] } },
{ "type": "Feature", "properties": { "CITY_NAME": "GRIZZANA_MORANDI", "strokeColor": "#70ACCC", "RGB": "112, 172, 204" }, "geometry": { "type": "LineString", "coordinates": [ [ 11.055146022186904, 44.22776355969561 ], [ 11.055228513389361, 44.227782919614896 ], [ 11.055317727536773, 44.227794886755355 ], [ 11.055410030644532, 44.227794988108897 ], [ 11.055517512378833, 44.227780269134364 ], [ 11.055621058861053, 44.227751993983198 ], [ 11.055713888916992, 44.227715737854233 ], [ 11.055795881153431, 44.227667871154878 ], [ 11.055842489038731, 44.227603398942129 ], [ 11.055938559721058, 44.227508015700934 ], [ 11.055967536680701, 44.227489300741688 ], [ 11.056058007866104, 44.227434906175141 ], [ 11.056181537766294, 44.22737989014805 ], [ 11.05630768750644, 44.227351174945696 ] ] } },
{ "type": "Feature", "properties": { "CITY_NAME": "GRIZZANA_MORANDI", "strokeColor": "#70ACCC", "RGB": "112, 172, 204" }, "geometry": { "type": "LineString", "coordinates": [ [ 11.060883108416041, 44.223839543127582 ], [ 11.060915493042227, 44.223758896859437 ], [ 11.060925080782184, 44.223684970425865 ], [ 11.060922433379265, 44.223609477722441 ], [ 11.060902590273265, 44.223539799799035 ], [ 11.060824856411299, 44.223456751083766 ], [ 11.060697441367152, 44.223392909173256 ] ] } },
{ "type": "Feature", "properties": { "CITY_NAME": "GRIZZANA_MORANDI", "strokeColor": "#70ACCC", "RGB": "112, 172, 204" }, "geometry": { "type": "LineString", "coordinates": [ [ 11.060697441367152, 44.223392909173256 ], [ 11.060546020227713, 44.22334507188576 ], [ 11.060277390652283, 44.223275935140201 ], [ 11.060166271812591, 44.223232680140292 ], [ 11.060079525582658, 44.223189832509668 ], [ 11.059932019178961, 44.223100869241833 ], [ 11.05984666418145, 44.223047970605116 ], [ 11.059765859281512, 44.22302594751207 ], [ 11.059659193257511, 44.223010832469434 ], [ 11.059527266759332, 44.223019919219844 ], [ 11.059330404379221, 44.223063135966129 ], [ 11.059134552556444, 44.22313548403276 ], [ 11.05899750469011, 44.223197516379635 ], [ 11.058847588415027, 44.223289878479747 ], [ 11.058788114869687, 44.223314796104418 ] ] } },
{ "type": "Feature", "properties": { "CITY_NAME": "GRIZZANA_MORANDI", "strokeColor": "#70ACCC", "RGB": "112, 172, 204" }, "geometry": { "type": "LineString", "coordinates": [ [ 11.156006956052929, 44.25821169264016 ], [ 11.156187143321256, 44.258326827171516 ], [ 11.156513859775668, 44.258457960638353 ], [ 11.156736019267967, 44.258540232241749 ], [ 11.156860421152642, 44.258554272201813 ], [ 11.157007003898299, 44.258558865771775 ], [ 11.157097685703819, 44.258569971018325 ], [ 11.157368816654651, 44.258571742944447 ], [ 11.157640243694438, 44.258589653578895 ], [ 11.158069110269606, 44.258716475461625 ], [ 11.158300331169874, 44.258802610558924 ] ] } },
{ "type": "Feature", "properties": { "CITY_NAME": "GRIZZANA_MORANDI", "strokeColor": "#70ACCC", "RGB": "112, 172, 204" }, "geometry": { "type": "LineString", "coordinates": [ [ 11.152538561360387, 44.257613958688331 ], [ 11.152685617929562, 44.257573366785344 ], [ 11.152866429930256, 44.257551664696138 ], [ 11.152981327629348, 44.257562561509403 ], [ 11.153338122524987, 44.25769527603638 ], [ 11.153499800027028, 44.257753515182976 ], [ 11.15364411014051, 44.257785949779731 ], [ 11.153850239100215, 44.257814556826737 ], [ 11.154070549834888, 44.257833965952663 ], [ 11.154458799965481, 44.257876997773401 ], [ 11.154701547175964, 44.257919212582735 ], [ 11.154941166279162, 44.257978590574012 ], [ 11.155496394449045, 44.258118204486266 ], [ 11.155800871133087, 44.258171163385846 ], [ 11.156006956052929, 44.25821169264016 ] ] } },
{ "type": "Feature", "properties": { "CITY_NAME": "GRIZZANA_MORANDI", "strokeColor": "#70ACCC", "RGB": "112, 172, 204" }, "geometry": { "type": "LineString", "coordinates": [ [ 11.163550535694995, 44.309163368879865 ], [ 11.163360626991871, 44.309038889105061 ], [ 11.163198646742709, 44.30890436565808 ], [ 11.163091140333472, 44.308788096793535 ], [ 11.163018991071569, 44.308697764149258 ], [ 11.162968908562069, 44.308607943419638 ], [ 11.162940142716133, 44.308522313906835 ] ] } },
{ "type": "Feature", "properties": { "CITY_NAME": "GRIZZANA_MORANDI", "strokeColor": "#70ACCC", "RGB": "112, 172, 204" }, "geometry": { "type": "LineString", "coordinates": [ [ 11.162940142716133, 44.308522313906835 ], [ 11.162904049510312, 44.30846557832006 ], [ 11.162784099284615, 44.308339097970247 ], [ 11.162668481980441, 44.308246149390946 ] ] } },
{ "type": "Feature", "properties": { "CITY_NAME": "GRIZZANA_MORANDI", "strokeColor": "#70ACCC", "RGB": "112, 172, 204" }, "geometry": { "type": "LineString", "coordinates": [ [ 11.058788114869687, 44.223314796104418 ], [ 11.058696666960962, 44.22335309961904 ], [ 11.058450333946416, 44.223424656853034 ] ] } },
{ "type": "Feature", "properties": { "CITY_NAME": "GRIZZANA_MORANDI", "strokeColor": "#70ACCC", "RGB": "112, 172, 204" }, "geometry": { "type": "LineString", "coordinates": [ [ 11.05424023146319, 44.228677349664025 ], [ 11.054463653196178, 44.22872359196959 ], [ 11.054835707327902, 44.228806698579838 ], [ 11.055046703803244, 44.228865515428112 ], [ 11.055171311493506, 44.228893214021575 ] ] } },
{ "type": "Feature", "properties": { "CITY_NAME": "GRIZZANA_MORANDI", "strokeColor": "#70ACCC", "RGB": "112, 172, 204" }, "geometry": { "type": "LineString", "coordinates": [ [ 11.163189945912121, 44.309875751463125 ], [ 11.162806735090758, 44.310146683204238 ] ] } },
{ "type": "Feature", "properties": { "CITY_NAME": "GRIZZANA_MORANDI", "strokeColor": "#70ACCC", "RGB": "112, 172, 204" }, "geometry": { "type": "LineString", "coordinates": [ [ 11.163243979702008, 44.311681680768373 ], [ 11.163012918042183, 44.311560601800906 ], [ 11.16273148522952, 44.31136289981719 ] ] } },
{ "type": "Feature", "properties": { "CITY_NAME": "GRIZZANA_MORANDI", "strokeColor": "#70ACCC", "RGB": "112, 172, 204" }, "geometry": { "type": "LineString", "coordinates": [ [ 11.16273148522952, 44.31136289981719 ], [ 11.162496537215022, 44.311179313671829 ], [ 11.162238921656089, 44.310976652527017 ], [ 11.162080054673073, 44.310824185304575 ], [ 11.162088050605554, 44.310749159847994 ], [ 11.162154411063112, 44.31065181752794 ], [ 11.1622471688455, 44.310542687483228 ], [ 11.162331628891527, 44.310500844298808 ] ] } },
{ "type": "Feature", "properties": { "CITY_NAME": "GRIZZANA_MORANDI", "strokeColor": "#70ACCC", "RGB": "112, 172, 204" }, "geometry": { "type": "LineString", "coordinates": [ [ 11.055716696534452, 44.229278110127701 ], [ 11.055746301123676, 44.229225937848767 ], [ 11.055791604537998, 44.22917348202882 ] ] } },
{ "type": "Feature", "properties": { "CITY_NAME": "GRIZZANA_MORANDI", "strokeColor": "#70ACCC", "RGB": "112, 172, 204" }, "geometry": { "type": "LineString", "coordinates": [ [ 11.152538561360387, 44.257613958688331 ], [ 11.152633850364573, 44.25785729489597 ], [ 11.152679313384372, 44.257968524235913 ], [ 11.152874476874983, 44.258207604057866 ], [ 11.153033605415152, 44.258428331739928 ], [ 11.153163480593763, 44.258632798773462 ], [ 11.153287357776593, 44.258797648849786 ], [ 11.153634141661191, 44.259197686941704 ] ] } },
{ "type": "Feature", "properties": { "CITY_NAME": "GRIZZANA_MORANDI", "strokeColor": "#70ACCC", "RGB": "112, 172, 204" }, "geometry": { "type": "LineString", "coordinates": [ [ 11.161832180046959, 44.307365616595021 ], [ 11.161993800758145, 44.307270825293173 ], [ 11.162054614467424, 44.307239908480362 ], [ 11.16215569673501, 44.307166201027165 ] ] } },
{ "type": "Feature", "properties": { "CITY_NAME": "GRIZZANA_MORANDI", "strokeColor": "#70ACCC", "RGB": "112, 172, 204" }, "geometry": { "type": "LineString", "coordinates": [ [ 11.163020391512749, 44.305012575336818 ], [ 11.162813354680232, 44.305034170885627 ], [ 11.16271289362588, 44.305053747366806 ], [ 11.162612791640859, 44.305083135480146 ], [ 11.162394402354481, 44.30524240639874 ], [ 11.162114967477047, 44.305443465526537 ], [ 11.161984852432457, 44.305532684569108 ], [ 11.161859836011113, 44.305616376397047 ], [ 11.16179491752551, 44.305674598186037 ] ] } },
{ "type": "Feature", "properties": { "CITY_NAME": "GRIZZANA_MORANDI", "strokeColor": "#70ACCC", "RGB": "112, 172, 204" }, "geometry": { "type": "LineString", "coordinates": [ [ 11.05377629203417, 44.228570291992888 ], [ 11.05381343163152, 44.228469454999527 ] ] } },
{ "type": "Feature", "properties": { "CITY_NAME": "GRIZZANA_MORANDI", "strokeColor": "#70ACCC", "RGB": "112, 172, 204" }, "geometry": { "type": "LineString", "coordinates": [ [ 11.152254462348541, 44.258456265058335 ], [ 11.152262416807996, 44.258367664059008 ], [ 11.152282797180227, 44.258223567963036 ], [ 11.152311659572101, 44.258097150376067 ], [ 11.152395186177179, 44.257848477005304 ], [ 11.152474331475739, 44.257698550152099 ], [ 11.152538561360387, 44.257613958688331 ] ] } },
{ "type": "Feature", "properties": { "CITY_NAME": "GRIZZANA_MORANDI", "strokeColor": "#70ACCC", "RGB": "112, 172, 204" }, "geometry": { "type": "LineString", "coordinates": [ [ 11.059029208357638, 44.225884221599316 ], [ 11.058997581322025, 44.225650789850881 ], [ 11.059024920812316, 44.225536381176369 ], [ 11.059075693832778, 44.225445156670453 ], [ 11.059147684064024, 44.22536350413926 ], [ 11.059238637577266, 44.225298488320497 ] ] } },
{ "type": "Feature", "properties": { "CITY_NAME": "GRIZZANA_MORANDI", "strokeColor": "#70ACCC", "RGB": "112, 172, 204" }, "geometry": { "type": "LineString", "coordinates": [ [ 11.151855466976707, 44.259699399987895 ], [ 11.152019030419366, 44.25970560296949 ], [ 11.152321655036861, 44.259657769675663 ], [ 11.152542897780567, 44.259591956880946 ] ] } },
{ "type": "Feature", "properties": { "CITY_NAME": "GRIZZANA_MORANDI", "strokeColor": "#70ACCC", "RGB": "112, 172, 204" }, "geometry": { "type": "LineString", "coordinates": [ [ 11.055791604537998, 44.22917348202882 ], [ 11.05575857564296, 44.229127278254474 ], [ 11.055695883468406, 44.229067084879745 ], [ 11.055617658505739, 44.229012011995756 ], [ 11.055490484088297, 44.22896911624305 ], [ 11.055387330560761, 44.228945588236783 ], [ 11.055285625343824, 44.228925644265132 ], [ 11.055171311493506, 44.228893214021575 ] ] } },
{ "type": "Feature", "properties": { "CITY_NAME": "GRIZZANA_MORANDI", "strokeColor": "#70ACCC", "RGB": "112, 172, 204" }, "geometry": { "type": "LineString", "coordinates": [ [ 11.160589886296519, 44.309029358801901 ], [ 11.160492473243719, 44.309090444537986 ], [ 11.160486378807276, 44.30913643481901 ] ] } }
]
}
