{
"type": "FeatureCollection",
"name": "LIZZANO_IN_BELVEDERE",
"crs": { "type": "name", "properties": { "name": "urn:ogc:def:crs:OGC:1.3:CRS84" } },
"features": [
{ "type": "Feature", "properties": { "CITY_NAME": "LIZZANO_IN_BELVEDERE", "strokeColor": "#70ACCC", "RGB": "112, 172, 204" }, "geometry": { "type": "LineString", "coordinates": [ [ 10.8720712351162, 44.170509087446185 ], [ 10.872203318836412, 44.170513867168182 ] ] } },
{ "type": "Feature", "properties": { "CITY_NAME": "LIZZANO_IN_BELVEDERE", "strokeColor": "#70ACCC", "RGB": "112, 172, 204" }, "geometry": { "type": "LineString", "coordinates": [ [ 10.873861712776341, 44.170531574435728 ], [ 10.87367869125803, 44.170446130959299 ] ] } },
{ "type": "Feature", "properties": { "CITY_NAME": "LIZZANO_IN_BELVEDERE", "strokeColor": "#70ACCC", "RGB": "112, 172, 204" }, "geometry": { "type": "LineString", "coordinates": [ [ 10.87367869125803, 44.170446130959299 ], [ 10.873544084053433, 44.170584637160211 ], [ 10.873487624603767, 44.170649429531522 ] ] } },
{ "type": "Feature", "properties": { "CITY_NAME": "LIZZANO_IN_BELVEDERE", "strokeColor": "#70ACCC", "RGB": "112, 172, 204" }, "geometry": { "type": "LineString", "coordinates": [ [ 10.893313809042398, 44.162464724895948 ], [ 10.893456384551353, 44.16240488620894 ], [ 10.893910406658476, 44.162043704158449 ] ] } },
{ "type": "Feature", "properties": { "CITY_NAME": "LIZZANO_IN_BELVEDERE", "strokeColor": "#70ACCC", "RGB": "112, 172, 204" }, "geometry": { "type": "LineString", "coordinates": [ [ 10.874741566513341, 44.170102362585084 ], [ 10.874867113305013, 44.170035601714908 ], [ 10.875168425134591, 44.169870203331726 ], [ 10.875450909394591, 44.169715117579301 ], [ 10.875696255355114, 44.169580402893779 ], [ 10.876018961479161, 44.169352036147608 ], [ 10.876360689714806, 44.169110166415464 ], [ 10.876531467499857, 44.16899253671771 ] ] } },
{ "type": "Feature", "properties": { "CITY_NAME": "LIZZANO_IN_BELVEDERE", "strokeColor": "#70ACCC", "RGB": "112, 172, 204" }, "geometry": { "type": "LineString", "coordinates": [ [ 10.875070639404878, 44.168701040143574 ], [ 10.875049014480886, 44.168390827101724 ], [ 10.875066091214819, 44.168291032801271 ], [ 10.875112546597304, 44.168199876264502 ] ] } },
{ "type": "Feature", "properties": { "CITY_NAME": "LIZZANO_IN_BELVEDERE", "strokeColor": "#70ACCC", "RGB": "112, 172, 204" }, "geometry": { "type": "LineString", "coordinates": [ [ 10.893279076479795, 44.160818305495148 ], [ 10.893520732649675, 44.160696341237973 ], [ 10.893731335881801, 44.160543390436466 ], [ 10.893867426385526, 44.160406311288277 ] ] } },
{ "type": "Feature", "properties": { "CITY_NAME": "LIZZANO_IN_BELVEDERE", "strokeColor": "#70ACCC", "RGB": "112, 172, 204" }, "geometry": { "type": "LineString", "coordinates": [ [ 10.886686757531923, 44.193326974349638 ], [ 10.886739579754421, 44.193267524160419 ], [ 10.886721466411922, 44.193227563536716 ] ] } },
{ "type": "Feature", "properties": { "CITY_NAME": "LIZZANO_IN_BELVEDERE", "strokeColor": "#70ACCC", "RGB": "112, 172, 204" }, "geometry": { "type": "LineString", "coordinates": [ [ 10.877616209702451, 44.167784556773427 ], [ 10.877868365247036, 44.167616952360433 ], [ 10.878236803319169, 44.167413433907171 ], [ 10.878602974273427, 44.167199651110415 ], [ 10.878644816471748, 44.167108445669662 ] ] } },
{ "type": "Feature", "properties": { "CITY_NAME": "LIZZANO_IN_BELVEDERE", "strokeColor": "#70ACCC", "RGB": "112, 172, 204" }, "geometry": { "type": "LineString", "coordinates": [ [ 10.871142332753504, 44.171282160509442 ], [ 10.871254215783789, 44.171140076238046 ], [ 10.871348028309567, 44.171020928040832 ], [ 10.871750763441536, 44.170583950460575 ], [ 10.871875629561616, 44.170536218571762 ], [ 10.8720712351162, 44.170509087446185 ] ] } },
{ "type": "Feature", "properties": { "CITY_NAME": "LIZZANO_IN_BELVEDERE", "strokeColor": "#70ACCC", "RGB": "112, 172, 204" }, "geometry": { "type": "LineString", "coordinates": [ [ 10.89084796066736, 44.164547089144698 ], [ 10.89094136707083, 44.164551892463443 ], [ 10.891101488054019, 44.164551046220076 ], [ 10.891393341354618, 44.164477051179837 ], [ 10.891691554968411, 44.164506222787395 ] ] } },
{ "type": "Feature", "properties": { "CITY_NAME": "LIZZANO_IN_BELVEDERE", "strokeColor": "#70ACCC", "RGB": "112, 172, 204" }, "geometry": { "type": "LineString", "coordinates": [ [ 10.872669905804024, 44.170355559359479 ], [ 10.872550582197896, 44.170273513473816 ], [ 10.872358600004652, 44.170052862282972 ], [ 10.872280633392776, 44.17001119216242 ] ] } },
{ "type": "Feature", "properties": { "CITY_NAME": "LIZZANO_IN_BELVEDERE", "strokeColor": "#70ACCC", "RGB": "112, 172, 204" }, "geometry": { "type": "LineString", "coordinates": [ [ 10.885488480640312, 44.191644526374787 ], [ 10.885705589630074, 44.191744432700389 ], [ 10.886062751700875, 44.19196432143891 ], [ 10.886365218722453, 44.192114041458979 ], [ 10.8866483239803, 44.192234456871027 ], [ 10.886883524097817, 44.192319166500994 ] ] } },
{ "type": "Feature", "properties": { "CITY_NAME": "LIZZANO_IN_BELVEDERE", "strokeColor": "#70ACCC", "RGB": "112, 172, 204" }, "geometry": { "type": "LineString", "coordinates": [ [ 10.876531467499857, 44.16899253671771 ], [ 10.876699439274155, 44.168833942875381 ], [ 10.876788965037395, 44.168737405272815 ], [ 10.877158534587013, 44.16821920452962 ] ] } },
{ "type": "Feature", "properties": { "CITY_NAME": "LIZZANO_IN_BELVEDERE", "strokeColor": "#70ACCC", "RGB": "112, 172, 204" }, "geometry": { "type": "LineString", "coordinates": [ [ 10.873507974295967, 44.171210587078839 ], [ 10.873544326584272, 44.171222739087355 ], [ 10.873724732532601, 44.17099847068463 ], [ 10.873739010538928, 44.170976966617552 ] ] } },
{ "type": "Feature", "properties": { "CITY_NAME": "LIZZANO_IN_BELVEDERE", "strokeColor": "#70ACCC", "RGB": "112, 172, 204" }, "geometry": { "type": "LineString", "coordinates": [ [ 10.876014823173659, 44.167445579719001 ], [ 10.876412656245533, 44.167325124008755 ] ] } },
{ "type": "Feature", "properties": { "CITY_NAME": "LIZZANO_IN_BELVEDERE", "strokeColor": "#70ACCC", "RGB": "112, 172, 204" }, "geometry": { "type": "LineString", "coordinates": [ [ 10.89194843142443, 44.16388266049718 ], [ 10.892059417091907, 44.163806028533429 ], [ 10.892589385352593, 44.163537160048499 ], [ 10.892839012607308, 44.163428623844027 ] ] } },
{ "type": "Feature", "properties": { "CITY_NAME": "LIZZANO_IN_BELVEDERE", "strokeColor": "#70ACCC", "RGB": "112, 172, 204" }, "geometry": { "type": "LineString", "coordinates": [ [ 10.886721466411922, 44.193227563536716 ], [ 10.886659675988392, 44.193164412368901 ], [ 10.886476104792433, 44.192994521382886 ], [ 10.886418225582659, 44.193029844859709 ] ] } },
{ "type": "Feature", "properties": { "CITY_NAME": "LIZZANO_IN_BELVEDERE", "strokeColor": "#70ACCC", "RGB": "112, 172, 204" }, "geometry": { "type": "LineString", "coordinates": [ [ 10.87336921328774, 44.170731349179597 ], [ 10.873367800195355, 44.170824271675301 ], [ 10.873360412472895, 44.170991680230557 ], [ 10.873293071925392, 44.171048397858364 ], [ 10.873258374923857, 44.17110281899528 ] ] } },
{ "type": "Feature", "properties": { "CITY_NAME": "LIZZANO_IN_BELVEDERE", "strokeColor": "#70ACCC", "RGB": "112, 172, 204" }, "geometry": { "type": "LineString", "coordinates": [ [ 10.886883524097817, 44.192319166500994 ], [ 10.887276023090658, 44.192476122257723 ], [ 10.887774386213074, 44.192671488474012 ] ] } },
{ "type": "Feature", "properties": { "CITY_NAME": "LIZZANO_IN_BELVEDERE", "strokeColor": "#70ACCC", "RGB": "112, 172, 204" }, "geometry": { "type": "LineString", "coordinates": [ [ 10.873861712776341, 44.170531574435728 ], [ 10.874012577534664, 44.170480927861462 ], [ 10.87421508641485, 44.170382282549994 ], [ 10.874741566513341, 44.170102362585084 ] ] } },
{ "type": "Feature", "properties": { "CITY_NAME": "LIZZANO_IN_BELVEDERE", "strokeColor": "#70ACCC", "RGB": "112, 172, 204" }, "geometry": { "type": "LineString", "coordinates": [ [ 10.89424790258902, 44.162542446952088 ], [ 10.894382964340771, 44.162214035070271 ] ] } },
{ "type": "Feature", "properties": { "CITY_NAME": "LIZZANO_IN_BELVEDERE", "strokeColor": "#70ACCC", "RGB": "112, 172, 204" }, "geometry": { "type": "LineString", "coordinates": [ [ 10.894269907821926, 44.161071020939652 ], [ 10.894050822406882, 44.160729992464439 ] ] } },
{ "type": "Feature", "properties": { "CITY_NAME": "LIZZANO_IN_BELVEDERE", "strokeColor": "#70ACCC", "RGB": "112, 172, 204" }, "geometry": { "type": "LineString", "coordinates": [ [ 10.893684053108212, 44.161727337122997 ], [ 10.893910406658476, 44.162043704158449 ] ] } },
{ "type": "Feature", "properties": { "CITY_NAME": "LIZZANO_IN_BELVEDERE", "strokeColor": "#70ACCC", "RGB": "112, 172, 204" }, "geometry": { "type": "LineString", "coordinates": [ [ 10.89288854427758, 44.164755910386035 ], [ 10.893191030601953, 44.164724505530266 ], [ 10.893382619890531, 44.164624044512173 ], [ 10.893620104973097, 44.164328780181869 ], [ 10.89373544663848, 44.164081588079995 ], [ 10.893887968095171, 44.163640822149254 ] ] } },
{ "type": "Feature", "properties": { "CITY_NAME": "LIZZANO_IN_BELVEDERE", "strokeColor": "#70ACCC", "RGB": "112, 172, 204" }, "geometry": { "type": "LineString", "coordinates": [ [ 10.894050822406882, 44.160729992464439 ], [ 10.893988191393539, 44.160615217953108 ] ] } },
{ "type": "Feature", "properties": { "CITY_NAME": "LIZZANO_IN_BELVEDERE", "strokeColor": "#70ACCC", "RGB": "112, 172, 204" }, "geometry": { "type": "LineString", "coordinates": [ [ 10.877158534587013, 44.16821920452962 ], [ 10.877352021599949, 44.167988831771403 ], [ 10.877616209702451, 44.167784556773427 ] ] } },
{ "type": "Feature", "properties": { "CITY_NAME": "LIZZANO_IN_BELVEDERE", "strokeColor": "#70ACCC", "RGB": "112, 172, 204" }, "geometry": { "type": "LineString", "coordinates": [ [ 10.887774386213074, 44.192671488474012 ], [ 10.888071881129465, 44.19278434568303 ], [ 10.888644248033319, 44.192973953311672 ], [ 10.889143840766151, 44.193140994772868 ], [ 10.889334916333679, 44.193191727861631 ], [ 10.889463035922887, 44.19318971169529 ], [ 10.889618684606253, 44.193142630618098 ], [ 10.890058212229714, 44.192872495653866 ], [ 10.890256345046021, 44.192803865781904 ], [ 10.890368777710561, 44.192779561890326 ] ] } },
{ "type": "Feature", "properties": { "CITY_NAME": "LIZZANO_IN_BELVEDERE", "strokeColor": "#70ACCC", "RGB": "112, 172, 204" }, "geometry": { "type": "LineString", "coordinates": [ [ 10.893910406658476, 44.162043704158449 ], [ 10.894142645579455, 44.162326105245327 ], [ 10.89424790258902, 44.162542446952088 ] ] } },
{ "type": "Feature", "properties": { "CITY_NAME": "LIZZANO_IN_BELVEDERE", "strokeColor": "#70ACCC", "RGB": "112, 172, 204" }, "geometry": { "type": "LineString", "coordinates": [ [ 10.886515848673069, 44.193349868317284 ], [ 10.886317415318336, 44.19399522539203 ], [ 10.886226640388339, 44.194383721196772 ], [ 10.886073397294451, 44.195028159377152 ], [ 10.885998003711567, 44.195288830299546 ] ] } },
{ "type": "Feature", "properties": { "CITY_NAME": "LIZZANO_IN_BELVEDERE", "strokeColor": "#70ACCC", "RGB": "112, 172, 204" }, "geometry": { "type": "LineString", "coordinates": [ [ 10.876412656245533, 44.167325124008755 ], [ 10.876431913726011, 44.167199832899115 ], [ 10.876475229726955, 44.167023067403555 ], [ 10.876568649039722, 44.166875485931193 ], [ 10.876661266520372, 44.166823075801553 ] ] } },
{ "type": "Feature", "properties": { "CITY_NAME": "LIZZANO_IN_BELVEDERE", "strokeColor": "#70ACCC", "RGB": "112, 172, 204" }, "geometry": { "type": "LineString", "coordinates": [ [ 10.873365253698095, 44.170689219335898 ], [ 10.87336921328774, 44.170731349179597 ] ] } },
{ "type": "Feature", "properties": { "CITY_NAME": "LIZZANO_IN_BELVEDERE", "strokeColor": "#70ACCC", "RGB": "112, 172, 204" }, "geometry": { "type": "LineString", "coordinates": [ [ 10.894382964340771, 44.162214035070271 ], [ 10.894428284581819, 44.162030274538559 ] ] } },
{ "type": "Feature", "properties": { "CITY_NAME": "LIZZANO_IN_BELVEDERE", "strokeColor": "#70ACCC", "RGB": "112, 172, 204" }, "geometry": { "type": "LineString", "coordinates": [ [ 10.870868415456874, 44.171588968398474 ], [ 10.870994613539299, 44.171451949997405 ], [ 10.871142332753504, 44.171282160509442 ] ] } },
{ "type": "Feature", "properties": { "CITY_NAME": "LIZZANO_IN_BELVEDERE", "strokeColor": "#70ACCC", "RGB": "112, 172, 204" }, "geometry": { "type": "LineString", "coordinates": [ [ 10.893374549226088, 44.164152554582778 ], [ 10.89328737286324, 44.164213183530322 ], [ 10.893135930577065, 44.164241247590894 ], [ 10.893034987482565, 44.164243202680311 ], [ 10.892908839527644, 44.164220514427988 ], [ 10.892673720550794, 44.164150127621028 ], [ 10.892535545013475, 44.164092484785655 ], [ 10.892263572850178, 44.163972993632015 ], [ 10.892043721607315, 44.163873965770854 ], [ 10.89194843142443, 44.16388266049718 ] ] } },
{ "type": "Feature", "properties": { "CITY_NAME": "LIZZANO_IN_BELVEDERE", "strokeColor": "#70ACCC", "RGB": "112, 172, 204" }, "geometry": { "type": "LineString", "coordinates": [ [ 10.886319070149908, 44.193197762930424 ], [ 10.886275866648976, 44.193228626890999 ], [ 10.88624523013697, 44.193282860477481 ], [ 10.886370470093086, 44.193312196282008 ] ] } },
{ "type": "Feature", "properties": { "CITY_NAME": "LIZZANO_IN_BELVEDERE", "strokeColor": "#70ACCC", "RGB": "112, 172, 204" }, "geometry": { "type": "LineString", "coordinates": [ [ 10.874851589045701, 44.169072118524625 ], [ 10.875015420925083, 44.16887446856996 ], [ 10.875064988108146, 44.168762212632643 ], [ 10.875070639404878, 44.168701040143574 ] ] } },
{ "type": "Feature", "properties": { "CITY_NAME": "LIZZANO_IN_BELVEDERE", "strokeColor": "#70ACCC", "RGB": "112, 172, 204" }, "geometry": { "type": "LineString", "coordinates": [ [ 10.873963673366173, 44.170568056506333 ], [ 10.873861712776341, 44.170531574435728 ] ] } },
{ "type": "Feature", "properties": { "CITY_NAME": "LIZZANO_IN_BELVEDERE", "strokeColor": "#70ACCC", "RGB": "112, 172, 204" }, "geometry": { "type": "LineString", "coordinates": [ [ 10.886370470093086, 44.193312196282008 ], [ 10.886445700854399, 44.193329817692273 ], [ 10.886515848673069, 44.193349868317284 ] ] } },
{ "type": "Feature", "properties": { "CITY_NAME": "LIZZANO_IN_BELVEDERE", "strokeColor": "#70ACCC", "RGB": "112, 172, 204" }, "geometry": { "type": "LineString", "coordinates": [ [ 10.893887968095171, 44.163640822149254 ], [ 10.893980636800729, 44.163372985334355 ] ] } },
{ "type": "Feature", "properties": { "CITY_NAME": "LIZZANO_IN_BELVEDERE", "strokeColor": "#70ACCC", "RGB": "112, 172, 204" }, "geometry": { "type": "LineString", "coordinates": [ [ 10.892586935828783, 44.164689908873584 ], [ 10.89288854427758, 44.164755910386035 ] ] } },
{ "type": "Feature", "properties": { "CITY_NAME": "LIZZANO_IN_BELVEDERE", "strokeColor": "#70ACCC", "RGB": "112, 172, 204" }, "geometry": { "type": "LineString", "coordinates": [ [ 10.87347607847278, 44.169956126845896 ], [ 10.873309168968266, 44.169800565242106 ], [ 10.873220377493865, 44.169696204717162 ], [ 10.873073269169915, 44.169673169434141 ], [ 10.87299733675844, 44.169682795780687 ], [ 10.872913137933224, 44.169707291209775 ] ] } },
{ "type": "Feature", "properties": { "CITY_NAME": "LIZZANO_IN_BELVEDERE", "strokeColor": "#70ACCC", "RGB": "112, 172, 204" }, "geometry": { "type": "LineString", "coordinates": [ [ 10.89194843142443, 44.16388266049718 ], [ 10.891984102772293, 44.163766353595072 ], [ 10.892123041159081, 44.163558945801647 ], [ 10.892267688131586, 44.163334526419639 ], [ 10.892298920895874, 44.16320992187169 ], [ 10.892270355235588, 44.163103386136541 ], [ 10.892204754020499, 44.162965085282437 ], [ 10.892130319896577, 44.162657657121251 ], [ 10.892082824885211, 44.162549686550612 ], [ 10.891945177795272, 44.162322261833175 ], [ 10.89190580564942, 44.162184413065475 ], [ 10.891895273985142, 44.161988343311243 ], [ 10.891894713336212, 44.161677234178569 ], [ 10.891909638445208, 44.161460058057543 ], [ 10.891949805648682, 44.16124464790748 ] ] } },
{ "type": "Feature", "properties": { "CITY_NAME": "LIZZANO_IN_BELVEDERE", "strokeColor": "#70ACCC", "RGB": "112, 172, 204" }, "geometry": { "type": "LineString", "coordinates": [ [ 10.892870754606303, 44.161279816286402 ], [ 10.893045747109268, 44.161186973806828 ], [ 10.893059483989527, 44.161084408723255 ], [ 10.89310984175515, 44.16087817625688 ], [ 10.893279076479795, 44.160818305495148 ] ] } },
{ "type": "Feature", "properties": { "CITY_NAME": "LIZZANO_IN_BELVEDERE", "strokeColor": "#70ACCC", "RGB": "112, 172, 204" }, "geometry": { "type": "LineString", "coordinates": [ [ 10.893980636800729, 44.163372985334355 ], [ 10.894124689014522, 44.16295738901983 ], [ 10.89424790258902, 44.162542446952088 ] ] } },
{ "type": "Feature", "properties": { "CITY_NAME": "LIZZANO_IN_BELVEDERE", "strokeColor": "#70ACCC", "RGB": "112, 172, 204" }, "geometry": { "type": "LineString", "coordinates": [ [ 10.893146496196032, 44.162785064076139 ], [ 10.893313809042398, 44.162464724895948 ] ] } },
{ "type": "Feature", "properties": { "CITY_NAME": "LIZZANO_IN_BELVEDERE", "strokeColor": "#70ACCC", "RGB": "112, 172, 204" }, "geometry": { "type": "LineString", "coordinates": [ [ 10.893091743305824, 44.162890031350784 ], [ 10.893092875542603, 44.162887618657521 ], [ 10.893146496196032, 44.162785064076139 ] ] } },
{ "type": "Feature", "properties": { "CITY_NAME": "LIZZANO_IN_BELVEDERE", "strokeColor": "#70ACCC", "RGB": "112, 172, 204" }, "geometry": { "type": "LineString", "coordinates": [ [ 10.873739010538928, 44.170976966617552 ], [ 10.873755829175318, 44.17095163596359 ], [ 10.873588313060822, 44.170907615063278 ], [ 10.873624332529335, 44.17082185576993 ], [ 10.873795553481143, 44.170845656105115 ], [ 10.873816575252523, 44.170766347758345 ], [ 10.873738398361203, 44.170674616790492 ], [ 10.873963673366173, 44.170568056506333 ] ] } },
{ "type": "Feature", "properties": { "CITY_NAME": "LIZZANO_IN_BELVEDERE", "strokeColor": "#70ACCC", "RGB": "112, 172, 204" }, "geometry": { "type": "LineString", "coordinates": [ [ 10.893988191393539, 44.160615217953108 ], [ 10.893867426385526, 44.160406311288277 ] ] } },
{ "type": "Feature", "properties": { "CITY_NAME": "LIZZANO_IN_BELVEDERE", "strokeColor": "#70ACCC", "RGB": "112, 172, 204" }, "geometry": { "type": "LineString", "coordinates": [ [ 10.875112546597304, 44.168199876264502 ], [ 10.875178517530452, 44.168113713797013 ], [ 10.875297383963614, 44.168006772369424 ] ] } },
{ "type": "Feature", "properties": { "CITY_NAME": "LIZZANO_IN_BELVEDERE", "strokeColor": "#70ACCC", "RGB": "112, 172, 204" }, "geometry": { "type": "LineString", "coordinates": [ [ 10.885488480640312, 44.191644526374787 ], [ 10.885265093581408, 44.191688160955067 ], [ 10.885125440330812, 44.191719223009414 ], [ 10.885030081268424, 44.191898215915948 ], [ 10.885035615226426, 44.192334501139101 ], [ 10.885131179576423, 44.192639838903368 ], [ 10.885342641783623, 44.193020002635173 ] ] } },
{ "type": "Feature", "properties": { "CITY_NAME": "LIZZANO_IN_BELVEDERE", "strokeColor": "#70ACCC", "RGB": "112, 172, 204" }, "geometry": { "type": "LineString", "coordinates": [ [ 10.873487624603767, 44.170649429531522 ], [ 10.873365253698095, 44.170689219335898 ] ] } },
{ "type": "Feature", "properties": { "CITY_NAME": "LIZZANO_IN_BELVEDERE", "strokeColor": "#70ACCC", "RGB": "112, 172, 204" }, "geometry": { "type": "LineString", "coordinates": [ [ 10.885998003711567, 44.195288830299546 ], [ 10.886026281627776, 44.195320497897264 ], [ 10.886032842309028, 44.195383750355816 ], [ 10.886015900555527, 44.195457897527362 ], [ 10.885963743533209, 44.195486977172742 ], [ 10.885895363695395, 44.195468876792994 ], [ 10.885893582443453, 44.195427166239334 ], [ 10.885911334103522, 44.195360514259505 ], [ 10.885947357706167, 44.195308276021599 ], [ 10.885998003711567, 44.195288830299546 ] ] } },
{ "type": "Feature", "properties": { "CITY_NAME": "LIZZANO_IN_BELVEDERE", "strokeColor": "#70ACCC", "RGB": "112, 172, 204" }, "geometry": { "type": "LineString", "coordinates": [ [ 10.872203318836412, 44.170513867168182 ], [ 10.872456889679261, 44.170611974260133 ], [ 10.872700226453022, 44.170689875505936 ], [ 10.872972718514426, 44.170743426373967 ], [ 10.873233810743594, 44.170746291602164 ], [ 10.87336921328774, 44.170731349179597 ] ] } },
{ "type": "Feature", "properties": { "CITY_NAME": "LIZZANO_IN_BELVEDERE", "strokeColor": "#70ACCC", "RGB": "112, 172, 204" }, "geometry": { "type": "LineString", "coordinates": [ [ 10.893887968095171, 44.163640822149254 ], [ 10.893793118086903, 44.163715893671842 ], [ 10.893617067825213, 44.163917126916679 ], [ 10.893374549226088, 44.164152554582778 ] ] } },
{ "type": "Feature", "properties": { "CITY_NAME": "LIZZANO_IN_BELVEDERE", "strokeColor": "#70ACCC", "RGB": "112, 172, 204" }, "geometry": { "type": "LineString", "coordinates": [ [ 10.894428284581819, 44.162030274538559 ], [ 10.894470471049525, 44.161852434191175 ], [ 10.89450519213494, 44.161677956082926 ], [ 10.894497259950374, 44.161439233554205 ], [ 10.894269907821926, 44.161071020939652 ] ] } },
{ "type": "Feature", "properties": { "CITY_NAME": "LIZZANO_IN_BELVEDERE", "strokeColor": "#70ACCC", "RGB": "112, 172, 204" }, "geometry": { "type": "LineString", "coordinates": [ [ 10.875297383963614, 44.168006772369424 ], [ 10.875457408282742, 44.167788537472624 ], [ 10.875543310153422, 44.167679109388018 ], [ 10.875630129533516, 44.167598713761024 ], [ 10.875746345690521, 44.167541350427314 ], [ 10.876014823173659, 44.167445579719001 ] ] } },
{ "type": "Feature", "properties": { "CITY_NAME": "LIZZANO_IN_BELVEDERE", "strokeColor": "#70ACCC", "RGB": "112, 172, 204" }, "geometry": { "type": "LineString", "coordinates": [ [ 10.893867426385526, 44.160406311288277 ], [ 10.893734712962578, 44.160027830171046 ], [ 10.893648068656393, 44.159759947104021 ], [ 10.89363540565331, 44.159505278255658 ], [ 10.893624766687912, 44.159290999780858 ], [ 10.893625966828397, 44.158890957462113 ], [ 10.893725635208897, 44.158728046547118 ], [ 10.893958484748836, 44.158466073296665 ], [ 10.894088596941296, 44.158321402536444 ], [ 10.894152299430289, 44.158233077073717 ], [ 10.894217571161063, 44.157977735905042 ], [ 10.894248124625488, 44.157777364633844 ], [ 10.89432157408914, 44.1576362722382 ] ] } },
{ "type": "Feature", "properties": { "CITY_NAME": "LIZZANO_IN_BELVEDERE", "strokeColor": "#70ACCC", "RGB": "112, 172, 204" }, "geometry": { "type": "LineString", "coordinates": [ [ 10.89194843142443, 44.16388266049718 ], [ 10.891851368307822, 44.163970907994027 ], [ 10.891710995602612, 44.164058623188978 ] ] } },
{ "type": "Feature", "properties": { "CITY_NAME": "LIZZANO_IN_BELVEDERE", "strokeColor": "#70ACCC", "RGB": "112, 172, 204" }, "geometry": { "type": "LineString", "coordinates": [ [ 10.891949805648682, 44.16124464790748 ], [ 10.892107808837183, 44.161098471234368 ], [ 10.89230106684229, 44.160822779433303 ], [ 10.8923762209537, 44.160666060424049 ], [ 10.892390590909985, 44.16058083570411 ], [ 10.892461697616223, 44.16030909611262 ], [ 10.892521680924039, 44.160161776446415 ], [ 10.892605778443619, 44.16001628988969 ], [ 10.892699951190936, 44.159883218130048 ], [ 10.892755990491525, 44.159825691346676 ], [ 10.892822811938268, 44.159815304351888 ], [ 10.89287928333963, 44.159836986870033 ], [ 10.892914190650258, 44.159880580221625 ], [ 10.892804545065859, 44.160005462793542 ], [ 10.892770537780493, 44.160106466868555 ], [ 10.892765348088616, 44.160220276501654 ], [ 10.892793769742918, 44.160334687763353 ], [ 10.892817940875769, 44.160502054600997 ], [ 10.892830802888838, 44.160908313570012 ], [ 10.892848171749081, 44.161172565688382 ], [ 10.892870754606303, 44.161279816286402 ] ] } },
{ "type": "Feature", "properties": { "CITY_NAME": "LIZZANO_IN_BELVEDERE", "strokeColor": "#70ACCC", "RGB": "112, 172, 204" }, "geometry": { "type": "LineString", "coordinates": [ [ 10.891691554968411, 44.164506222787395 ], [ 10.891878201702218, 44.164543143419863 ], [ 10.892151750943343, 44.164592792119521 ], [ 10.892586935828783, 44.164689908873584 ] ] } },
{ "type": "Feature", "properties": { "CITY_NAME": "LIZZANO_IN_BELVEDERE", "strokeColor": "#70ACCC", "RGB": "112, 172, 204" }, "geometry": { "type": "LineString", "coordinates": [ [ 10.891710995602612, 44.164058623188978 ], [ 10.891202481764406, 44.164404371685585 ], [ 10.891086954192312, 44.164454599906357 ], [ 10.89084796066736, 44.164547089144698 ] ] } },
{ "type": "Feature", "properties": { "CITY_NAME": "LIZZANO_IN_BELVEDERE", "strokeColor": "#70ACCC", "RGB": "112, 172, 204" }, "geometry": { "type": "LineString", "coordinates": [ [ 10.886370470093086, 44.193312196282008 ], [ 10.886217810326368, 44.193525363313135 ], [ 10.886126944697716, 44.193700058632629 ], [ 10.885832505952399, 44.194317418176624 ], [ 10.885637965403033, 44.194658719672951 ], [ 10.885466410622717, 44.194891984567533 ] ] } },
{ "type": "Feature", "properties": { "CITY_NAME": "LIZZANO_IN_BELVEDERE", "strokeColor": "#70ACCC", "RGB": "112, 172, 204" }, "geometry": { "type": "LineString", "coordinates": [ [ 10.894115694528159, 44.161458533445128 ], [ 10.894077032228795, 44.16142791680204 ], [ 10.893721635044171, 44.161429338754274 ], [ 10.893726118202549, 44.161652808756791 ], [ 10.893893154447822, 44.161649405893606 ], [ 10.894199991461784, 44.161645931265937 ], [ 10.894220008974612, 44.161597068922767 ], [ 10.894152269757347, 44.161498770294486 ], [ 10.894115694528159, 44.161458533445128 ] ] } },
{ "type": "Feature", "properties": { "CITY_NAME": "LIZZANO_IN_BELVEDERE", "strokeColor": "#70ACCC", "RGB": "112, 172, 204" }, "geometry": { "type": "LineString", "coordinates": [ [ 10.892839012607308, 44.163428623844027 ], [ 10.893091743305824, 44.162890031350784 ] ] } },
{ "type": "Feature", "properties": { "CITY_NAME": "LIZZANO_IN_BELVEDERE", "strokeColor": "#70ACCC", "RGB": "112, 172, 204" }, "geometry": { "type": "LineString", "coordinates": [ [ 10.871920033319775, 44.173842064167999 ], [ 10.872103008220245, 44.173660469654322 ], [ 10.872379889740168, 44.173425923113776 ], [ 10.872491078782545, 44.173299428901139 ], [ 10.872618702616952, 44.173115897909888 ], [ 10.87270066251733, 44.173009495996951 ] ] } },
{ "type": "Feature", "properties": { "CITY_NAME": "LIZZANO_IN_BELVEDERE", "strokeColor": "#70ACCC", "RGB": "112, 172, 204" }, "geometry": { "type": "LineString", "coordinates": [ [ 10.87270066251733, 44.173009495996951 ], [ 10.872804585007303, 44.172828319720004 ], [ 10.872811972770895, 44.172597165764756 ], [ 10.872927558376698, 44.172360225622178 ], [ 10.873134937071548, 44.172115348903745 ] ] } },
{ "type": "Feature", "properties": { "CITY_NAME": "LIZZANO_IN_BELVEDERE", "strokeColor": "#70ACCC", "RGB": "112, 172, 204" }, "geometry": { "type": "LineString", "coordinates": [ [ 10.873258374923857, 44.17110281899528 ], [ 10.873507974295967, 44.171210587078839 ] ] } },
{ "type": "Feature", "properties": { "CITY_NAME": "LIZZANO_IN_BELVEDERE", "strokeColor": "#70ACCC", "RGB": "112, 172, 204" }, "geometry": { "type": "LineString", "coordinates": [ [ 10.890338588201184, 44.162982685471249 ], [ 10.890027434204542, 44.162968932512513 ], [ 10.88982675215447, 44.162915173015136 ] ] } },
{ "type": "Feature", "properties": { "CITY_NAME": "LIZZANO_IN_BELVEDERE", "strokeColor": "#70ACCC", "RGB": "112, 172, 204" }, "geometry": { "type": "LineString", "coordinates": [ [ 10.891949805648682, 44.16124464790748 ], [ 10.891808068314658, 44.161287827699915 ], [ 10.891645025429895, 44.161400055701577 ], [ 10.891521695833767, 44.161635867633969 ], [ 10.891407165752163, 44.161866889889076 ], [ 10.891336583323755, 44.162093797235755 ], [ 10.891352980923003, 44.162189516747674 ], [ 10.891475149850081, 44.162476157157862 ], [ 10.891460593089372, 44.162590337907893 ], [ 10.891391404793968, 44.162685924542103 ], [ 10.891294089832291, 44.162775650459338 ], [ 10.891151359936437, 44.162824179305055 ], [ 10.890869178079871, 44.162881368672394 ], [ 10.890338588201184, 44.162982685471249 ] ] } },
{ "type": "Feature", "properties": { "CITY_NAME": "LIZZANO_IN_BELVEDERE", "strokeColor": "#70ACCC", "RGB": "112, 172, 204" }, "geometry": { "type": "LineString", "coordinates": [ [ 10.886515848673069, 44.193349868317284 ], [ 10.886640691166898, 44.193378817857131 ], [ 10.886686757531923, 44.193326974349638 ] ] } },
{ "type": "Feature", "properties": { "CITY_NAME": "LIZZANO_IN_BELVEDERE", "strokeColor": "#70ACCC", "RGB": "112, 172, 204" }, "geometry": { "type": "LineString", "coordinates": [ [ 10.886418225582659, 44.193029844859709 ], [ 10.886320729825247, 44.193089344983122 ], [ 10.886391665557758, 44.19314590088063 ], [ 10.886319070149908, 44.193197762930424 ] ] } }
]
}
