{
"type": "FeatureCollection",
"name": "MARRADI",
"crs": { "type": "name", "properties": { "name": "urn:ogc:def:crs:OGC:1.3:CRS84" } },
"features": [
{ "type": "Feature", "properties": { "CITY_NAME": "MARRADI", "strokeColor": "#70ACCC", "RGB": "112, 172, 204" }, "geometry": { "type": "LineString", "coordinates": [ [ 11.606225558843683, 44.071197571517807 ], [ 11.606504100283017, 44.071471230521901 ], [ 11.60731502486556, 44.072101340288206 ], [ 11.607605347889724, 44.072342146254513 ], [ 11.607715607840483, 44.072693877647772 ] ] } },
{ "type": "Feature", "properties": { "CITY_NAME": "MARRADI", "strokeColor": "#70ACCC", "RGB": "112, 172, 204" }, "geometry": { "type": "LineString", "coordinates": [ [ 11.612526399955573, 44.075391172486839 ], [ 11.612089930505636, 44.075301203156215 ], [ 11.611900814421691, 44.075215447530105 ], [ 11.611499923787513, 44.074987004962864 ] ] } },
{ "type": "Feature", "properties": { "CITY_NAME": "MARRADI", "strokeColor": "#70ACCC", "RGB": "112, 172, 204" }, "geometry": { "type": "LineString", "coordinates": [ [ 11.624951821861991, 44.086479902481933 ], [ 11.624068387596058, 44.08668309119745 ] ] } },
{ "type": "Feature", "properties": { "CITY_NAME": "MARRADI", "strokeColor": "#70ACCC", "RGB": "112, 172, 204" }, "geometry": { "type": "LineString", "coordinates": [ [ 11.624471911213812, 44.087484212085542 ], [ 11.624787218116627, 44.087819076309039 ], [ 11.625054934266435, 44.087952365128906 ], [ 11.625555207471004, 44.088079981445574 ] ] } },
{ "type": "Feature", "properties": { "CITY_NAME": "MARRADI", "strokeColor": "#70ACCC", "RGB": "112, 172, 204" }, "geometry": { "type": "LineString", "coordinates": [ [ 11.623625044026975, 44.084967065417949 ], [ 11.624230123406493, 44.085692555610812 ] ] } },
{ "type": "Feature", "properties": { "CITY_NAME": "MARRADI", "strokeColor": "#70ACCC", "RGB": "112, 172, 204" }, "geometry": { "type": "LineString", "coordinates": [ [ 11.61486123464385, 44.073222023288096 ], [ 11.617552037421795, 44.071945419221791 ] ] } },
{ "type": "Feature", "properties": { "CITY_NAME": "MARRADI", "strokeColor": "#70ACCC", "RGB": "112, 172, 204" }, "geometry": { "type": "LineString", "coordinates": [ [ 11.61567258497965, 44.078235621108149 ], [ 11.616148780572438, 44.078396103050025 ] ] } },
{ "type": "Feature", "properties": { "CITY_NAME": "MARRADI", "strokeColor": "#70ACCC", "RGB": "112, 172, 204" }, "geometry": { "type": "LineString", "coordinates": [ [ 11.611129149703325, 44.074605778728824 ], [ 11.611499923787513, 44.074987004962864 ] ] } },
{ "type": "Feature", "properties": { "CITY_NAME": "MARRADI", "strokeColor": "#70ACCC", "RGB": "112, 172, 204" }, "geometry": { "type": "LineString", "coordinates": [ [ 11.601394041022354, 44.063050437580891 ], [ 11.601153946222567, 44.063085469310693 ], [ 11.600903560248998, 44.063417650720005 ], [ 11.600588365465105, 44.063834315359848 ] ] } },
{ "type": "Feature", "properties": { "CITY_NAME": "MARRADI", "strokeColor": "#70ACCC", "RGB": "112, 172, 204" }, "geometry": { "type": "LineString", "coordinates": [ [ 11.604659374137022, 44.068284109463747 ], [ 11.605134280082121, 44.068743169070515 ] ] } },
{ "type": "Feature", "properties": { "CITY_NAME": "MARRADI", "strokeColor": "#70ACCC", "RGB": "112, 172, 204" }, "geometry": { "type": "LineString", "coordinates": [ [ 11.601627839109916, 44.065283708001921 ], [ 11.601666023939638, 44.065152624393548 ] ] } },
{ "type": "Feature", "properties": { "CITY_NAME": "MARRADI", "strokeColor": "#70ACCC", "RGB": "112, 172, 204" }, "geometry": { "type": "LineString", "coordinates": [ [ 11.61339089400054, 44.076439660465219 ], [ 11.613341164669267, 44.076520638904704 ], [ 11.61315636142136, 44.077115075192388 ], [ 11.613723816652479, 44.07717683417404 ] ] } },
{ "type": "Feature", "properties": { "CITY_NAME": "MARRADI", "strokeColor": "#70ACCC", "RGB": "112, 172, 204" }, "geometry": { "type": "LineString", "coordinates": [ [ 11.617772359456829, 44.079915341819763 ], [ 11.617577720058691, 44.080131298161383 ] ] } },
{ "type": "Feature", "properties": { "CITY_NAME": "MARRADI", "strokeColor": "#70ACCC", "RGB": "112, 172, 204" }, "geometry": { "type": "LineString", "coordinates": [ [ 11.600731795059689, 44.065362302518587 ], [ 11.600780616605682, 44.065459928247222 ], [ 11.601489396751626, 44.066171425200643 ], [ 11.602098952141908, 44.066788588504728 ], [ 11.60264650477062, 44.067692404010742 ], [ 11.602887196040529, 44.068032339563132 ] ] } },
{ "type": "Feature", "properties": { "CITY_NAME": "MARRADI", "strokeColor": "#70ACCC", "RGB": "112, 172, 204" }, "geometry": { "type": "LineString", "coordinates": [ [ 11.60552090639375, 44.070044089585316 ], [ 11.605632490689731, 44.070193203700775 ], [ 11.605830920883328, 44.070634791418549 ], [ 11.6060052376654, 44.070947529622124 ], [ 11.606225558843683, 44.071197571517807 ] ] } },
{ "type": "Feature", "properties": { "CITY_NAME": "MARRADI", "strokeColor": "#70ACCC", "RGB": "112, 172, 204" }, "geometry": { "type": "LineString", "coordinates": [ [ 11.61610333864625, 44.078728582467811 ], [ 11.616414558166991, 44.07879476926454 ], [ 11.618116631192319, 44.07949569152494 ] ] } },
{ "type": "Feature", "properties": { "CITY_NAME": "MARRADI", "strokeColor": "#70ACCC", "RGB": "112, 172, 204" }, "geometry": { "type": "LineString", "coordinates": [ [ 11.623873090592058, 44.084761834802421 ], [ 11.624629277356247, 44.085645365006826 ], [ 11.624951821861991, 44.086479902481933 ] ] } },
{ "type": "Feature", "properties": { "CITY_NAME": "MARRADI", "strokeColor": "#70ACCC", "RGB": "112, 172, 204" }, "geometry": { "type": "LineString", "coordinates": [ [ 11.607994030832909, 44.071084542877749 ], [ 11.608206493411778, 44.071215403864777 ] ] } },
{ "type": "Feature", "properties": { "CITY_NAME": "MARRADI", "strokeColor": "#70ACCC", "RGB": "112, 172, 204" }, "geometry": { "type": "LineString", "coordinates": [ [ 11.616148780572438, 44.078396103050025 ], [ 11.616432277280241, 44.078454512564683 ] ] } },
{ "type": "Feature", "properties": { "CITY_NAME": "MARRADI", "strokeColor": "#70ACCC", "RGB": "112, 172, 204" }, "geometry": { "type": "LineString", "coordinates": [ [ 11.603121797694065, 44.064990596352871 ], [ 11.603017672038863, 44.064490651764167 ] ] } },
{ "type": "Feature", "properties": { "CITY_NAME": "MARRADI", "strokeColor": "#70ACCC", "RGB": "112, 172, 204" }, "geometry": { "type": "LineString", "coordinates": [ [ 11.618649486482548, 44.07962984775692 ], [ 11.61869368212024, 44.079702689871013 ], [ 11.619226739835222, 44.080260168463909 ], [ 11.619821416952831, 44.080836149888967 ], [ 11.620264382879826, 44.081196866086835 ], [ 11.620405763048952, 44.081288272381279 ], [ 11.620448792819657, 44.081341991927353 ], [ 11.62045232914782, 44.081386624496105 ], [ 11.62042803242492, 44.081424523262953 ], [ 11.620384866222803, 44.081460690762043 ] ] } },
{ "type": "Feature", "properties": { "CITY_NAME": "MARRADI", "strokeColor": "#70ACCC", "RGB": "112, 172, 204" }, "geometry": { "type": "LineString", "coordinates": [ [ 11.619462088466326, 44.081245097627388 ], [ 11.620337684460216, 44.082104535860765 ], [ 11.620538846744743, 44.082243793287546 ], [ 11.620669683940141, 44.082233111474615 ] ] } },
{ "type": "Feature", "properties": { "CITY_NAME": "MARRADI", "strokeColor": "#70ACCC", "RGB": "112, 172, 204" }, "geometry": { "type": "LineString", "coordinates": [ [ 11.603713983216908, 44.065467058795321 ], [ 11.603267178690386, 44.065528729408925 ] ] } },
{ "type": "Feature", "properties": { "CITY_NAME": "MARRADI", "strokeColor": "#70ACCC", "RGB": "112, 172, 204" }, "geometry": { "type": "LineString", "coordinates": [ [ 11.616675371028336, 44.078129272133467 ], [ 11.616766943265461, 44.077938334870041 ], [ 11.617364811179343, 44.07788278978164 ] ] } },
{ "type": "Feature", "properties": { "CITY_NAME": "MARRADI", "strokeColor": "#70ACCC", "RGB": "112, 172, 204" }, "geometry": { "type": "LineString", "coordinates": [ [ 11.616432277280241, 44.078454512564683 ], [ 11.616849192891678, 44.078623287797193 ] ] } },
{ "type": "Feature", "properties": { "CITY_NAME": "MARRADI", "strokeColor": "#70ACCC", "RGB": "112, 172, 204" }, "geometry": { "type": "LineString", "coordinates": [ [ 11.622076721124364, 44.082700660142883 ], [ 11.622371990902645, 44.082671560037156 ] ] } },
{ "type": "Feature", "properties": { "CITY_NAME": "MARRADI", "strokeColor": "#70ACCC", "RGB": "112, 172, 204" }, "geometry": { "type": "LineString", "coordinates": [ [ 11.61610333864625, 44.078728582467811 ], [ 11.615933288858834, 44.079132115186532 ] ] } },
{ "type": "Feature", "properties": { "CITY_NAME": "MARRADI", "strokeColor": "#70ACCC", "RGB": "112, 172, 204" }, "geometry": { "type": "LineString", "coordinates": [ [ 11.612842493698762, 44.07543323465854 ], [ 11.613182526673908, 44.075390591786039 ] ] } },
{ "type": "Feature", "properties": { "CITY_NAME": "MARRADI", "strokeColor": "#70ACCC", "RGB": "112, 172, 204" }, "geometry": { "type": "LineString", "coordinates": [ [ 11.609002500260694, 44.074362791229696 ], [ 11.609488770040619, 44.074813757832622 ], [ 11.609865256510009, 44.075214450424632 ], [ 11.610458256082607, 44.075980398142896 ], [ 11.610618280428854, 44.076202139377997 ], [ 11.610667931233028, 44.076256454035487 ] ] } },
{ "type": "Feature", "properties": { "CITY_NAME": "MARRADI", "strokeColor": "#70ACCC", "RGB": "112, 172, 204" }, "geometry": { "type": "LineString", "coordinates": [ [ 11.617447994193411, 44.075859115731674 ], [ 11.618440765952192, 44.075995580386078 ] ] } },
{ "type": "Feature", "properties": { "CITY_NAME": "MARRADI", "strokeColor": "#70ACCC", "RGB": "112, 172, 204" }, "geometry": { "type": "LineString", "coordinates": [ [ 11.60682684220161, 44.070708168582698 ], [ 11.607651941240087, 44.071287091285129 ] ] } },
{ "type": "Feature", "properties": { "CITY_NAME": "MARRADI", "strokeColor": "#70ACCC", "RGB": "112, 172, 204" }, "geometry": { "type": "LineString", "coordinates": [ [ 11.612543141997737, 44.073883153851092 ], [ 11.612751667294658, 44.074270870465966 ] ] } },
{ "type": "Feature", "properties": { "CITY_NAME": "MARRADI", "strokeColor": "#70ACCC", "RGB": "112, 172, 204" }, "geometry": { "type": "LineString", "coordinates": [ [ 11.617447994193411, 44.075859115731674 ], [ 11.617527766241849, 44.075601266479929 ], [ 11.618045220465808, 44.075547646892034 ] ] } },
{ "type": "Feature", "properties": { "CITY_NAME": "MARRADI", "strokeColor": "#70ACCC", "RGB": "112, 172, 204" }, "geometry": { "type": "LineString", "coordinates": [ [ 11.601666023939638, 44.065152624393548 ], [ 11.601742728607604, 44.065121232960905 ] ] } },
{ "type": "Feature", "properties": { "CITY_NAME": "MARRADI", "strokeColor": "#70ACCC", "RGB": "112, 172, 204" }, "geometry": { "type": "LineString", "coordinates": [ [ 11.602201848244945, 44.063775523146106 ], [ 11.602266714479443, 44.063212176969657 ], [ 11.602243748656873, 44.063114655799232 ] ] } },
{ "type": "Feature", "properties": { "CITY_NAME": "MARRADI", "strokeColor": "#70ACCC", "RGB": "112, 172, 204" }, "geometry": { "type": "LineString", "coordinates": [ [ 11.617797141610099, 44.079081471047758 ], [ 11.617949471864504, 44.079052298822511 ], [ 11.618646002057005, 44.07962410448917 ], [ 11.618649486482548, 44.07962984775692 ] ] } },
{ "type": "Feature", "properties": { "CITY_NAME": "MARRADI", "strokeColor": "#70ACCC", "RGB": "112, 172, 204" }, "geometry": { "type": "LineString", "coordinates": [ [ 11.620384866222803, 44.081460690762043 ], [ 11.621935562838182, 44.082690514319431 ], [ 11.622076721124364, 44.082700660142883 ] ] } },
{ "type": "Feature", "properties": { "CITY_NAME": "MARRADI", "strokeColor": "#70ACCC", "RGB": "112, 172, 204" }, "geometry": { "type": "LineString", "coordinates": [ [ 11.614554725357349, 44.076631742862986 ], [ 11.61493551846282, 44.076874288959957 ], [ 11.616153279865991, 44.076917085889598 ] ] } },
{ "type": "Feature", "properties": { "CITY_NAME": "MARRADI", "strokeColor": "#70ACCC", "RGB": "112, 172, 204" }, "geometry": { "type": "LineString", "coordinates": [ [ 11.607715607840483, 44.072693877647772 ], [ 11.608062432553412, 44.073386741140602 ], [ 11.608215595618097, 44.073508859649046 ], [ 11.609002500260694, 44.074362791229696 ] ] } },
{ "type": "Feature", "properties": { "CITY_NAME": "MARRADI", "strokeColor": "#70ACCC", "RGB": "112, 172, 204" }, "geometry": { "type": "LineString", "coordinates": [ [ 11.612751667294658, 44.074270870465966 ], [ 11.61232161536212, 44.074624593369229 ], [ 11.612600636359714, 44.074783091353993 ] ] } },
{ "type": "Feature", "properties": { "CITY_NAME": "MARRADI", "strokeColor": "#70ACCC", "RGB": "112, 172, 204" }, "geometry": { "type": "LineString", "coordinates": [ [ 11.612963873688939, 44.074457717596808 ], [ 11.612600636359714, 44.074783091353993 ] ] } },
{ "type": "Feature", "properties": { "CITY_NAME": "MARRADI", "strokeColor": "#70ACCC", "RGB": "112, 172, 204" }, "geometry": { "type": "LineString", "coordinates": [ [ 11.614618535295657, 44.073315688245927 ], [ 11.614673573875457, 44.073213592454991 ], [ 11.615442594262532, 44.072847991746052 ], [ 11.615538467569401, 44.072727775029783 ], [ 11.615567702525665, 44.072579109085716 ], [ 11.615484176315309, 44.072572505605507 ], [ 11.614336221794405, 44.072837693659437 ] ] } },
{ "type": "Feature", "properties": { "CITY_NAME": "MARRADI", "strokeColor": "#70ACCC", "RGB": "112, 172, 204" }, "geometry": { "type": "LineString", "coordinates": [ [ 11.607651941240087, 44.071287091285129 ], [ 11.607994030832909, 44.071084542877749 ] ] } },
{ "type": "Feature", "properties": { "CITY_NAME": "MARRADI", "strokeColor": "#70ACCC", "RGB": "112, 172, 204" }, "geometry": { "type": "LineString", "coordinates": [ [ 11.616151999797722, 44.0758897789039 ], [ 11.616370876670985, 44.075706211719698 ], [ 11.616806570929176, 44.075642345063386 ], [ 11.617447994193411, 44.075859115731674 ] ] } },
{ "type": "Feature", "properties": { "CITY_NAME": "MARRADI", "strokeColor": "#70ACCC", "RGB": "112, 172, 204" }, "geometry": { "type": "LineString", "coordinates": [ [ 11.603713983216908, 44.065467058795321 ], [ 11.603478131398395, 44.064630864918193 ] ] } },
{ "type": "Feature", "properties": { "CITY_NAME": "MARRADI", "strokeColor": "#70ACCC", "RGB": "112, 172, 204" }, "geometry": { "type": "LineString", "coordinates": [ [ 11.61486123464385, 44.073222023288096 ], [ 11.614618535295657, 44.073315688245927 ] ] } },
{ "type": "Feature", "properties": { "CITY_NAME": "MARRADI", "strokeColor": "#70ACCC", "RGB": "112, 172, 204" }, "geometry": { "type": "LineString", "coordinates": [ [ 11.602887196040529, 44.068032339563132 ], [ 11.603151438767938, 44.068021930754341 ], [ 11.603256072934089, 44.068034529835685 ], [ 11.603379922945072, 44.068078872209348 ], [ 11.603486870525874, 44.068145064128004 ], [ 11.603637316472254, 44.068330342706034 ], [ 11.603853868360739, 44.068597023835629 ], [ 11.604696896989086, 44.069219600584113 ], [ 11.60552090639375, 44.070044089585316 ] ] } },
{ "type": "Feature", "properties": { "CITY_NAME": "MARRADI", "strokeColor": "#70ACCC", "RGB": "112, 172, 204" }, "geometry": { "type": "LineString", "coordinates": [ [ 11.602357558147041, 44.065064351091408 ], [ 11.603121797694065, 44.064990596352871 ] ] } },
{ "type": "Feature", "properties": { "CITY_NAME": "MARRADI", "strokeColor": "#70ACCC", "RGB": "112, 172, 204" }, "geometry": { "type": "LineString", "coordinates": [ [ 11.602357558147041, 44.065064351091408 ], [ 11.602510505799096, 44.064081543641024 ], [ 11.602457612130621, 44.063627586187025 ] ] } },
{ "type": "Feature", "properties": { "CITY_NAME": "MARRADI", "strokeColor": "#70ACCC", "RGB": "112, 172, 204" }, "geometry": { "type": "LineString", "coordinates": [ [ 11.601742728607604, 44.065121232960905 ], [ 11.602065369548269, 44.065080426760332 ], [ 11.60216745281182, 44.065083437276037 ], [ 11.602357558147041, 44.065064351091408 ] ] } },
{ "type": "Feature", "properties": { "CITY_NAME": "MARRADI", "strokeColor": "#70ACCC", "RGB": "112, 172, 204" }, "geometry": { "type": "LineString", "coordinates": [ [ 11.610667931233028, 44.076256454035487 ], [ 11.611102478079921, 44.076559829443774 ], [ 11.612142908797356, 44.077219223525205 ], [ 11.612421614824877, 44.077392418494178 ], [ 11.612574410127268, 44.077473090211527 ], [ 11.612769652056182, 44.077534694198818 ], [ 11.612846255586962, 44.077570210293281 ] ] } },
{ "type": "Feature", "properties": { "CITY_NAME": "MARRADI", "strokeColor": "#70ACCC", "RGB": "112, 172, 204" }, "geometry": { "type": "LineString", "coordinates": [ [ 11.617990848772667, 44.079650663740026 ], [ 11.617772359456829, 44.079915341819763 ] ] } },
{ "type": "Feature", "properties": { "CITY_NAME": "MARRADI", "strokeColor": "#70ACCC", "RGB": "112, 172, 204" }, "geometry": { "type": "LineString", "coordinates": [ [ 11.617797141610099, 44.079081471047758 ], [ 11.618302477638233, 44.079456688671769 ] ] } },
{ "type": "Feature", "properties": { "CITY_NAME": "MARRADI", "strokeColor": "#70ACCC", "RGB": "112, 172, 204" }, "geometry": { "type": "LineString", "coordinates": [ [ 11.603121797694065, 44.064990596352871 ], [ 11.603267178690386, 44.065528729408925 ] ] } },
{ "type": "Feature", "properties": { "CITY_NAME": "MARRADI", "strokeColor": "#70ACCC", "RGB": "112, 172, 204" }, "geometry": { "type": "LineString", "coordinates": [ [ 11.618116631192319, 44.07949569152494 ], [ 11.617990848772667, 44.079650663740026 ] ] } },
{ "type": "Feature", "properties": { "CITY_NAME": "MARRADI", "strokeColor": "#70ACCC", "RGB": "112, 172, 204" }, "geometry": { "type": "LineString", "coordinates": [ [ 11.617577720058691, 44.080131298161383 ], [ 11.618865992412726, 44.080910052809656 ], [ 11.618808672173548, 44.08094601229373 ], [ 11.618394572254958, 44.081176738606267 ] ] } },
{ "type": "Feature", "properties": { "CITY_NAME": "MARRADI", "strokeColor": "#70ACCC", "RGB": "112, 172, 204" }, "geometry": { "type": "LineString", "coordinates": [ [ 11.615933288858834, 44.079132115186532 ], [ 11.615835669124525, 44.079395520980782 ] ] } },
{ "type": "Feature", "properties": { "CITY_NAME": "MARRADI", "strokeColor": "#70ACCC", "RGB": "112, 172, 204" }, "geometry": { "type": "LineString", "coordinates": [ [ 11.602201848244945, 44.063775523146106 ], [ 11.602317864113491, 44.063742290946678 ], [ 11.602457612130621, 44.063627586187025 ] ] } },
{ "type": "Feature", "properties": { "CITY_NAME": "MARRADI", "strokeColor": "#70ACCC", "RGB": "112, 172, 204" }, "geometry": { "type": "LineString", "coordinates": [ [ 11.618290562548237, 44.076622996572539 ], [ 11.616151999797722, 44.0758897789039 ] ] } },
{ "type": "Feature", "properties": { "CITY_NAME": "MARRADI", "strokeColor": "#70ACCC", "RGB": "112, 172, 204" }, "geometry": { "type": "LineString", "coordinates": [ [ 11.612846255586962, 44.077570210293281 ], [ 11.613029620562951, 44.077596404653171 ], [ 11.613133888867997, 44.077634774293784 ], [ 11.613251016593264, 44.077643588619402 ], [ 11.613323512167661, 44.077642988954985 ], [ 11.613462531194157, 44.077664188991058 ], [ 11.613644748560468, 44.077666699035625 ], [ 11.613931081479059, 44.077671608516404 ] ] } },
{ "type": "Feature", "properties": { "CITY_NAME": "MARRADI", "strokeColor": "#CACC70", "RGB": "202, 204, 112" }, "geometry": { "type": "LineString", "coordinates": [ [ 11.613212078560945, 44.080617913513798 ], [ 11.613483372802026, 44.080409312979889 ], [ 11.614035943579726, 44.080187369585261 ], [ 11.614361695854029, 44.079645168161512 ], [ 11.614446887092853, 44.079409423864966 ] ] } },
{ "type": "Feature", "properties": { "CITY_NAME": "MARRADI", "strokeColor": "#70ACCC", "RGB": "112, 172, 204" }, "geometry": { "type": "LineString", "coordinates": [ [ 11.602330420049153, 44.065978651958162 ], [ 11.603243995866277, 44.066801178572028 ], [ 11.603834296430728, 44.067365583973192 ], [ 11.604529874445278, 44.068148296349044 ], [ 11.604659374137022, 44.068284109463747 ] ] } },
{ "type": "Feature", "properties": { "CITY_NAME": "MARRADI", "strokeColor": "#70ACCC", "RGB": "112, 172, 204" }, "geometry": { "type": "LineString", "coordinates": [ [ 11.600731795059689, 44.065362302518587 ], [ 11.599498206401456, 44.065112961846104 ] ] } },
{ "type": "Feature", "properties": { "CITY_NAME": "MARRADI", "strokeColor": "#70ACCC", "RGB": "112, 172, 204" }, "geometry": { "type": "LineString", "coordinates": [ [ 11.614591871526418, 44.077834243052102 ], [ 11.61479417849376, 44.077878856831219 ], [ 11.615127926619952, 44.078030131522091 ], [ 11.615529333881222, 44.078181274176423 ] ] } },
{ "type": "Feature", "properties": { "CITY_NAME": "MARRADI", "strokeColor": "#70ACCC", "RGB": "112, 172, 204" }, "geometry": { "type": "LineString", "coordinates": [ [ 11.616849192891678, 44.078623287797193 ], [ 11.617797141610099, 44.079081471047758 ] ] } },
{ "type": "Feature", "properties": { "CITY_NAME": "MARRADI", "strokeColor": "#70ACCC", "RGB": "112, 172, 204" }, "geometry": { "type": "LineString", "coordinates": [ [ 11.618302477638233, 44.079456688671769 ], [ 11.619953170855496, 44.081118309557716 ], [ 11.620384866222803, 44.081460690762043 ] ] } },
{ "type": "Feature", "properties": { "CITY_NAME": "MARRADI", "strokeColor": "#70ACCC", "RGB": "112, 172, 204" }, "geometry": { "type": "LineString", "coordinates": [ [ 11.612842493698762, 44.07543323465854 ], [ 11.612995828761687, 44.075742032336692 ], [ 11.613078672713298, 44.076069640804718 ] ] } },
{ "type": "Feature", "properties": { "CITY_NAME": "MARRADI", "strokeColor": "#70ACCC", "RGB": "112, 172, 204" }, "geometry": { "type": "LineString", "coordinates": [ [ 11.617364811179343, 44.07788278978164 ], [ 11.617553339364347, 44.077837104010698 ], [ 11.617945120941251, 44.077865619118796 ], [ 11.618274162422656, 44.077984939771561 ], [ 11.620344298361198, 44.080031486283509 ], [ 11.621238604011777, 44.080992809113219 ] ] } },
{ "type": "Feature", "properties": { "CITY_NAME": "MARRADI", "strokeColor": "#70ACCC", "RGB": "112, 172, 204" }, "geometry": { "type": "LineString", "coordinates": [ [ 11.617772359456829, 44.079915341819763 ], [ 11.615933288858834, 44.079132115186532 ] ] } },
{ "type": "Feature", "properties": { "CITY_NAME": "MARRADI", "strokeColor": "#70ACCC", "RGB": "112, 172, 204" }, "geometry": { "type": "LineString", "coordinates": [ [ 11.609365641251081, 44.072963756226024 ], [ 11.609098011883953, 44.072699490939016 ] ] } },
{ "type": "Feature", "properties": { "CITY_NAME": "MARRADI", "strokeColor": "#70ACCC", "RGB": "112, 172, 204" }, "geometry": { "type": "LineString", "coordinates": [ [ 11.618302477638233, 44.079456688671769 ], [ 11.618116631192319, 44.07949569152494 ] ] } },
{ "type": "Feature", "properties": { "CITY_NAME": "MARRADI", "strokeColor": "#70ACCC", "RGB": "112, 172, 204" }, "geometry": { "type": "LineString", "coordinates": [ [ 11.613360959544107, 44.076266103732635 ], [ 11.613586621493095, 44.076211944437219 ], [ 11.613782683554506, 44.076104440275444 ], [ 11.614554725357349, 44.076631742862986 ] ] } },
{ "type": "Feature", "properties": { "CITY_NAME": "MARRADI", "strokeColor": "#70ACCC", "RGB": "112, 172, 204" }, "geometry": { "type": "LineString", "coordinates": [ [ 11.608960643725435, 44.071852801215321 ], [ 11.609409749691705, 44.072083146256894 ] ] } },
{ "type": "Feature", "properties": { "CITY_NAME": "MARRADI", "strokeColor": "#70ACCC", "RGB": "112, 172, 204" }, "geometry": { "type": "LineString", "coordinates": [ [ 11.617577720058691, 44.080131298161383 ], [ 11.616449312633735, 44.079598857256471 ], [ 11.615835669124525, 44.079395520980782 ] ] } },
{ "type": "Feature", "properties": { "CITY_NAME": "MARRADI", "strokeColor": "#70ACCC", "RGB": "112, 172, 204" }, "geometry": { "type": "LineString", "coordinates": [ [ 11.613723816652479, 44.07717683417404 ], [ 11.613632544641284, 44.076869290751802 ] ] } },
{ "type": "Feature", "properties": { "CITY_NAME": "MARRADI", "strokeColor": "#70ACCC", "RGB": "112, 172, 204" }, "geometry": { "type": "LineString", "coordinates": [ [ 11.623873090592058, 44.084761834802421 ], [ 11.623625044026975, 44.084967065417949 ] ] } },
{ "type": "Feature", "properties": { "CITY_NAME": "MARRADI", "strokeColor": "#70ACCC", "RGB": "112, 172, 204" }, "geometry": { "type": "LineString", "coordinates": [ [ 11.610178934890159, 44.07375240031584 ], [ 11.609365641251081, 44.072963756226024 ] ] } },
{ "type": "Feature", "properties": { "CITY_NAME": "MARRADI", "strokeColor": "#70ACCC", "RGB": "112, 172, 204" }, "geometry": { "type": "LineString", "coordinates": [ [ 11.608574971685467, 44.072051231796863 ], [ 11.609098011883953, 44.072699490939016 ] ] } },
{ "type": "Feature", "properties": { "CITY_NAME": "MARRADI", "strokeColor": "#70ACCC", "RGB": "112, 172, 204" }, "geometry": { "type": "LineString", "coordinates": [ [ 11.622371990902645, 44.082671560037156 ], [ 11.622206789001726, 44.082556958640474 ], [ 11.621864281889106, 44.0822387577619 ], [ 11.621077295826945, 44.081226801847691 ], [ 11.621238604011777, 44.080992809113219 ] ] } },
{ "type": "Feature", "properties": { "CITY_NAME": "MARRADI", "strokeColor": "#70ACCC", "RGB": "112, 172, 204" }, "geometry": { "type": "LineString", "coordinates": [ [ 11.603267178690386, 44.065528729408925 ], [ 11.604095332887413, 44.066569483493957 ] ] } },
{ "type": "Feature", "properties": { "CITY_NAME": "MARRADI", "strokeColor": "#70ACCC", "RGB": "112, 172, 204" }, "geometry": { "type": "LineString", "coordinates": [ [ 11.601627839109916, 44.065283708001921 ], [ 11.601746516292781, 44.065383340091905 ], [ 11.602094670908604, 44.065752208888952 ], [ 11.602330420049153, 44.065978651958162 ] ] } },
{ "type": "Feature", "properties": { "CITY_NAME": "MARRADI", "strokeColor": "#70ACCC", "RGB": "112, 172, 204" }, "geometry": { "type": "LineString", "coordinates": [ [ 11.617990848772667, 44.079650663740026 ], [ 11.618308479772265, 44.079961507999428 ], [ 11.619462088466326, 44.081245097627388 ] ] } },
{ "type": "Feature", "properties": { "CITY_NAME": "MARRADI", "strokeColor": "#70ACCC", "RGB": "112, 172, 204" }, "geometry": { "type": "LineString", "coordinates": [ [ 11.613360959544107, 44.076266103732635 ], [ 11.613483294681572, 44.076503481238966 ] ] } },
{ "type": "Feature", "properties": { "CITY_NAME": "MARRADI", "strokeColor": "#70ACCC", "RGB": "112, 172, 204" }, "geometry": { "type": "LineString", "coordinates": [ [ 11.624068387596058, 44.08668309119745 ], [ 11.624391653527866, 44.087423248001116 ], [ 11.624471911213812, 44.087484212085542 ] ] } },
{ "type": "Feature", "properties": { "CITY_NAME": "MARRADI", "strokeColor": "#70ACCC", "RGB": "112, 172, 204" }, "geometry": { "type": "LineString", "coordinates": [ [ 11.612526399955573, 44.075391172486839 ], [ 11.612739601383455, 44.075435665798338 ] ] } },
{ "type": "Feature", "properties": { "CITY_NAME": "MARRADI", "strokeColor": "#70ACCC", "RGB": "112, 172, 204" }, "geometry": { "type": "LineString", "coordinates": [ [ 11.614618535295657, 44.073315688245927 ], [ 11.614390778309287, 44.073411143363636 ], [ 11.614164786494829, 44.073478961374185 ], [ 11.613278163811477, 44.073669050926895 ], [ 11.612543141997737, 44.073883153851092 ] ] } },
{ "type": "Feature", "properties": { "CITY_NAME": "MARRADI", "strokeColor": "#CACC70", "RGB": "202, 204, 112" }, "geometry": { "type": "LineString", "coordinates": [ [ 11.625724601701068, 44.086585412546476 ], [ 11.625601495250313, 44.08644775633411 ] ] } },
{ "type": "Feature", "properties": { "CITY_NAME": "MARRADI", "strokeColor": "#CACC70", "RGB": "202, 204, 112" }, "geometry": { "type": "LineString", "coordinates": [ [ 11.625601495250313, 44.08644775633411 ], [ 11.625230547914054, 44.085805756746716 ] ] } },
{ "type": "Feature", "properties": { "CITY_NAME": "MARRADI", "strokeColor": "#70ACCC", "RGB": "112, 172, 204" }, "geometry": { "type": "LineString", "coordinates": [ [ 11.616153279865991, 44.076917085889598 ], [ 11.616670556289749, 44.077109236204315 ], [ 11.617143754824465, 44.07702605601613 ], [ 11.617061015559118, 44.076652097658183 ], [ 11.618290562548237, 44.076622996572539 ] ] } },
{ "type": "Feature", "properties": { "CITY_NAME": "MARRADI", "strokeColor": "#70ACCC", "RGB": "112, 172, 204" }, "geometry": { "type": "LineString", "coordinates": [ [ 11.618394572254958, 44.081176738606267 ], [ 11.618075580140884, 44.081063246107576 ], [ 11.617740629705013, 44.080882429033366 ] ] } },
{ "type": "Feature", "properties": { "CITY_NAME": "MARRADI", "strokeColor": "#70ACCC", "RGB": "112, 172, 204" }, "geometry": { "type": "LineString", "coordinates": [ [ 11.602887196040529, 44.068032339563132 ], [ 11.603085144571855, 44.068305544965888 ] ] } },
{ "type": "Feature", "properties": { "CITY_NAME": "MARRADI", "strokeColor": "#70ACCC", "RGB": "112, 172, 204" }, "geometry": { "type": "LineString", "coordinates": [ [ 11.61339089400054, 44.076439660465219 ], [ 11.612910386952978, 44.076330791993605 ], [ 11.612746733233417, 44.076271793811536 ], [ 11.612348695937531, 44.075984015433228 ], [ 11.611652471095727, 44.075457533961725 ], [ 11.61158281142059, 44.07537345317612 ], [ 11.61151430665557, 44.07525505501107 ], [ 11.611517862989675, 44.075093047024332 ], [ 11.611499923787513, 44.074987004962864 ] ] } },
{ "type": "Feature", "properties": { "CITY_NAME": "MARRADI", "strokeColor": "#70ACCC", "RGB": "112, 172, 204" }, "geometry": { "type": "LineString", "coordinates": [ [ 11.613078672713298, 44.076069640804718 ], [ 11.61288245072654, 44.076051416767378 ], [ 11.612834976966335, 44.075747738278068 ], [ 11.612739601383455, 44.075435665798338 ] ] } },
{ "type": "Feature", "properties": { "CITY_NAME": "MARRADI", "strokeColor": "#70ACCC", "RGB": "112, 172, 204" }, "geometry": { "type": "LineString", "coordinates": [ [ 11.608960643725435, 44.071852801215321 ], [ 11.608662074181229, 44.071588289323685 ] ] } },
{ "type": "Feature", "properties": { "CITY_NAME": "MARRADI", "strokeColor": "#70ACCC", "RGB": "112, 172, 204" }, "geometry": { "type": "LineString", "coordinates": [ [ 11.612751667294658, 44.074270870465966 ], [ 11.612963873688939, 44.074457717596808 ] ] } },
{ "type": "Feature", "properties": { "CITY_NAME": "MARRADI", "strokeColor": "#70ACCC", "RGB": "112, 172, 204" }, "geometry": { "type": "LineString", "coordinates": [ [ 11.613931081479059, 44.077671608516404 ], [ 11.613723816652479, 44.07717683417404 ] ] } },
{ "type": "Feature", "properties": { "CITY_NAME": "MARRADI", "strokeColor": "#70ACCC", "RGB": "112, 172, 204" }, "geometry": { "type": "LineString", "coordinates": [ [ 11.622076721124364, 44.082700660142883 ], [ 11.622836605994847, 44.083451489007281 ], [ 11.623412817837375, 44.084213651936601 ], [ 11.623873090592058, 44.084761834802421 ] ] } },
{ "type": "Feature", "properties": { "CITY_NAME": "MARRADI", "strokeColor": "#70ACCC", "RGB": "112, 172, 204" }, "geometry": { "type": "LineString", "coordinates": [ [ 11.612739601383455, 44.075435665798338 ], [ 11.612842493698762, 44.07543323465854 ] ] } },
{ "type": "Feature", "properties": { "CITY_NAME": "MARRADI", "strokeColor": "#70ACCC", "RGB": "112, 172, 204" }, "geometry": { "type": "LineString", "coordinates": [ [ 11.625069439101667, 44.086628156164814 ], [ 11.625403448693028, 44.087049132412538 ], [ 11.625682760113214, 44.087447768573696 ], [ 11.625935376852443, 44.087679280227228 ], [ 11.626183512430179, 44.087805982655432 ], [ 11.626509622503583, 44.087937685381242 ] ] } },
{ "type": "Feature", "properties": { "CITY_NAME": "MARRADI", "strokeColor": "#70ACCC", "RGB": "112, 172, 204" }, "geometry": { "type": "LineString", "coordinates": [ [ 11.606225558843683, 44.071197571517807 ], [ 11.60682684220161, 44.070708168582698 ] ] } },
{ "type": "Feature", "properties": { "CITY_NAME": "MARRADI", "strokeColor": "#70ACCC", "RGB": "112, 172, 204" }, "geometry": { "type": "LineString", "coordinates": [ [ 11.624471911213812, 44.087484212085542 ], [ 11.625113157874683, 44.087286866323595 ], [ 11.624989873869243, 44.087129084507673 ] ] } },
{ "type": "Feature", "properties": { "CITY_NAME": "MARRADI", "strokeColor": "#CACC70", "RGB": "202, 204, 112" }, "geometry": { "type": "LineString", "coordinates": [ [ 11.618075211750101, 44.071720489226188 ], [ 11.617552037421795, 44.071945419221791 ] ] } },
{ "type": "Feature", "properties": { "CITY_NAME": "MARRADI", "strokeColor": "#70ACCC", "RGB": "112, 172, 204" }, "geometry": { "type": "LineString", "coordinates": [ [ 11.601627839109916, 44.065283708001921 ], [ 11.601126915614325, 44.065323391607173 ] ] } },
{ "type": "Feature", "properties": { "CITY_NAME": "MARRADI", "strokeColor": "#70ACCC", "RGB": "112, 172, 204" }, "geometry": { "type": "LineString", "coordinates": [ [ 11.610571001506214, 44.074097682431301 ], [ 11.611129149703325, 44.074605778728824 ] ] } },
{ "type": "Feature", "properties": { "CITY_NAME": "MARRADI", "strokeColor": "#70ACCC", "RGB": "112, 172, 204" }, "geometry": { "type": "LineString", "coordinates": [ [ 11.613632544641284, 44.076869290751802 ], [ 11.613578194287399, 44.076688393708238 ], [ 11.613483294681572, 44.076503481238966 ] ] } },
{ "type": "Feature", "properties": { "CITY_NAME": "MARRADI", "strokeColor": "#70ACCC", "RGB": "112, 172, 204" }, "geometry": { "type": "LineString", "coordinates": [ [ 11.61194269652915, 44.074072573258924 ], [ 11.611930077632678, 44.074026273708476 ], [ 11.611920120384593, 44.073878892424034 ], [ 11.611890626343094, 44.073839537654941 ], [ 11.611670904445365, 44.07365692440419 ], [ 11.611426700630123, 44.073312250761994 ] ] } },
{ "type": "Feature", "properties": { "CITY_NAME": "MARRADI", "strokeColor": "#70ACCC", "RGB": "112, 172, 204" }, "geometry": { "type": "LineString", "coordinates": [ [ 11.613931081479059, 44.077671608516404 ], [ 11.613897611183548, 44.077792109362704 ], [ 11.614425667124728, 44.077979043452586 ], [ 11.614649747162138, 44.078174991228728 ], [ 11.614763133480789, 44.078391850746598 ], [ 11.614796815967033, 44.078686859984614 ], [ 11.614568092305342, 44.079071536922406 ], [ 11.614446887092853, 44.079409423864966 ] ] } },
{ "type": "Feature", "properties": { "CITY_NAME": "MARRADI", "strokeColor": "#70ACCC", "RGB": "112, 172, 204" }, "geometry": { "type": "LineString", "coordinates": [ [ 11.613632544641284, 44.076869290751802 ], [ 11.614312963988386, 44.076762467531715 ], [ 11.614554725357349, 44.076631742862986 ] ] } },
{ "type": "Feature", "properties": { "CITY_NAME": "MARRADI", "strokeColor": "#70ACCC", "RGB": "112, 172, 204" }, "geometry": { "type": "LineString", "coordinates": [ [ 11.613360959544107, 44.076266103732635 ], [ 11.613298390261342, 44.076130961928968 ], [ 11.613182526673908, 44.075390591786039 ] ] } },
{ "type": "Feature", "properties": { "CITY_NAME": "MARRADI", "strokeColor": "#70ACCC", "RGB": "112, 172, 204" }, "geometry": { "type": "LineString", "coordinates": [ [ 11.624951821861991, 44.086479902481933 ], [ 11.625069439101667, 44.086628156164814 ] ] } },
{ "type": "Feature", "properties": { "CITY_NAME": "MARRADI", "strokeColor": "#70ACCC", "RGB": "112, 172, 204" }, "geometry": { "type": "LineString", "coordinates": [ [ 11.613182526673908, 44.075390591786039 ], [ 11.613190953679931, 44.075088660800546 ] ] } },
{ "type": "Feature", "properties": { "CITY_NAME": "MARRADI", "strokeColor": "#70ACCC", "RGB": "112, 172, 204" }, "geometry": { "type": "LineString", "coordinates": [ [ 11.613190953679931, 44.075088660800546 ], [ 11.613203581142281, 44.074968267139752 ], [ 11.613442028811539, 44.074638804796656 ], [ 11.613338547881423, 44.074514722500091 ] ] } },
{ "type": "Feature", "properties": { "CITY_NAME": "MARRADI", "strokeColor": "#70ACCC", "RGB": "112, 172, 204" }, "geometry": { "type": "LineString", "coordinates": [ [ 11.607651941240087, 44.071287091285129 ], [ 11.608271117738219, 44.071747500654105 ], [ 11.608574971685467, 44.072051231796863 ] ] } },
{ "type": "Feature", "properties": { "CITY_NAME": "MARRADI", "strokeColor": "#70ACCC", "RGB": "112, 172, 204" }, "geometry": { "type": "LineString", "coordinates": [ [ 11.607994030832909, 44.071084542877749 ], [ 11.607673352282864, 44.070671166812033 ], [ 11.60759808563852, 44.070553052976905 ] ] } },
{ "type": "Feature", "properties": { "CITY_NAME": "MARRADI", "strokeColor": "#70ACCC", "RGB": "112, 172, 204" }, "geometry": { "type": "LineString", "coordinates": [ [ 11.616849192891678, 44.078623287797193 ], [ 11.617002482333032, 44.078423844968434 ], [ 11.617018092763164, 44.078344462694787 ], [ 11.616929327424327, 44.07827442049318 ], [ 11.616675371028336, 44.078129272133467 ] ] } },
{ "type": "Feature", "properties": { "CITY_NAME": "MARRADI", "strokeColor": "#70ACCC", "RGB": "112, 172, 204" }, "geometry": { "type": "LineString", "coordinates": [ [ 11.613931081479059, 44.077671608516404 ], [ 11.614591871526418, 44.077834243052102 ] ] } },
{ "type": "Feature", "properties": { "CITY_NAME": "MARRADI", "strokeColor": "#70ACCC", "RGB": "112, 172, 204" }, "geometry": { "type": "LineString", "coordinates": [ [ 11.615529333881222, 44.078181274176423 ], [ 11.61567258497965, 44.078235621108149 ] ] } },
{ "type": "Feature", "properties": { "CITY_NAME": "MARRADI", "strokeColor": "#70ACCC", "RGB": "112, 172, 204" }, "geometry": { "type": "LineString", "coordinates": [ [ 11.625601495250313, 44.08644775633411 ], [ 11.625069439101667, 44.086628156164814 ] ] } },
{ "type": "Feature", "properties": { "CITY_NAME": "MARRADI", "strokeColor": "#70ACCC", "RGB": "112, 172, 204" }, "geometry": { "type": "LineString", "coordinates": [ [ 11.608574971685467, 44.072051231796863 ], [ 11.608960643725435, 44.071852801215321 ] ] } },
{ "type": "Feature", "properties": { "CITY_NAME": "MARRADI", "strokeColor": "#70ACCC", "RGB": "112, 172, 204" }, "geometry": { "type": "LineString", "coordinates": [ [ 11.601742728607604, 44.065121232960905 ], [ 11.601959728537423, 44.064866095625 ], [ 11.602012465018465, 44.064756522678358 ], [ 11.602188872331945, 44.063861444602168 ], [ 11.602201848244945, 44.063775523146106 ] ] } },
{ "type": "Feature", "properties": { "CITY_NAME": "MARRADI", "strokeColor": "#70ACCC", "RGB": "112, 172, 204" }, "geometry": { "type": "LineString", "coordinates": [ [ 11.610178934890159, 44.07375240031584 ], [ 11.610571001506214, 44.074097682431301 ] ] } },
{ "type": "Feature", "properties": { "CITY_NAME": "MARRADI", "strokeColor": "#70ACCC", "RGB": "112, 172, 204" }, "geometry": { "type": "LineString", "coordinates": [ [ 11.605134280082121, 44.068743169070515 ], [ 11.605980708880935, 44.06970902738211 ], [ 11.60682684220161, 44.070708168582698 ] ] } },
{ "type": "Feature", "properties": { "CITY_NAME": "MARRADI", "strokeColor": "#70ACCC", "RGB": "112, 172, 204" }, "geometry": { "type": "LineString", "coordinates": [ [ 11.616148780572438, 44.078396103050025 ], [ 11.615924814994042, 44.078394373484706 ], [ 11.615632650895323, 44.078356624352644 ], [ 11.61554866117058, 44.078408252622822 ], [ 11.615599717234643, 44.078479396567523 ], [ 11.615868341307428, 44.078639768571009 ], [ 11.61610333864625, 44.078728582467811 ] ] } },
{ "type": "Feature", "properties": { "CITY_NAME": "MARRADI", "strokeColor": "#70ACCC", "RGB": "112, 172, 204" }, "geometry": { "type": "LineString", "coordinates": [ [ 11.600576967691156, 44.063949845176992 ], [ 11.60045726337925, 44.063999124799523 ], [ 11.600281004124131, 44.064137623722409 ], [ 11.600036379016752, 44.064256544465849 ], [ 11.597780147296504, 44.063507838647972 ] ] } },
{ "type": "Feature", "properties": { "CITY_NAME": "MARRADI", "strokeColor": "#CACC70", "RGB": "202, 204, 112" }, "geometry": { "type": "LineString", "coordinates": [ [ 11.602243748656873, 44.063114655799232 ], [ 11.601394041022354, 44.063050437580891 ] ] } }
]
}
