{
"type": "FeatureCollection",
"name": "MOLINELLA",
"crs": { "type": "name", "properties": { "name": "urn:ogc:def:crs:OGC:1.3:CRS84" } },
"features": [
{ "type": "Feature", "properties": { "CITY_NAME": "MOLINELLA", "strokeColor": "#70ACCC", "RGB": "112, 172, 204" }, "geometry": { "type": "LineString", "coordinates": [ [ 11.666530152231179, 44.615726196270963 ], [ 11.666778379180766, 44.615705810702082 ] ] } },
{ "type": "Feature", "properties": { "CITY_NAME": "MOLINELLA", "strokeColor": "#70ACCC", "RGB": "112, 172, 204" }, "geometry": { "type": "LineString", "coordinates": [ [ 11.672901376422006, 44.620199074797156 ], [ 11.673246867744584, 44.620063177734842 ] ] } },
{ "type": "Feature", "properties": { "CITY_NAME": "MOLINELLA", "strokeColor": "#70ACCC", "RGB": "112, 172, 204" }, "geometry": { "type": "LineString", "coordinates": [ [ 11.716907178535402, 44.618827641907686 ], [ 11.716990144636416, 44.618807147058909 ] ] } },
{ "type": "Feature", "properties": { "CITY_NAME": "MOLINELLA", "strokeColor": "#70ACCC", "RGB": "112, 172, 204" }, "geometry": { "type": "LineString", "coordinates": [ [ 11.673246867744584, 44.620063177734842 ], [ 11.67365747239546, 44.619781091286733 ] ] } },
{ "type": "Feature", "properties": { "CITY_NAME": "MOLINELLA", "strokeColor": "#70ACCC", "RGB": "112, 172, 204" }, "geometry": { "type": "LineString", "coordinates": [ [ 11.668048056717419, 44.618966946373511 ], [ 11.668021740517824, 44.618888985126851 ], [ 11.667825323197164, 44.618592381029536 ] ] } },
{ "type": "Feature", "properties": { "CITY_NAME": "MOLINELLA", "strokeColor": "#70ACCC", "RGB": "112, 172, 204" }, "geometry": { "type": "LineString", "coordinates": [ [ 11.669498597754362, 44.619018850441655 ], [ 11.669505729772315, 44.618946179283249 ], [ 11.669336910867619, 44.618328265350947 ] ] } },
{ "type": "Feature", "properties": { "CITY_NAME": "MOLINELLA", "strokeColor": "#70ACCC", "RGB": "112, 172, 204" }, "geometry": { "type": "LineString", "coordinates": [ [ 11.673422986844802, 44.616515097993542 ], [ 11.673010299199449, 44.616553052536212 ] ] } },
{ "type": "Feature", "properties": { "CITY_NAME": "MOLINELLA", "strokeColor": "#70ACCC", "RGB": "112, 172, 204" }, "geometry": { "type": "LineString", "coordinates": [ [ 11.678059448540598, 44.616636320718712 ], [ 11.678532181730846, 44.616739640965086 ] ] } },
{ "type": "Feature", "properties": { "CITY_NAME": "MOLINELLA", "strokeColor": "#70ACCC", "RGB": "112, 172, 204" }, "geometry": { "type": "LineString", "coordinates": [ [ 11.679264570661733, 44.616157854054805 ], [ 11.680244170017426, 44.616395347819463 ] ] } },
{ "type": "Feature", "properties": { "CITY_NAME": "MOLINELLA", "strokeColor": "#70ACCC", "RGB": "112, 172, 204" }, "geometry": { "type": "LineString", "coordinates": [ [ 11.665688229683878, 44.615087645894114 ], [ 11.666080316769825, 44.615058675753282 ], [ 11.666410786359704, 44.615031286095991 ], [ 11.666546466343116, 44.615024514247523 ], [ 11.666666722120095, 44.615019973328529 ] ] } },
{ "type": "Feature", "properties": { "CITY_NAME": "MOLINELLA", "strokeColor": "#70ACCC", "RGB": "112, 172, 204" }, "geometry": { "type": "LineString", "coordinates": [ [ 11.666666722120095, 44.615019973328529 ], [ 11.666614474275592, 44.614753552031061 ], [ 11.666552444982996, 44.614397208357168 ] ] } },
{ "type": "Feature", "properties": { "CITY_NAME": "MOLINELLA", "strokeColor": "#70ACCC", "RGB": "112, 172, 204" }, "geometry": { "type": "LineString", "coordinates": [ [ 11.666552444982996, 44.614397208357168 ], [ 11.666033898993989, 44.614436103003499 ], [ 11.665688096877389, 44.614466882594378 ] ] } },
{ "type": "Feature", "properties": { "CITY_NAME": "MOLINELLA", "strokeColor": "#70ACCC", "RGB": "112, 172, 204" }, "geometry": { "type": "LineString", "coordinates": [ [ 11.648511086940674, 44.653443725168977 ], [ 11.64856195697973, 44.653391776807972 ], [ 11.648586046915222, 44.653309261278736 ], [ 11.649008925848573, 44.652495315551015 ], [ 11.649090667062294, 44.652389442917077 ], [ 11.649215240297975, 44.652223344133716 ] ] } },
{ "type": "Feature", "properties": { "CITY_NAME": "MOLINELLA", "strokeColor": "#70ACCC", "RGB": "112, 172, 204" }, "geometry": { "type": "LineString", "coordinates": [ [ 11.679618630426795, 44.618207395228332 ], [ 11.67954506865169, 44.617886167067745 ] ] } },
{ "type": "Feature", "properties": { "CITY_NAME": "MOLINELLA", "strokeColor": "#70ACCC", "RGB": "112, 172, 204" }, "geometry": { "type": "LineString", "coordinates": [ [ 11.659849790061008, 44.622948875284465 ], [ 11.660801538057543, 44.622667124462254 ] ] } },
{ "type": "Feature", "properties": { "CITY_NAME": "MOLINELLA", "strokeColor": "#B3B3B3", "RGB": "179, 179, 179" }, "geometry": { "type": "LineString", "coordinates": [ [ 11.664774268212655, 44.614557574782857 ], [ 11.664203838236322, 44.614595469632484 ], [ 11.663888031535189, 44.614600788766943 ], [ 11.663660448361593, 44.614587630344282 ] ] } },
{ "type": "Feature", "properties": { "CITY_NAME": "MOLINELLA", "strokeColor": "#70ACCC", "RGB": "112, 172, 204" }, "geometry": { "type": "LineString", "coordinates": [ [ 11.670949102896644, 44.618873367617148 ], [ 11.672592861299336, 44.618703147746444 ] ] } },
{ "type": "Feature", "properties": { "CITY_NAME": "MOLINELLA", "strokeColor": "#70ACCC", "RGB": "112, 172, 204" }, "geometry": { "type": "LineString", "coordinates": [ [ 11.669336910867619, 44.618328265350947 ], [ 11.670032439552539, 44.618198592519029 ] ] } },
{ "type": "Feature", "properties": { "CITY_NAME": "MOLINELLA", "strokeColor": "#70ACCC", "RGB": "112, 172, 204" }, "geometry": { "type": "LineString", "coordinates": [ [ 11.679372137860474, 44.616921993963082 ], [ 11.679357479911754, 44.616696650858799 ], [ 11.67933941018075, 44.616566209124194 ], [ 11.679264570661733, 44.616157854054805 ] ] } },
{ "type": "Feature", "properties": { "CITY_NAME": "MOLINELLA", "strokeColor": "#70ACCC", "RGB": "112, 172, 204" }, "geometry": { "type": "LineString", "coordinates": [ [ 11.674780542753728, 44.623873476659938 ], [ 11.674959188752178, 44.624021153538735 ], [ 11.67612421882272, 44.625031851912794 ], [ 11.677080203802682, 44.624430801708804 ], [ 11.67653019585698, 44.624029796632854 ], [ 11.675653093283309, 44.623365144948067 ], [ 11.674780542753728, 44.623873476659938 ] ] } },
{ "type": "Feature", "properties": { "CITY_NAME": "MOLINELLA", "strokeColor": "#70ACCC", "RGB": "112, 172, 204" }, "geometry": { "type": "LineString", "coordinates": [ [ 11.672418305475315, 44.623664997589316 ], [ 11.672142448812547, 44.623847679231069 ], [ 11.671886809884699, 44.62400488006341 ], [ 11.671816571302594, 44.624049768258644 ] ] } },
{ "type": "Feature", "properties": { "CITY_NAME": "MOLINELLA", "strokeColor": "#70ACCC", "RGB": "112, 172, 204" }, "geometry": { "type": "LineString", "coordinates": [ [ 11.668129543135148, 44.621905374041511 ], [ 11.668358806288195, 44.621857984598336 ] ] } },
{ "type": "Feature", "properties": { "CITY_NAME": "MOLINELLA", "strokeColor": "#B3B3B3", "RGB": "179, 179, 179" }, "geometry": { "type": "LineString", "coordinates": [ [ 11.658850660450987, 44.623259018136061 ], [ 11.659017914485096, 44.623203960067443 ] ] } },
{ "type": "Feature", "properties": { "CITY_NAME": "MOLINELLA", "strokeColor": "#70ACCC", "RGB": "112, 172, 204" }, "geometry": { "type": "LineString", "coordinates": [ [ 11.660801538057543, 44.622667124462254 ], [ 11.661605177168584, 44.62242801711978 ] ] } },
{ "type": "Feature", "properties": { "CITY_NAME": "MOLINELLA", "strokeColor": "#70ACCC", "RGB": "112, 172, 204" }, "geometry": { "type": "LineString", "coordinates": [ [ 11.661605177168584, 44.62242801711978 ], [ 11.662467938918924, 44.622176723811627 ] ] } },
{ "type": "Feature", "properties": { "CITY_NAME": "MOLINELLA", "strokeColor": "#70ACCC", "RGB": "112, 172, 204" }, "geometry": { "type": "LineString", "coordinates": [ [ 11.665645453413347, 44.615821668492558 ], [ 11.665688369565615, 44.615817519780151 ] ] } },
{ "type": "Feature", "properties": { "CITY_NAME": "MOLINELLA", "strokeColor": "#70ACCC", "RGB": "112, 172, 204" }, "geometry": { "type": "LineString", "coordinates": [ [ 11.664320950579757, 44.615339651774242 ], [ 11.664407781208038, 44.615384499261324 ], [ 11.664565104355312, 44.615379470594839 ], [ 11.665147635954899, 44.615325599266491 ], [ 11.665688268525233, 44.61526691685691 ] ] } },
{ "type": "Feature", "properties": { "CITY_NAME": "MOLINELLA", "strokeColor": "#70ACCC", "RGB": "112, 172, 204" }, "geometry": { "type": "LineString", "coordinates": [ [ 11.669307843771472, 44.621069225237719 ], [ 11.668940936781333, 44.620453829972838 ] ] } },
{ "type": "Feature", "properties": { "CITY_NAME": "MOLINELLA", "strokeColor": "#70ACCC", "RGB": "112, 172, 204" }, "geometry": { "type": "LineString", "coordinates": [ [ 11.66723367216809, 44.619691047033157 ], [ 11.66632755326223, 44.619975145330379 ] ] } },
{ "type": "Feature", "properties": { "CITY_NAME": "MOLINELLA", "strokeColor": "#70ACCC", "RGB": "112, 172, 204" }, "geometry": { "type": "LineString", "coordinates": [ [ 11.719372788049698, 44.619367119426407 ], [ 11.719339905570138, 44.619301443749421 ], [ 11.719293488010292, 44.619208503663124 ], [ 11.719164709672583, 44.618967472392825 ], [ 11.719153048641846, 44.618935371355803 ], [ 11.719140853805367, 44.618892003049019 ], [ 11.719122952284714, 44.618773813258123 ], [ 11.719112699013342, 44.618671812073622 ], [ 11.719080497207784, 44.618388956483734 ], [ 11.719062045786586, 44.618343564054705 ], [ 11.719037601388017, 44.618271029077988 ] ] } },
{ "type": "Feature", "properties": { "CITY_NAME": "MOLINELLA", "strokeColor": "#70ACCC", "RGB": "112, 172, 204" }, "geometry": { "type": "LineString", "coordinates": [ [ 11.668298996721632, 44.619372717558264 ], [ 11.66723367216809, 44.619691047033157 ] ] } },
{ "type": "Feature", "properties": { "CITY_NAME": "MOLINELLA", "strokeColor": "#70ACCC", "RGB": "112, 172, 204" }, "geometry": { "type": "LineString", "coordinates": [ [ 11.669695371522971, 44.619742535485031 ], [ 11.669498597754362, 44.619018850441655 ] ] } },
{ "type": "Feature", "properties": { "CITY_NAME": "MOLINELLA", "strokeColor": "#70ACCC", "RGB": "112, 172, 204" }, "geometry": { "type": "LineString", "coordinates": [ [ 11.719738756967651, 44.618080409344778 ], [ 11.7198678541228, 44.618049697221288 ], [ 11.720850842585049, 44.617781239243094 ], [ 11.721067013644356, 44.617718420553672 ] ] } },
{ "type": "Feature", "properties": { "CITY_NAME": "MOLINELLA", "strokeColor": "#70ACCC", "RGB": "112, 172, 204" }, "geometry": { "type": "LineString", "coordinates": [ [ 11.666841973461288, 44.618937771121686 ], [ 11.666991085907862, 44.619215605070657 ], [ 11.667029758753971, 44.619298885383586 ] ] } },
{ "type": "Feature", "properties": { "CITY_NAME": "MOLINELLA", "strokeColor": "#70ACCC", "RGB": "112, 172, 204" }, "geometry": { "type": "LineString", "coordinates": [ [ 11.665853304783894, 44.616666507152672 ], [ 11.665872992549183, 44.616815467178654 ], [ 11.665868639188986, 44.616903390798335 ], [ 11.665899507782683, 44.616984709448289 ], [ 11.665921741320643, 44.617074861287257 ] ] } },
{ "type": "Feature", "properties": { "CITY_NAME": "MOLINELLA", "strokeColor": "#70ACCC", "RGB": "112, 172, 204" }, "geometry": { "type": "LineString", "coordinates": [ [ 11.674245024451443, 44.618528558928496 ], [ 11.675079002591481, 44.618460272544262 ] ] } },
{ "type": "Feature", "properties": { "CITY_NAME": "MOLINELLA", "strokeColor": "#70ACCC", "RGB": "112, 172, 204" }, "geometry": { "type": "LineString", "coordinates": [ [ 11.670032439552539, 44.618198592519029 ], [ 11.67076219200325, 44.618077218681584 ] ] } },
{ "type": "Feature", "properties": { "CITY_NAME": "MOLINELLA", "strokeColor": "#70ACCC", "RGB": "112, 172, 204" }, "geometry": { "type": "LineString", "coordinates": [ [ 11.665853304783894, 44.616666507152672 ], [ 11.665688398648825, 44.615977442109958 ] ] } },
{ "type": "Feature", "properties": { "CITY_NAME": "MOLINELLA", "strokeColor": "#70ACCC", "RGB": "112, 172, 204" }, "geometry": { "type": "LineString", "coordinates": [ [ 11.666778379180766, 44.615705810702082 ], [ 11.666729474581867, 44.615350849344566 ], [ 11.666697314670113, 44.61516337604003 ] ] } },
{ "type": "Feature", "properties": { "CITY_NAME": "MOLINELLA", "strokeColor": "#70ACCC", "RGB": "112, 172, 204" }, "geometry": { "type": "LineString", "coordinates": [ [ 11.67919841968774, 44.615799560700538 ], [ 11.678940360918588, 44.614484368791054 ] ] } },
{ "type": "Feature", "properties": { "CITY_NAME": "MOLINELLA", "strokeColor": "#70ACCC", "RGB": "112, 172, 204" }, "geometry": { "type": "LineString", "coordinates": [ [ 11.67897728704637, 44.618936468783509 ], [ 11.679142867581591, 44.618739152111374 ], [ 11.679433632301979, 44.618534911801781 ] ] } },
{ "type": "Feature", "properties": { "CITY_NAME": "MOLINELLA", "strokeColor": "#70ACCC", "RGB": "112, 172, 204" }, "geometry": { "type": "LineString", "coordinates": [ [ 11.610954497165327, 44.58704993805172 ], [ 11.611407259560064, 44.587121715133769 ], [ 11.611536922672681, 44.587146128336116 ] ] } },
{ "type": "Feature", "properties": { "CITY_NAME": "MOLINELLA", "strokeColor": "#B3B3B3", "RGB": "179, 179, 179" }, "geometry": { "type": "LineString", "coordinates": [ [ 11.663660448361593, 44.614587630344282 ], [ 11.66353200709618, 44.614543426606019 ], [ 11.663326021001373, 44.614421938198262 ] ] } },
{ "type": "Feature", "properties": { "CITY_NAME": "MOLINELLA", "strokeColor": "#70ACCC", "RGB": "112, 172, 204" }, "geometry": { "type": "LineString", "coordinates": [ [ 11.679618630426795, 44.618207395228332 ], [ 11.679547975552733, 44.618159707522878 ], [ 11.679477647520503, 44.618126951563823 ], [ 11.679366888618622, 44.618075482640371 ], [ 11.679266021034277, 44.618052045301098 ], [ 11.679129349973493, 44.618035702315773 ], [ 11.678917712872362, 44.618040068890643 ] ] } },
{ "type": "Feature", "properties": { "CITY_NAME": "MOLINELLA", "strokeColor": "#70ACCC", "RGB": "112, 172, 204" }, "geometry": { "type": "LineString", "coordinates": [ [ 11.610386545028204, 44.586918321372593 ], [ 11.610463703822486, 44.58696361505077 ], [ 11.610602487335967, 44.586990684389626 ], [ 11.610954497165327, 44.58704993805172 ] ] } },
{ "type": "Feature", "properties": { "CITY_NAME": "MOLINELLA", "strokeColor": "#70ACCC", "RGB": "112, 172, 204" }, "geometry": { "type": "LineString", "coordinates": [ [ 11.678051920193882, 44.620264596771719 ], [ 11.678478164150091, 44.619987413995723 ], [ 11.679068335704908, 44.619596070011177 ] ] } },
{ "type": "Feature", "properties": { "CITY_NAME": "MOLINELLA", "strokeColor": "#70ACCC", "RGB": "112, 172, 204" }, "geometry": { "type": "LineString", "coordinates": [ [ 11.666007889908022, 44.620651624519574 ], [ 11.666693533299979, 44.620599019469189 ] ] } },
{ "type": "Feature", "properties": { "CITY_NAME": "MOLINELLA", "strokeColor": "#70ACCC", "RGB": "112, 172, 204" }, "geometry": { "type": "LineString", "coordinates": [ [ 11.678532181730846, 44.616739640965086 ], [ 11.678725117627645, 44.61678179548646 ] ] } },
{ "type": "Feature", "properties": { "CITY_NAME": "MOLINELLA", "strokeColor": "#70ACCC", "RGB": "112, 172, 204" }, "geometry": { "type": "LineString", "coordinates": [ [ 11.668796838408953, 44.619850422567218 ], [ 11.668897594934675, 44.619877839117294 ], [ 11.669506063607777, 44.619680369354228 ], [ 11.669304233679707, 44.619076173906421 ] ] } },
{ "type": "Feature", "properties": { "CITY_NAME": "MOLINELLA", "strokeColor": "#70ACCC", "RGB": "112, 172, 204" }, "geometry": { "type": "LineString", "coordinates": [ [ 11.666736131366617, 44.61713050368779 ], [ 11.666624661859423, 44.617036564785295 ], [ 11.666318831870459, 44.616868266093604 ], [ 11.666014921009294, 44.616728517843711 ], [ 11.665853304783894, 44.616666507152672 ] ] } },
{ "type": "Feature", "properties": { "CITY_NAME": "MOLINELLA", "strokeColor": "#70ACCC", "RGB": "112, 172, 204" }, "geometry": { "type": "LineString", "coordinates": [ [ 11.672418305475315, 44.623664997589316 ], [ 11.672504505553498, 44.623566875966958 ], [ 11.672627865775565, 44.623495378254418 ], [ 11.672687088192914, 44.623487107260679 ], [ 11.672801828644319, 44.623458961440598 ] ] } },
{ "type": "Feature", "properties": { "CITY_NAME": "MOLINELLA", "strokeColor": "#70ACCC", "RGB": "112, 172, 204" }, "geometry": { "type": "LineString", "coordinates": [ [ 11.665964598293915, 44.617444362601539 ], [ 11.665851593253381, 44.617449913630665 ], [ 11.665718557884604, 44.617506946248348 ], [ 11.665516190552534, 44.617576886998918 ], [ 11.665450486951746, 44.617577888566196 ], [ 11.665370706185621, 44.617547346790275 ] ] } },
{ "type": "Feature", "properties": { "CITY_NAME": "MOLINELLA", "strokeColor": "#70ACCC", "RGB": "112, 172, 204" }, "geometry": { "type": "LineString", "coordinates": [ [ 11.669817073024321, 44.624752736675859 ], [ 11.669843075083394, 44.624535411369898 ], [ 11.669916567676383, 44.624023047289484 ], [ 11.669921374126837, 44.623901410786019 ], [ 11.669930630702357, 44.623582351445634 ], [ 11.66991353069462, 44.623421013769239 ], [ 11.669825877795768, 44.623111688046095 ], [ 11.669637882367276, 44.622410321299945 ], [ 11.669567043103488, 44.622169057069307 ] ] } },
{ "type": "Feature", "properties": { "CITY_NAME": "MOLINELLA", "strokeColor": "#70ACCC", "RGB": "112, 172, 204" }, "geometry": { "type": "LineString", "coordinates": [ [ 11.664678138930503, 44.616441061120156 ], [ 11.664359162894346, 44.61594981066289 ] ] } },
{ "type": "Feature", "properties": { "CITY_NAME": "MOLINELLA", "strokeColor": "#70ACCC", "RGB": "112, 172, 204" }, "geometry": { "type": "LineString", "coordinates": [ [ 11.669521754112207, 44.621673297284758 ], [ 11.669511597009983, 44.621624370136495 ], [ 11.66943204677578, 44.62133634680179 ], [ 11.669365366946026, 44.621165701563875 ] ] } },
{ "type": "Feature", "properties": { "CITY_NAME": "MOLINELLA", "strokeColor": "#70ACCC", "RGB": "112, 172, 204" }, "geometry": { "type": "LineString", "coordinates": [ [ 11.665688096877389, 44.614466882594378 ], [ 11.665123618404456, 44.614524766992403 ], [ 11.664774268212655, 44.614557574782857 ] ] } },
{ "type": "Feature", "properties": { "CITY_NAME": "MOLINELLA", "strokeColor": "#70ACCC", "RGB": "112, 172, 204" }, "geometry": { "type": "LineString", "coordinates": [ [ 11.666213470988959, 44.621060777881027 ], [ 11.665690294854972, 44.621223155939589 ] ] } },
{ "type": "Feature", "properties": { "CITY_NAME": "MOLINELLA", "strokeColor": "#70ACCC", "RGB": "112, 172, 204" }, "geometry": { "type": "LineString", "coordinates": [ [ 11.670097119046677, 44.620982410939369 ], [ 11.670195512936306, 44.620918744154103 ], [ 11.670375808845897, 44.620869663245756 ], [ 11.670619802246474, 44.620791935842782 ] ] } },
{ "type": "Feature", "properties": { "CITY_NAME": "MOLINELLA", "strokeColor": "#70ACCC", "RGB": "112, 172, 204" }, "geometry": { "type": "LineString", "coordinates": [ [ 11.666693533299979, 44.620599019469189 ], [ 11.667680068263879, 44.620528764641861 ] ] } },
{ "type": "Feature", "properties": { "CITY_NAME": "MOLINELLA", "strokeColor": "#70ACCC", "RGB": "112, 172, 204" }, "geometry": { "type": "LineString", "coordinates": [ [ 11.716990144636416, 44.618807147058909 ], [ 11.717096377242163, 44.618751762231504 ], [ 11.717664074906811, 44.618595484398426 ], [ 11.717870831241129, 44.618544530648158 ] ] } },
{ "type": "Feature", "properties": { "CITY_NAME": "MOLINELLA", "strokeColor": "#70ACCC", "RGB": "112, 172, 204" }, "geometry": { "type": "LineString", "coordinates": [ [ 11.719037601388017, 44.618271029077988 ], [ 11.719509324293822, 44.618146510512801 ], [ 11.719738756967651, 44.618080409344778 ] ] } },
{ "type": "Feature", "properties": { "CITY_NAME": "MOLINELLA", "strokeColor": "#70ACCC", "RGB": "112, 172, 204" }, "geometry": { "type": "LineString", "coordinates": [ [ 11.672592861299336, 44.618703147746444 ], [ 11.673434322263457, 44.618617271344377 ] ] } },
{ "type": "Feature", "properties": { "CITY_NAME": "MOLINELLA", "strokeColor": "#70ACCC", "RGB": "112, 172, 204" }, "geometry": { "type": "LineString", "coordinates": [ [ 11.669336910867619, 44.618328265350947 ], [ 11.66933158097447, 44.618217074563127 ], [ 11.669064499189592, 44.616980809238164 ], [ 11.669042958018679, 44.616893603609292 ] ] } },
{ "type": "Feature", "properties": { "CITY_NAME": "MOLINELLA", "strokeColor": "#70ACCC", "RGB": "112, 172, 204" }, "geometry": { "type": "LineString", "coordinates": [ [ 11.672592861299336, 44.618703147746444 ], [ 11.672562351571393, 44.618625946526301 ], [ 11.672437187244588, 44.618009564383364 ], [ 11.672404369105253, 44.617971466832714 ], [ 11.672282851263269, 44.617408863980216 ], [ 11.672313952033772, 44.61740538012964 ], [ 11.672154356932737, 44.616621143958433 ] ] } },
{ "type": "Feature", "properties": { "CITY_NAME": "MOLINELLA", "strokeColor": "#70ACCC", "RGB": "112, 172, 204" }, "geometry": { "type": "LineString", "coordinates": [ [ 11.680244170017426, 44.616395347819463 ], [ 11.680305121349924, 44.616303496375792 ], [ 11.680733913904383, 44.616274930835424 ], [ 11.680772307282123, 44.616523534774309 ] ] } },
{ "type": "Feature", "properties": { "CITY_NAME": "MOLINELLA", "strokeColor": "#70ACCC", "RGB": "112, 172, 204" }, "geometry": { "type": "LineString", "coordinates": [ [ 11.668680298765366, 44.62714716031391 ], [ 11.669962127692042, 44.626833025226333 ] ] } },
{ "type": "Feature", "properties": { "CITY_NAME": "MOLINELLA", "strokeColor": "#70ACCC", "RGB": "112, 172, 204" }, "geometry": { "type": "LineString", "coordinates": [ [ 11.64200545053601, 44.65700560146152 ], [ 11.642090524798677, 44.656862252005247 ], [ 11.642630791985793, 44.656347932122735 ] ] } },
{ "type": "Feature", "properties": { "CITY_NAME": "MOLINELLA", "strokeColor": "#70ACCC", "RGB": "112, 172, 204" }, "geometry": { "type": "LineString", "coordinates": [ [ 11.678940360918588, 44.614484368791054 ], [ 11.678907556409097, 44.614417795505382 ], [ 11.678866063404199, 44.614145655738504 ], [ 11.678738857411707, 44.613440032445752 ] ] } },
{ "type": "Feature", "properties": { "CITY_NAME": "MOLINELLA", "strokeColor": "#70ACCC", "RGB": "112, 172, 204" }, "geometry": { "type": "LineString", "coordinates": [ [ 11.648511086940674, 44.653443725168977 ], [ 11.648440330410921, 44.653425507069151 ], [ 11.647668626332425, 44.653212751559565 ] ] } },
{ "type": "Feature", "properties": { "CITY_NAME": "MOLINELLA", "strokeColor": "#70ACCC", "RGB": "112, 172, 204" }, "geometry": { "type": "LineString", "coordinates": [ [ 11.67897728704637, 44.618936468783509 ], [ 11.679324411531994, 44.619051851714332 ] ] } },
{ "type": "Feature", "properties": { "CITY_NAME": "MOLINELLA", "strokeColor": "#70ACCC", "RGB": "112, 172, 204" }, "geometry": { "type": "LineString", "coordinates": [ [ 11.663865238659763, 44.614730612264658 ], [ 11.664071745973056, 44.614705902141786 ], [ 11.664348152895897, 44.614675286420699 ] ] } },
{ "type": "Feature", "properties": { "CITY_NAME": "MOLINELLA", "strokeColor": "#70ACCC", "RGB": "112, 172, 204" }, "geometry": { "type": "LineString", "coordinates": [ [ 11.663148581911578, 44.621979004148436 ], [ 11.664156402812253, 44.621681628253441 ] ] } },
{ "type": "Feature", "properties": { "CITY_NAME": "MOLINELLA", "strokeColor": "#70ACCC", "RGB": "112, 172, 204" }, "geometry": { "type": "LineString", "coordinates": [ [ 11.669498597754362, 44.619018850441655 ], [ 11.670949102896644, 44.618873367617148 ] ] } },
{ "type": "Feature", "properties": { "CITY_NAME": "MOLINELLA", "strokeColor": "#70ACCC", "RGB": "112, 172, 204" }, "geometry": { "type": "LineString", "coordinates": [ [ 11.66631211985011, 44.61732070304457 ], [ 11.666225961715421, 44.617331482391656 ], [ 11.666110329294343, 44.617372740024337 ], [ 11.665964598293915, 44.617444362601539 ] ] } },
{ "type": "Feature", "properties": { "CITY_NAME": "MOLINELLA", "strokeColor": "#70ACCC", "RGB": "112, 172, 204" }, "geometry": { "type": "LineString", "coordinates": [ [ 11.647668626332425, 44.653212751559565 ], [ 11.647781800410934, 44.652998596900659 ], [ 11.647822410354106, 44.652899908143532 ], [ 11.647836285270486, 44.652843863502348 ], [ 11.647918573041316, 44.652680445920829 ], [ 11.64797951306698, 44.652599214498629 ], [ 11.648429692000242, 44.651874873383612 ] ] } },
{ "type": "Feature", "properties": { "CITY_NAME": "MOLINELLA", "strokeColor": "#70ACCC", "RGB": "112, 172, 204" }, "geometry": { "type": "LineString", "coordinates": [ [ 11.67076219200325, 44.618077218681584 ], [ 11.670761801589242, 44.617981662949333 ], [ 11.67051053699544, 44.616771763449442 ] ] } },
{ "type": "Feature", "properties": { "CITY_NAME": "MOLINELLA", "strokeColor": "#70ACCC", "RGB": "112, 172, 204" }, "geometry": { "type": "LineString", "coordinates": [ [ 11.671403803455568, 44.624270911031033 ], [ 11.671495805883449, 44.62422464401876 ], [ 11.671696983287212, 44.624128631655772 ], [ 11.671816571302594, 44.624049768258644 ] ] } },
{ "type": "Feature", "properties": { "CITY_NAME": "MOLINELLA", "strokeColor": "#70ACCC", "RGB": "112, 172, 204" }, "geometry": { "type": "LineString", "coordinates": [ [ 11.67339330130719, 44.623137545226214 ], [ 11.673708657322466, 44.622965380819757 ] ] } },
{ "type": "Feature", "properties": { "CITY_NAME": "MOLINELLA", "strokeColor": "#70ACCC", "RGB": "112, 172, 204" }, "geometry": { "type": "LineString", "coordinates": [ [ 11.666890446082677, 44.622182393277164 ], [ 11.667215894110546, 44.622108250409454 ], [ 11.66754103528965, 44.6220422834486 ] ] } },
{ "type": "Feature", "properties": { "CITY_NAME": "MOLINELLA", "strokeColor": "#70ACCC", "RGB": "112, 172, 204" }, "geometry": { "type": "LineString", "coordinates": [ [ 11.67306371883307, 44.621908681381619 ], [ 11.673456767229176, 44.62183308500672 ], [ 11.673609924200244, 44.621820224742685 ] ] } },
{ "type": "Feature", "properties": { "CITY_NAME": "MOLINELLA", "strokeColor": "#70ACCC", "RGB": "112, 172, 204" }, "geometry": { "type": "LineString", "coordinates": [ [ 11.668358806288195, 44.621857984598336 ], [ 11.668705943558066, 44.621792384970853 ], [ 11.668868775333957, 44.621727522227815 ], [ 11.66918106390477, 44.621698056034631 ], [ 11.669521754112207, 44.621673297284758 ] ] } },
{ "type": "Feature", "properties": { "CITY_NAME": "MOLINELLA", "strokeColor": "#70ACCC", "RGB": "112, 172, 204" }, "geometry": { "type": "LineString", "coordinates": [ [ 11.607386990803647, 44.586754531018904 ], [ 11.607462486836898, 44.586695100675207 ], [ 11.607780702564975, 44.586708595398676 ], [ 11.608311605983877, 44.586757890155525 ], [ 11.608781491511557, 44.586787333208498 ], [ 11.609300824529349, 44.586816762878748 ], [ 11.609620086226009, 44.586842987704138 ], [ 11.610025769904935, 44.58687954618614 ], [ 11.6102071717482, 44.586897785871578 ], [ 11.610386545028204, 44.586918321372593 ] ] } },
{ "type": "Feature", "properties": { "CITY_NAME": "MOLINELLA", "strokeColor": "#70ACCC", "RGB": "112, 172, 204" }, "geometry": { "type": "LineString", "coordinates": [ [ 11.663687274024952, 44.614711205795196 ], [ 11.663865238659763, 44.614730612264658 ] ] } },
{ "type": "Feature", "properties": { "CITY_NAME": "MOLINELLA", "strokeColor": "#70ACCC", "RGB": "112, 172, 204" }, "geometry": { "type": "LineString", "coordinates": [ [ 11.635707374226886, 44.644444124061252 ], [ 11.635431563797884, 44.644662906671023 ], [ 11.634746699186014, 44.645190353004914 ] ] } },
{ "type": "Feature", "properties": { "CITY_NAME": "MOLINELLA", "strokeColor": "#B3B3B3", "RGB": "179, 179, 179" }, "geometry": { "type": "LineString", "coordinates": [ [ 11.656839983656727, 44.624059323512249 ], [ 11.65690709224144, 44.623956985872162 ], [ 11.656998687243961, 44.623858138210117 ], [ 11.657114502211007, 44.623796269237509 ], [ 11.657472439570535, 44.623682697439435 ], [ 11.6586766719035, 44.623311500618264 ], [ 11.658724074277783, 44.623297201559218 ] ] } },
{ "type": "Feature", "properties": { "CITY_NAME": "MOLINELLA", "strokeColor": "#70ACCC", "RGB": "112, 172, 204" }, "geometry": { "type": "LineString", "coordinates": [ [ 11.664156402812253, 44.621681628253441 ], [ 11.66518642047183, 44.621374194267538 ] ] } },
{ "type": "Feature", "properties": { "CITY_NAME": "MOLINELLA", "strokeColor": "#70ACCC", "RGB": "112, 172, 204" }, "geometry": { "type": "LineString", "coordinates": [ [ 11.66518642047183, 44.621374194267538 ], [ 11.665690294854972, 44.621223155939589 ] ] } },
{ "type": "Feature", "properties": { "CITY_NAME": "MOLINELLA", "strokeColor": "#70ACCC", "RGB": "112, 172, 204" }, "geometry": { "type": "LineString", "coordinates": [ [ 11.663662595485446, 44.616764960318186 ], [ 11.663723499937916, 44.61648529471239 ] ] } },
{ "type": "Feature", "properties": { "CITY_NAME": "MOLINELLA", "strokeColor": "#70ACCC", "RGB": "112, 172, 204" }, "geometry": { "type": "LineString", "coordinates": [ [ 11.663723499937916, 44.61648529471239 ], [ 11.663760509347238, 44.616328027856831 ] ] } },
{ "type": "Feature", "properties": { "CITY_NAME": "MOLINELLA", "strokeColor": "#70ACCC", "RGB": "112, 172, 204" }, "geometry": { "type": "LineString", "coordinates": [ [ 11.664359162894346, 44.61594981066289 ], [ 11.663995784626987, 44.615391784288512 ] ] } },
{ "type": "Feature", "properties": { "CITY_NAME": "MOLINELLA", "strokeColor": "#70ACCC", "RGB": "112, 172, 204" }, "geometry": { "type": "LineString", "coordinates": [ [ 11.671879648913722, 44.620977322674534 ], [ 11.671689129121736, 44.620503082715956 ] ] } },
{ "type": "Feature", "properties": { "CITY_NAME": "MOLINELLA", "strokeColor": "#70ACCC", "RGB": "112, 172, 204" }, "geometry": { "type": "LineString", "coordinates": [ [ 11.668358806288195, 44.621857984598336 ], [ 11.668070430044901, 44.621283703580879 ], [ 11.667680068263879, 44.620528764641861 ] ] } },
{ "type": "Feature", "properties": { "CITY_NAME": "MOLINELLA", "strokeColor": "#70ACCC", "RGB": "112, 172, 204" }, "geometry": { "type": "LineString", "coordinates": [ [ 11.668940936781333, 44.620453829972838 ], [ 11.668852266174369, 44.620288724705659 ], [ 11.668737895534539, 44.620067948204337 ] ] } },
{ "type": "Feature", "properties": { "CITY_NAME": "MOLINELLA", "strokeColor": "#70ACCC", "RGB": "112, 172, 204" }, "geometry": { "type": "LineString", "coordinates": [ [ 11.66723367216809, 44.619691047033157 ], [ 11.667029758753971, 44.619298885383586 ] ] } },
{ "type": "Feature", "properties": { "CITY_NAME": "MOLINELLA", "strokeColor": "#70ACCC", "RGB": "112, 172, 204" }, "geometry": { "type": "LineString", "coordinates": [ [ 11.666182095340837, 44.617464111322683 ], [ 11.666222324910878, 44.617397031840397 ], [ 11.66631211985011, 44.61732070304457 ] ] } },
{ "type": "Feature", "properties": { "CITY_NAME": "MOLINELLA", "strokeColor": "#70ACCC", "RGB": "112, 172, 204" }, "geometry": { "type": "LineString", "coordinates": [ [ 11.67954506865169, 44.617886167067745 ], [ 11.679497341095592, 44.61764504323444 ], [ 11.679410438540399, 44.617232183167097 ], [ 11.679372137860474, 44.616921993963082 ] ] } },
{ "type": "Feature", "properties": { "CITY_NAME": "MOLINELLA", "strokeColor": "#70ACCC", "RGB": "112, 172, 204" }, "geometry": { "type": "LineString", "coordinates": [ [ 11.680244170017426, 44.616395347819463 ], [ 11.680772307282123, 44.616523534774309 ] ] } },
{ "type": "Feature", "properties": { "CITY_NAME": "MOLINELLA", "strokeColor": "#70ACCC", "RGB": "112, 172, 204" }, "geometry": { "type": "LineString", "coordinates": [ [ 11.668791026539111, 44.615522977079138 ], [ 11.66873363198604, 44.615249561637384 ], [ 11.668705428355944, 44.615250183323987 ], [ 11.668673987701458, 44.615057613709538 ], [ 11.668681505843342, 44.614914097298175 ], [ 11.668565355766534, 44.614336182163157 ], [ 11.668546110429917, 44.614231075478656 ] ] } },
{ "type": "Feature", "properties": { "CITY_NAME": "MOLINELLA", "strokeColor": "#70ACCC", "RGB": "112, 172, 204" }, "geometry": { "type": "LineString", "coordinates": [ [ 11.67406695729635, 44.622807999533237 ], [ 11.674387103667662, 44.622636665354079 ], [ 11.67460502715903, 44.622518351727621 ], [ 11.674822474768755, 44.622389755510504 ], [ 11.675032252693537, 44.622251042619006 ], [ 11.67577179601799, 44.621767786876163 ] ] } },
{ "type": "Feature", "properties": { "CITY_NAME": "MOLINELLA", "strokeColor": "#70ACCC", "RGB": "112, 172, 204" }, "geometry": { "type": "LineString", "coordinates": [ [ 11.673708657322466, 44.622965380819757 ], [ 11.673890603852312, 44.622888744409046 ], [ 11.67406695729635, 44.622807999533237 ] ] } },
{ "type": "Feature", "properties": { "CITY_NAME": "MOLINELLA", "strokeColor": "#B3B3B3", "RGB": "179, 179, 179" }, "geometry": { "type": "LineString", "coordinates": [ [ 11.645716971562823, 44.654354008356094 ], [ 11.6455181301602, 44.654350070866826 ], [ 11.64522761251291, 44.654339616546224 ], [ 11.644864331368071, 44.654348365423878 ], [ 11.644722139763699, 44.654380085447421 ], [ 11.644624249257031, 44.654445634032555 ], [ 11.643875726252139, 44.655160018346315 ], [ 11.643758232975125, 44.655261383308101 ] ] } },
{ "type": "Feature", "properties": { "CITY_NAME": "MOLINELLA", "strokeColor": "#70ACCC", "RGB": "112, 172, 204" }, "geometry": { "type": "LineString", "coordinates": [ [ 11.679068335704908, 44.619596070011177 ], [ 11.679167951345038, 44.619529661577801 ] ] } },
{ "type": "Feature", "properties": { "CITY_NAME": "MOLINELLA", "strokeColor": "#70ACCC", "RGB": "112, 172, 204" }, "geometry": { "type": "LineString", "coordinates": [ [ 11.679618630426795, 44.618207395228332 ], [ 11.679672192138556, 44.618129756870459 ], [ 11.679754701689529, 44.618015995482757 ], [ 11.679860184690019, 44.617918939568781 ], [ 11.679973779595631, 44.617839357559056 ], [ 11.68015651650353, 44.617750677057494 ] ] } },
{ "type": "Feature", "properties": { "CITY_NAME": "MOLINELLA", "strokeColor": "#70ACCC", "RGB": "112, 172, 204" }, "geometry": { "type": "LineString", "coordinates": [ [ 11.663760509347238, 44.616328027856831 ], [ 11.663813783021562, 44.616091953427357 ], [ 11.664205775474963, 44.615958334624565 ], [ 11.664359162894346, 44.61594981066289 ] ] } },
{ "type": "Feature", "properties": { "CITY_NAME": "MOLINELLA", "strokeColor": "#70ACCC", "RGB": "112, 172, 204" }, "geometry": { "type": "LineString", "coordinates": [ [ 11.666182095340837, 44.617464111322683 ], [ 11.666174011176558, 44.61753647414595 ], [ 11.66619050626448, 44.617615248624411 ], [ 11.66620991029964, 44.617674533384957 ], [ 11.666267840679629, 44.617753588488462 ], [ 11.666333151079186, 44.617827444211379 ] ] } },
{ "type": "Feature", "properties": { "CITY_NAME": "MOLINELLA", "strokeColor": "#70ACCC", "RGB": "112, 172, 204" }, "geometry": { "type": "LineString", "coordinates": [ [ 11.66631211985011, 44.61732070304457 ], [ 11.666451292557767, 44.617251674695652 ], [ 11.666588111623303, 44.617194449289009 ], [ 11.666736131366617, 44.61713050368779 ] ] } },
{ "type": "Feature", "properties": { "CITY_NAME": "MOLINELLA", "strokeColor": "#70ACCC", "RGB": "112, 172, 204" }, "geometry": { "type": "LineString", "coordinates": [ [ 11.673823909393306, 44.61648123100511 ], [ 11.674066440981653, 44.616460372438013 ] ] } },
{ "type": "Feature", "properties": { "CITY_NAME": "MOLINELLA", "strokeColor": "#70ACCC", "RGB": "112, 172, 204" }, "geometry": { "type": "LineString", "coordinates": [ [ 11.665370706185621, 44.617547346790275 ], [ 11.665331802405834, 44.617487796186317 ], [ 11.665237665565625, 44.617341003216879 ], [ 11.665128578653558, 44.617146637750132 ], [ 11.665002920143092, 44.616949862991618 ] ] } },
{ "type": "Feature", "properties": { "CITY_NAME": "MOLINELLA", "strokeColor": "#70ACCC", "RGB": "112, 172, 204" }, "geometry": { "type": "LineString", "coordinates": [ [ 11.648937939986823, 44.653804387699509 ], [ 11.64827430274109, 44.654111598149534 ] ] } },
{ "type": "Feature", "properties": { "CITY_NAME": "MOLINELLA", "strokeColor": "#70ACCC", "RGB": "112, 172, 204" }, "geometry": { "type": "LineString", "coordinates": [ [ 11.671446380695965, 44.624495542912392 ], [ 11.671513219867405, 44.62438074460372 ], [ 11.671613187111266, 44.624248113055259 ], [ 11.671674908697939, 44.624187739514248 ], [ 11.671816571302594, 44.624049768258644 ] ] } },
{ "type": "Feature", "properties": { "CITY_NAME": "MOLINELLA", "strokeColor": "#70ACCC", "RGB": "112, 172, 204" }, "geometry": { "type": "LineString", "coordinates": [ [ 11.664348152895897, 44.614675286420699 ], [ 11.664247433525402, 44.614731952720625 ], [ 11.663868465666635, 44.614863933524823 ], [ 11.663689211603701, 44.614935011413614 ] ] } },
{ "type": "Feature", "properties": { "CITY_NAME": "MOLINELLA", "strokeColor": "#70ACCC", "RGB": "112, 172, 204" }, "geometry": { "type": "LineString", "coordinates": [ [ 11.669304233679707, 44.619076173906421 ], [ 11.669498597754362, 44.619018850441655 ] ] } },
{ "type": "Feature", "properties": { "CITY_NAME": "MOLINELLA", "strokeColor": "#70ACCC", "RGB": "112, 172, 204" }, "geometry": { "type": "LineString", "coordinates": [ [ 11.672307653611881, 44.622016966402327 ], [ 11.672435793087203, 44.622006310324721 ], [ 11.672680899263467, 44.621978585016258 ], [ 11.672886202303138, 44.621947486437207 ] ] } },
{ "type": "Feature", "properties": { "CITY_NAME": "MOLINELLA", "strokeColor": "#70ACCC", "RGB": "112, 172, 204" }, "geometry": { "type": "LineString", "coordinates": [ [ 11.669967361252365, 44.620592985781684 ], [ 11.670092140464613, 44.620657417935341 ], [ 11.670219958516514, 44.62071337602557 ], [ 11.670325415031201, 44.620748266755477 ], [ 11.670467298922659, 44.620771216797976 ], [ 11.670619802246474, 44.620791935842782 ] ] } },
{ "type": "Feature", "properties": { "CITY_NAME": "MOLINELLA", "strokeColor": "#70ACCC", "RGB": "112, 172, 204" }, "geometry": { "type": "LineString", "coordinates": [ [ 11.714605600896578, 44.619494156853541 ], [ 11.714921672443117, 44.619416263977719 ], [ 11.715368034308069, 44.619287153490994 ], [ 11.715789544994083, 44.61918174984914 ] ] } },
{ "type": "Feature", "properties": { "CITY_NAME": "MOLINELLA", "strokeColor": "#70ACCC", "RGB": "112, 172, 204" }, "geometry": { "type": "LineString", "coordinates": [ [ 11.718497094838424, 44.618404294235582 ], [ 11.719037601388017, 44.618271029077988 ] ] } },
{ "type": "Feature", "properties": { "CITY_NAME": "MOLINELLA", "strokeColor": "#70ACCC", "RGB": "112, 172, 204" }, "geometry": { "type": "LineString", "coordinates": [ [ 11.680772307282123, 44.616523534774309 ], [ 11.681315810848524, 44.616647064123534 ], [ 11.681734481122295, 44.616752620679733 ], [ 11.681778811724433, 44.616761267380127 ], [ 11.681812359007832, 44.616766589003255 ], [ 11.681845807961841, 44.616769775759686 ], [ 11.681887489906474, 44.616767081329819 ], [ 11.681928973952692, 44.616760118100537 ], [ 11.681972501423003, 44.616751328864254 ], [ 11.682021938578037, 44.616732436887638 ], [ 11.682070489018951, 44.616709646087131 ], [ 11.682121308850608, 44.616674695518498 ], [ 11.682164076113338, 44.616634221257009 ], [ 11.682208559184849, 44.616569489324341 ] ] } },
{ "type": "Feature", "properties": { "CITY_NAME": "MOLINELLA", "strokeColor": "#70ACCC", "RGB": "112, 172, 204" }, "geometry": { "type": "LineString", "coordinates": [ [ 11.679264570661733, 44.616157854054805 ], [ 11.67919841968774, 44.615799560700538 ] ] } },
{ "type": "Feature", "properties": { "CITY_NAME": "MOLINELLA", "strokeColor": "#70ACCC", "RGB": "112, 172, 204" }, "geometry": { "type": "LineString", "coordinates": [ [ 11.665688369565615, 44.615817519780151 ], [ 11.666314114967131, 44.61574393787609 ], [ 11.666530152231179, 44.615726196270963 ] ] } },
{ "type": "Feature", "properties": { "CITY_NAME": "MOLINELLA", "strokeColor": "#70ACCC", "RGB": "112, 172, 204" }, "geometry": { "type": "LineString", "coordinates": [ [ 11.669042958018679, 44.616893603609292 ], [ 11.669044821017026, 44.616800042298628 ], [ 11.668871014901596, 44.615903927054411 ], [ 11.66880942422921, 44.615570769984373 ], [ 11.668791026539111, 44.615522977079138 ] ] } },
{ "type": "Feature", "properties": { "CITY_NAME": "MOLINELLA", "strokeColor": "#70ACCC", "RGB": "112, 172, 204" }, "geometry": { "type": "LineString", "coordinates": [ [ 11.666778379180766, 44.615705810702082 ], [ 11.666874455953019, 44.615703688129017 ], [ 11.668791026539111, 44.615522977079138 ] ] } },
{ "type": "Feature", "properties": { "CITY_NAME": "MOLINELLA", "strokeColor": "#70ACCC", "RGB": "112, 172, 204" }, "geometry": { "type": "LineString", "coordinates": [ [ 11.649807659487751, 44.652351725533684 ], [ 11.649852419438499, 44.652917095181195 ], [ 11.64977982263391, 44.653120615169939 ], [ 11.649701228790025, 44.653228212984416 ], [ 11.649619982562115, 44.653314363911569 ], [ 11.649517518204274, 44.653417822850507 ], [ 11.649271940153188, 44.653610126193072 ], [ 11.648937939986823, 44.653804387699509 ] ] } },
{ "type": "Feature", "properties": { "CITY_NAME": "MOLINELLA", "strokeColor": "#70ACCC", "RGB": "112, 172, 204" }, "geometry": { "type": "LineString", "coordinates": [ [ 11.664774268212655, 44.614557574782857 ], [ 11.664348152895897, 44.614675286420699 ] ] } },
{ "type": "Feature", "properties": { "CITY_NAME": "MOLINELLA", "strokeColor": "#70ACCC", "RGB": "112, 172, 204" }, "geometry": { "type": "LineString", "coordinates": [ [ 11.679068335704908, 44.619596070011177 ], [ 11.678774532349262, 44.619342770447453 ], [ 11.678760724126789, 44.619294613091732 ], [ 11.678754352907575, 44.619264022181653 ], [ 11.678925025095431, 44.618998753333884 ], [ 11.67897728704637, 44.618936468783509 ] ] } },
{ "type": "Feature", "properties": { "CITY_NAME": "MOLINELLA", "strokeColor": "#70ACCC", "RGB": "112, 172, 204" }, "geometry": { "type": "LineString", "coordinates": [ [ 11.717870831241129, 44.618544530648158 ], [ 11.718020862295015, 44.618523238206947 ], [ 11.718497094838424, 44.618404294235582 ] ] } },
{ "type": "Feature", "properties": { "CITY_NAME": "MOLINELLA", "strokeColor": "#70ACCC", "RGB": "112, 172, 204" }, "geometry": { "type": "LineString", "coordinates": [ [ 11.67365747239546, 44.619781091286733 ], [ 11.674349457015268, 44.619218854612029 ], [ 11.675122753650834, 44.61855450312045 ], [ 11.675323283948229, 44.618438565476019 ] ] } },
{ "type": "Feature", "properties": { "CITY_NAME": "MOLINELLA", "strokeColor": "#70ACCC", "RGB": "112, 172, 204" }, "geometry": { "type": "LineString", "coordinates": [ [ 11.678725117627645, 44.61678179548646 ], [ 11.679372137860474, 44.616921993963082 ] ] } },
{ "type": "Feature", "properties": { "CITY_NAME": "MOLINELLA", "strokeColor": "#70ACCC", "RGB": "112, 172, 204" }, "geometry": { "type": "LineString", "coordinates": [ [ 11.66976987183919, 44.616839382917931 ], [ 11.67051053699544, 44.616771763449442 ] ] } },
{ "type": "Feature", "properties": { "CITY_NAME": "MOLINELLA", "strokeColor": "#70ACCC", "RGB": "112, 172, 204" }, "geometry": { "type": "LineString", "coordinates": [ [ 11.669567043103488, 44.622169057069307 ], [ 11.669561001013419, 44.621779724616339 ], [ 11.669521754112207, 44.621673297284758 ] ] } },
{ "type": "Feature", "properties": { "CITY_NAME": "MOLINELLA", "strokeColor": "#70ACCC", "RGB": "112, 172, 204" }, "geometry": { "type": "LineString", "coordinates": [ [ 11.64827430274109, 44.654111598149534 ], [ 11.648282997587925, 44.654154384399142 ], [ 11.648271479974264, 44.654212504340315 ], [ 11.648098362157686, 44.65460084316657 ] ] } },
{ "type": "Feature", "properties": { "CITY_NAME": "MOLINELLA", "strokeColor": "#70ACCC", "RGB": "112, 172, 204" }, "geometry": { "type": "LineString", "coordinates": [ [ 11.667680068263879, 44.620528764641861 ], [ 11.667435739798712, 44.620029382047768 ], [ 11.66723367216809, 44.619691047033157 ] ] } },
{ "type": "Feature", "properties": { "CITY_NAME": "MOLINELLA", "strokeColor": "#70ACCC", "RGB": "112, 172, 204" }, "geometry": { "type": "LineString", "coordinates": [ [ 11.662467938918924, 44.622176723811627 ], [ 11.663148581911578, 44.621979004148436 ] ] } },
{ "type": "Feature", "properties": { "CITY_NAME": "MOLINELLA", "strokeColor": "#70ACCC", "RGB": "112, 172, 204" }, "geometry": { "type": "LineString", "coordinates": [ [ 11.664359162894346, 44.61594981066289 ], [ 11.66532686541596, 44.615852468533888 ], [ 11.665645453413347, 44.615821668492558 ] ] } },
{ "type": "Feature", "properties": { "CITY_NAME": "MOLINELLA", "strokeColor": "#70ACCC", "RGB": "112, 172, 204" }, "geometry": { "type": "LineString", "coordinates": [ [ 11.664320950579757, 44.615339651774242 ], [ 11.664379795542228, 44.615277564090931 ], [ 11.664646635482127, 44.615207436224402 ], [ 11.664907784316132, 44.615170851204603 ], [ 11.665404574862542, 44.615118160461684 ], [ 11.665688229683878, 44.615087645894114 ] ] } },
{ "type": "Feature", "properties": { "CITY_NAME": "MOLINELLA", "strokeColor": "#70ACCC", "RGB": "112, 172, 204" }, "geometry": { "type": "LineString", "coordinates": [ [ 11.671689129121736, 44.620503082715956 ], [ 11.672901376422006, 44.620199074797156 ] ] } },
{ "type": "Feature", "properties": { "CITY_NAME": "MOLINELLA", "strokeColor": "#70ACCC", "RGB": "112, 172, 204" }, "geometry": { "type": "LineString", "coordinates": [ [ 11.715789544994083, 44.61918174984914 ], [ 11.716226204401623, 44.619046379765237 ], [ 11.716406293339459, 44.618982070057037 ], [ 11.716654794179222, 44.61891218135704 ], [ 11.716762515025513, 44.618866556008925 ], [ 11.716907178535402, 44.618827641907686 ] ] } },
{ "type": "Feature", "properties": { "CITY_NAME": "MOLINELLA", "strokeColor": "#70ACCC", "RGB": "112, 172, 204" }, "geometry": { "type": "LineString", "coordinates": [ [ 11.670949102896644, 44.618873367617148 ], [ 11.67076219200325, 44.618077218681584 ] ] } },
{ "type": "Feature", "properties": { "CITY_NAME": "MOLINELLA", "strokeColor": "#70ACCC", "RGB": "112, 172, 204" }, "geometry": { "type": "LineString", "coordinates": [ [ 11.666736131366617, 44.61713050368779 ], [ 11.6669423708521, 44.617090928075449 ], [ 11.667880216366152, 44.617005907452615 ], [ 11.669042958018679, 44.616893603609292 ] ] } },
{ "type": "Feature", "properties": { "CITY_NAME": "MOLINELLA", "strokeColor": "#70ACCC", "RGB": "112, 172, 204" }, "geometry": { "type": "LineString", "coordinates": [ [ 11.669042958018679, 44.616893603609292 ], [ 11.66976987183919, 44.616839382917931 ] ] } },
{ "type": "Feature", "properties": { "CITY_NAME": "MOLINELLA", "strokeColor": "#70ACCC", "RGB": "112, 172, 204" }, "geometry": { "type": "LineString", "coordinates": [ [ 11.677266235606242, 44.616494199600758 ], [ 11.67740512698011, 44.616495136460564 ], [ 11.678059448540598, 44.616636320718712 ] ] } },
{ "type": "Feature", "properties": { "CITY_NAME": "MOLINELLA", "strokeColor": "#70ACCC", "RGB": "112, 172, 204" }, "geometry": { "type": "LineString", "coordinates": [ [ 11.67751798354346, 44.618231767664298 ], [ 11.677565952452525, 44.6181500600904 ], [ 11.677266235606242, 44.616494199600758 ] ] } },
{ "type": "Feature", "properties": { "CITY_NAME": "MOLINELLA", "strokeColor": "#70ACCC", "RGB": "112, 172, 204" }, "geometry": { "type": "LineString", "coordinates": [ [ 11.647446919042489, 44.654263850489542 ], [ 11.647433460744645, 44.654206317200327 ], [ 11.647312875428103, 44.653945834397582 ], [ 11.647301942519174, 44.653894151652473 ], [ 11.647309237851371, 44.653864244977065 ] ] } },
{ "type": "Feature", "properties": { "CITY_NAME": "MOLINELLA", "strokeColor": "#70ACCC", "RGB": "112, 172, 204" }, "geometry": { "type": "LineString", "coordinates": [ [ 11.67339330130719, 44.623137545226214 ], [ 11.672801828644319, 44.623458961440598 ] ] } },
{ "type": "Feature", "properties": { "CITY_NAME": "MOLINELLA", "strokeColor": "#70ACCC", "RGB": "112, 172, 204" }, "geometry": { "type": "LineString", "coordinates": [ [ 11.647309237851371, 44.653864244977065 ], [ 11.647379130836077, 44.653740856176739 ], [ 11.647553047843264, 44.653443697242615 ], [ 11.647664139506087, 44.653244726662741 ], [ 11.647668626332425, 44.653212751559565 ] ] } },
{ "type": "Feature", "properties": { "CITY_NAME": "MOLINELLA", "strokeColor": "#70ACCC", "RGB": "112, 172, 204" }, "geometry": { "type": "LineString", "coordinates": [ [ 11.647309237851371, 44.653864244977065 ], [ 11.647203252192124, 44.653870658083584 ], [ 11.646646551505947, 44.653912992609179 ], [ 11.646590844327962, 44.653916375690791 ], [ 11.646537277145779, 44.653473058536186 ], [ 11.646526322458575, 44.653159261144573 ] ] } },
{ "type": "Feature", "properties": { "CITY_NAME": "MOLINELLA", "strokeColor": "#70ACCC", "RGB": "112, 172, 204" }, "geometry": { "type": "LineString", "coordinates": [ [ 11.673823909393306, 44.61648123100511 ], [ 11.673422986844802, 44.616515097993542 ] ] } },
{ "type": "Feature", "properties": { "CITY_NAME": "MOLINELLA", "strokeColor": "#70ACCC", "RGB": "112, 172, 204" }, "geometry": { "type": "LineString", "coordinates": [ [ 11.675300393860004, 44.616361555674331 ], [ 11.67591743742404, 44.616293759625961 ] ] } },
{ "type": "Feature", "properties": { "CITY_NAME": "MOLINELLA", "strokeColor": "#70ACCC", "RGB": "112, 172, 204" }, "geometry": { "type": "LineString", "coordinates": [ [ 11.670097119046677, 44.620982410939369 ], [ 11.670062966900524, 44.620868266574135 ], [ 11.670007525657022, 44.620696387414448 ], [ 11.669967361252365, 44.620592985781684 ] ] } },
{ "type": "Feature", "properties": { "CITY_NAME": "MOLINELLA", "strokeColor": "#70ACCC", "RGB": "112, 172, 204" }, "geometry": { "type": "LineString", "coordinates": [ [ 11.67365747239546, 44.619781091286733 ], [ 11.673623486129786, 44.61954186131468 ], [ 11.673434322263457, 44.618617271344377 ] ] } },
{ "type": "Feature", "properties": { "CITY_NAME": "MOLINELLA", "strokeColor": "#70ACCC", "RGB": "112, 172, 204" }, "geometry": { "type": "LineString", "coordinates": [ [ 11.647446919042489, 44.654263850489542 ], [ 11.646477201913731, 44.654367470976077 ], [ 11.645716971562823, 44.654354008356094 ] ] } },
{ "type": "Feature", "properties": { "CITY_NAME": "MOLINELLA", "strokeColor": "#70ACCC", "RGB": "112, 172, 204" }, "geometry": { "type": "LineString", "coordinates": [ [ 11.649807659487751, 44.652351725533684 ], [ 11.649758477059752, 44.652213267998029 ], [ 11.649731886872287, 44.651926307993179 ], [ 11.649689143666155, 44.651751988597127 ], [ 11.649659557527601, 44.651566164797735 ], [ 11.649686486472822, 44.651532747639905 ], [ 11.649684845611251, 44.651494825525141 ], [ 11.649676269342228, 44.651381692248719 ], [ 11.649675443312988, 44.651198098585631 ], [ 11.649680375142896, 44.65107740750075 ], [ 11.649694462821268, 44.651007008833922 ], [ 11.649736720844242, 44.65092073045831 ], [ 11.649866602913669, 44.650751985217561 ], [ 11.649977625579412, 44.650630128959847 ], [ 11.650270150677162, 44.650317745260217 ], [ 11.6507923559794, 44.64981253980914 ] ] } },
{ "type": "Feature", "properties": { "CITY_NAME": "MOLINELLA", "strokeColor": "#70ACCC", "RGB": "112, 172, 204" }, "geometry": { "type": "LineString", "coordinates": [ [ 11.668129543135148, 44.621905374041511 ], [ 11.668493006217231, 44.62259019588533 ] ] } },
{ "type": "Feature", "properties": { "CITY_NAME": "MOLINELLA", "strokeColor": "#70ACCC", "RGB": "112, 172, 204" }, "geometry": { "type": "LineString", "coordinates": [ [ 11.635272986460715, 44.644169521930252 ], [ 11.635128391643546, 44.644279425997532 ], [ 11.634833444213486, 44.644498739039442 ], [ 11.634498736930485, 44.644755259424272 ] ] } },
{ "type": "Feature", "properties": { "CITY_NAME": "MOLINELLA", "strokeColor": "#70ACCC", "RGB": "112, 172, 204" }, "geometry": { "type": "LineString", "coordinates": [ [ 11.659017914485096, 44.623203960067443 ], [ 11.659089809451332, 44.623180291286346 ], [ 11.659487875849019, 44.62305601509523 ], [ 11.659849790061008, 44.622948875284465 ] ] } },
{ "type": "Feature", "properties": { "CITY_NAME": "MOLINELLA", "strokeColor": "#70ACCC", "RGB": "112, 172, 204" }, "geometry": { "type": "LineString", "coordinates": [ [ 11.663411850603225, 44.619901729142398 ], [ 11.663456037726556, 44.620707786307044 ], [ 11.663491210900908, 44.620853569329967 ], [ 11.663568628760393, 44.620971511409863 ], [ 11.663657001044022, 44.621097948089883 ] ] } },
{ "type": "Feature", "properties": { "CITY_NAME": "MOLINELLA", "strokeColor": "#70ACCC", "RGB": "112, 172, 204" }, "geometry": { "type": "LineString", "coordinates": [ [ 11.663514267461482, 44.61737556855681 ], [ 11.663583629356987, 44.617089900928406 ], [ 11.663618348327921, 44.616947545134174 ], [ 11.663662595485446, 44.616764960318186 ] ] } },
{ "type": "Feature", "properties": { "CITY_NAME": "MOLINELLA", "strokeColor": "#70ACCC", "RGB": "112, 172, 204" }, "geometry": { "type": "LineString", "coordinates": [ [ 11.665002920143092, 44.616949862991618 ], [ 11.664678138930503, 44.616441061120156 ] ] } },
{ "type": "Feature", "properties": { "CITY_NAME": "MOLINELLA", "strokeColor": "#70ACCC", "RGB": "112, 172, 204" }, "geometry": { "type": "LineString", "coordinates": [ [ 11.672886202303138, 44.621947486437207 ], [ 11.67306371883307, 44.621908681381619 ] ] } },
{ "type": "Feature", "properties": { "CITY_NAME": "MOLINELLA", "strokeColor": "#70ACCC", "RGB": "112, 172, 204" }, "geometry": { "type": "LineString", "coordinates": [ [ 11.673609924200244, 44.621820224742685 ], [ 11.673931316054684, 44.621756249394736 ] ] } },
{ "type": "Feature", "properties": { "CITY_NAME": "MOLINELLA", "strokeColor": "#70ACCC", "RGB": "112, 172, 204" }, "geometry": { "type": "LineString", "coordinates": [ [ 11.663995784626987, 44.615391784288512 ], [ 11.663689211603701, 44.614935011413614 ] ] } },
{ "type": "Feature", "properties": { "CITY_NAME": "MOLINELLA", "strokeColor": "#70ACCC", "RGB": "112, 172, 204" }, "geometry": { "type": "LineString", "coordinates": [ [ 11.669365366946026, 44.621165701563875 ], [ 11.66953797312496, 44.621137160733504 ], [ 11.669784572915589, 44.621102392056926 ], [ 11.669906927397372, 44.62108411589324 ], [ 11.669972835173539, 44.621059806102089 ], [ 11.670097119046677, 44.620982410939369 ] ] } },
{ "type": "Feature", "properties": { "CITY_NAME": "MOLINELLA", "strokeColor": "#70ACCC", "RGB": "112, 172, 204" }, "geometry": { "type": "LineString", "coordinates": [ [ 11.672307653611881, 44.622016966402327 ], [ 11.671879648913722, 44.620977322674534 ] ] } },
{ "type": "Feature", "properties": { "CITY_NAME": "MOLINELLA", "strokeColor": "#70ACCC", "RGB": "112, 172, 204" }, "geometry": { "type": "LineString", "coordinates": [ [ 11.714523708134616, 44.61952651838466 ], [ 11.714605600896578, 44.619494156853541 ] ] } },
{ "type": "Feature", "properties": { "CITY_NAME": "MOLINELLA", "strokeColor": "#70ACCC", "RGB": "112, 172, 204" }, "geometry": { "type": "LineString", "coordinates": [ [ 11.669967361252365, 44.620592985781684 ], [ 11.669919105757257, 44.620526599479724 ], [ 11.669884860230242, 44.620461552655065 ], [ 11.669854257651748, 44.620322024872756 ], [ 11.669813101291941, 44.620169138657133 ], [ 11.669771788292815, 44.620015827573859 ], [ 11.669695371522971, 44.619742535485031 ] ] } },
{ "type": "Feature", "properties": { "CITY_NAME": "MOLINELLA", "strokeColor": "#70ACCC", "RGB": "112, 172, 204" }, "geometry": { "type": "LineString", "coordinates": [ [ 11.668737895534539, 44.620067948204337 ], [ 11.669695371522971, 44.619742535485031 ] ] } },
{ "type": "Feature", "properties": { "CITY_NAME": "MOLINELLA", "strokeColor": "#70ACCC", "RGB": "112, 172, 204" }, "geometry": { "type": "LineString", "coordinates": [ [ 11.672154356932737, 44.616621143958433 ], [ 11.673010299199449, 44.616553052536212 ] ] } },
{ "type": "Feature", "properties": { "CITY_NAME": "MOLINELLA", "strokeColor": "#70ACCC", "RGB": "112, 172, 204" }, "geometry": { "type": "LineString", "coordinates": [ [ 11.668737895534539, 44.620067948204337 ], [ 11.66841010250457, 44.619483227686445 ], [ 11.668344145693997, 44.619436262216311 ], [ 11.668298996721632, 44.619372717558264 ] ] } },
{ "type": "Feature", "properties": { "CITY_NAME": "MOLINELLA", "strokeColor": "#70ACCC", "RGB": "112, 172, 204" }, "geometry": { "type": "LineString", "coordinates": [ [ 11.673434322263457, 44.618617271344377 ], [ 11.674245024451443, 44.618528558928496 ] ] } },
{ "type": "Feature", "properties": { "CITY_NAME": "MOLINELLA", "strokeColor": "#70ACCC", "RGB": "112, 172, 204" }, "geometry": { "type": "LineString", "coordinates": [ [ 11.677250489085523, 44.6207846544497 ], [ 11.678051920193882, 44.620264596771719 ] ] } },
{ "type": "Feature", "properties": { "CITY_NAME": "MOLINELLA", "strokeColor": "#70ACCC", "RGB": "112, 172, 204" }, "geometry": { "type": "LineString", "coordinates": [ [ 11.673010299199449, 44.616553052536212 ], [ 11.673111591453305, 44.617076129878384 ], [ 11.673406109376746, 44.618542488602849 ], [ 11.673434322263457, 44.618617271344377 ] ] } },
{ "type": "Feature", "properties": { "CITY_NAME": "MOLINELLA", "strokeColor": "#70ACCC", "RGB": "112, 172, 204" }, "geometry": { "type": "LineString", "coordinates": [ [ 11.67919841968774, 44.615799560700538 ], [ 11.679866046951547, 44.615756280126362 ], [ 11.680607334275438, 44.615696816720039 ], [ 11.681710829098716, 44.615608917642454 ], [ 11.681751853480394, 44.615622640170614 ], [ 11.68177782702932, 44.615648085469509 ], [ 11.681814344744504, 44.615717830427009 ], [ 11.681921000720431, 44.615925694724126 ], [ 11.682005539949285, 44.61606884013333 ], [ 11.682100726122725, 44.61622777392482 ], [ 11.682159251691729, 44.616391052236999 ], [ 11.682208559184849, 44.616569489324341 ] ] } },
{ "type": "Feature", "properties": { "CITY_NAME": "MOLINELLA", "strokeColor": "#70ACCC", "RGB": "112, 172, 204" }, "geometry": { "type": "LineString", "coordinates": [ [ 11.665688268525233, 44.61526691685691 ], [ 11.666100652765429, 44.61522501685576 ], [ 11.666102961953605, 44.615213845856125 ], [ 11.666697314670113, 44.61516337604003 ] ] } },
{ "type": "Feature", "properties": { "CITY_NAME": "MOLINELLA", "strokeColor": "#70ACCC", "RGB": "112, 172, 204" }, "geometry": { "type": "LineString", "coordinates": [ [ 11.666697314670113, 44.61516337604003 ], [ 11.666666722120095, 44.615019973328529 ] ] } },
{ "type": "Feature", "properties": { "CITY_NAME": "MOLINELLA", "strokeColor": "#70ACCC", "RGB": "112, 172, 204" }, "geometry": { "type": "LineString", "coordinates": [ [ 11.673708657322466, 44.622965380819757 ], [ 11.674309575855192, 44.62348454852679 ], [ 11.674780542753728, 44.623873476659938 ] ] } },
{ "type": "Feature", "properties": { "CITY_NAME": "MOLINELLA", "strokeColor": "#70ACCC", "RGB": "112, 172, 204" }, "geometry": { "type": "LineString", "coordinates": [ [ 11.648937939986823, 44.653804387699509 ], [ 11.648511086940674, 44.653443725168977 ] ] } },
{ "type": "Feature", "properties": { "CITY_NAME": "MOLINELLA", "strokeColor": "#70ACCC", "RGB": "112, 172, 204" }, "geometry": { "type": "LineString", "coordinates": [ [ 11.645564372690032, 44.651281779828238 ], [ 11.646043609130492, 44.651566379997995 ], [ 11.6466198886237, 44.651902406987411 ] ] } },
{ "type": "Feature", "properties": { "CITY_NAME": "MOLINELLA", "strokeColor": "#70ACCC", "RGB": "112, 172, 204" }, "geometry": { "type": "LineString", "coordinates": [ [ 11.645564372690032, 44.651281779828238 ], [ 11.645530368305661, 44.651320782140751 ], [ 11.645514251740165, 44.651359612867168 ], [ 11.645555466474251, 44.651524291749972 ], [ 11.645603351906313, 44.65169698651502 ], [ 11.645657788874708, 44.651898139751495 ], [ 11.645830412407694, 44.652538358726432 ] ] } },
{ "type": "Feature", "properties": { "CITY_NAME": "MOLINELLA", "strokeColor": "#70ACCC", "RGB": "112, 172, 204" }, "geometry": { "type": "LineString", "coordinates": [ [ 11.646390362166802, 44.650475403176443 ], [ 11.646338679400104, 44.650529074479095 ], [ 11.645737827181541, 44.651103270867793 ], [ 11.645564372690032, 44.651281779828238 ] ] } },
{ "type": "Feature", "properties": { "CITY_NAME": "MOLINELLA", "strokeColor": "#70ACCC", "RGB": "112, 172, 204" }, "geometry": { "type": "LineString", "coordinates": [ [ 11.631086967600909, 44.558372113288989 ], [ 11.630604155905708, 44.558050738893108 ], [ 11.63041084334883, 44.55793538762569 ], [ 11.62973442492174, 44.557498639488244 ], [ 11.629147014951618, 44.557068478440449 ], [ 11.628361567547822, 44.556512270812611 ] ] } },
{ "type": "Feature", "properties": { "CITY_NAME": "MOLINELLA", "strokeColor": "#70ACCC", "RGB": "112, 172, 204" }, "geometry": { "type": "LineString", "coordinates": [ [ 11.667825323197164, 44.618592381029536 ], [ 11.667928510789221, 44.618581314016176 ], [ 11.669336910867619, 44.618328265350947 ] ] } },
{ "type": "Feature", "properties": { "CITY_NAME": "MOLINELLA", "strokeColor": "#70ACCC", "RGB": "112, 172, 204" }, "geometry": { "type": "LineString", "coordinates": [ [ 11.666039647681911, 44.617801740053736 ], [ 11.666036939826641, 44.617629008722432 ], [ 11.666046480066724, 44.617557666976047 ], [ 11.666025428716898, 44.617493396433105 ], [ 11.665964598293915, 44.617444362601539 ] ] } },
{ "type": "Feature", "properties": { "CITY_NAME": "MOLINELLA", "strokeColor": "#70ACCC", "RGB": "112, 172, 204" }, "geometry": { "type": "LineString", "coordinates": [ [ 11.67051053699544, 44.616771763449442 ], [ 11.672154356932737, 44.616621143958433 ] ] } },
{ "type": "Feature", "properties": { "CITY_NAME": "MOLINELLA", "strokeColor": "#70ACCC", "RGB": "112, 172, 204" }, "geometry": { "type": "LineString", "coordinates": [ [ 11.674066440981653, 44.616460372438013 ], [ 11.674666891203939, 44.616415095323141 ] ] } },
{ "type": "Feature", "properties": { "CITY_NAME": "MOLINELLA", "strokeColor": "#70ACCC", "RGB": "112, 172, 204" }, "geometry": { "type": "LineString", "coordinates": [ [ 11.674666891203939, 44.616415095323141 ], [ 11.675300393860004, 44.616361555674331 ] ] } },
{ "type": "Feature", "properties": { "CITY_NAME": "MOLINELLA", "strokeColor": "#70ACCC", "RGB": "112, 172, 204" }, "geometry": { "type": "LineString", "coordinates": [ [ 11.676628139188571, 44.616308911046211 ], [ 11.676713382219006, 44.616323345691718 ], [ 11.677131700506067, 44.616436802717026 ], [ 11.677266235606242, 44.616494199600758 ] ] } },
{ "type": "Feature", "properties": { "CITY_NAME": "MOLINELLA", "strokeColor": "#70ACCC", "RGB": "112, 172, 204" }, "geometry": { "type": "LineString", "coordinates": [ [ 11.671389522438863, 44.624184249887421 ], [ 11.671488182259866, 44.624151699722574 ], [ 11.671681360670394, 44.624078964834638 ], [ 11.671816571302594, 44.624049768258644 ] ] } },
{ "type": "Feature", "properties": { "CITY_NAME": "MOLINELLA", "strokeColor": "#70ACCC", "RGB": "112, 172, 204" }, "geometry": { "type": "LineString", "coordinates": [ [ 11.672418305475315, 44.623664997589316 ], [ 11.672577991153654, 44.623623234926832 ], [ 11.672709402538381, 44.623550146018388 ], [ 11.672801828644319, 44.623458961440598 ] ] } },
{ "type": "Feature", "properties": { "CITY_NAME": "MOLINELLA", "strokeColor": "#70ACCC", "RGB": "112, 172, 204" }, "geometry": { "type": "LineString", "coordinates": [ [ 11.671161573781591, 44.622082438762284 ], [ 11.671241212437941, 44.62206314618448 ], [ 11.671453557705815, 44.622054294994683 ], [ 11.671939036153708, 44.622025580756237 ] ] } },
{ "type": "Feature", "properties": { "CITY_NAME": "MOLINELLA", "strokeColor": "#70ACCC", "RGB": "112, 172, 204" }, "geometry": { "type": "LineString", "coordinates": [ [ 11.66754103528965, 44.6220422834486 ], [ 11.668129543135148, 44.621905374041511 ] ] } },
{ "type": "Feature", "properties": { "CITY_NAME": "MOLINELLA", "strokeColor": "#70ACCC", "RGB": "112, 172, 204" }, "geometry": { "type": "LineString", "coordinates": [ [ 11.653045601218851, 44.652257326862006 ], [ 11.652762365564177, 44.652344677921448 ], [ 11.6524992197649, 44.652448790057889 ], [ 11.65213352329401, 44.65268734827287 ], [ 11.651884524365203, 44.652865777711263 ], [ 11.651532712640503, 44.653132196812741 ] ] } },
{ "type": "Feature", "properties": { "CITY_NAME": "MOLINELLA", "strokeColor": "#70ACCC", "RGB": "112, 172, 204" }, "geometry": { "type": "LineString", "coordinates": [ [ 11.671939036153708, 44.622025580756237 ], [ 11.672307653611881, 44.622016966402327 ] ] } },
{ "type": "Feature", "properties": { "CITY_NAME": "MOLINELLA", "strokeColor": "#70ACCC", "RGB": "112, 172, 204" }, "geometry": { "type": "LineString", "coordinates": [ [ 11.665645453413347, 44.615821668492558 ], [ 11.665688398648825, 44.615977442109958 ] ] } },
{ "type": "Feature", "properties": { "CITY_NAME": "MOLINELLA", "strokeColor": "#70ACCC", "RGB": "112, 172, 204" }, "geometry": { "type": "LineString", "coordinates": [ [ 11.669365366946026, 44.621165701563875 ], [ 11.669307843771472, 44.621069225237719 ] ] } },
{ "type": "Feature", "properties": { "CITY_NAME": "MOLINELLA", "strokeColor": "#70ACCC", "RGB": "112, 172, 204" }, "geometry": { "type": "LineString", "coordinates": [ [ 11.67577179601799, 44.621767786876163 ], [ 11.677250489085523, 44.6207846544497 ] ] } },
{ "type": "Feature", "properties": { "CITY_NAME": "MOLINELLA", "strokeColor": "#70ACCC", "RGB": "112, 172, 204" }, "geometry": { "type": "LineString", "coordinates": [ [ 11.670619802246474, 44.620791935842782 ], [ 11.671689129121736, 44.620503082715956 ] ] } },
{ "type": "Feature", "properties": { "CITY_NAME": "MOLINELLA", "strokeColor": "#70ACCC", "RGB": "112, 172, 204" }, "geometry": { "type": "LineString", "coordinates": [ [ 11.66632755326223, 44.619975145330379 ], [ 11.666151492347492, 44.620030457687967 ], [ 11.665772473531691, 44.620142153655792 ] ] } },
{ "type": "Feature", "properties": { "CITY_NAME": "MOLINELLA", "strokeColor": "#70ACCC", "RGB": "112, 172, 204" }, "geometry": { "type": "LineString", "coordinates": [ [ 11.668298996721632, 44.619372717558264 ], [ 11.669304233679707, 44.619076173906421 ] ] } },
{ "type": "Feature", "properties": { "CITY_NAME": "MOLINELLA", "strokeColor": "#70ACCC", "RGB": "112, 172, 204" }, "geometry": { "type": "LineString", "coordinates": [ [ 11.668298996721632, 44.619372717558264 ], [ 11.668048056717419, 44.618966946373511 ] ] } },
{ "type": "Feature", "properties": { "CITY_NAME": "MOLINELLA", "strokeColor": "#70ACCC", "RGB": "112, 172, 204" }, "geometry": { "type": "LineString", "coordinates": [ [ 11.672901376422006, 44.620199074797156 ], [ 11.672766601470798, 44.619553163544147 ], [ 11.672592861299336, 44.618703147746444 ] ] } },
{ "type": "Feature", "properties": { "CITY_NAME": "MOLINELLA", "strokeColor": "#70ACCC", "RGB": "112, 172, 204" }, "geometry": { "type": "LineString", "coordinates": [ [ 11.675079002591481, 44.618460272544262 ], [ 11.675323283948229, 44.618438565476019 ] ] } },
{ "type": "Feature", "properties": { "CITY_NAME": "MOLINELLA", "strokeColor": "#70ACCC", "RGB": "112, 172, 204" }, "geometry": { "type": "LineString", "coordinates": [ [ 11.682208559184849, 44.616569489324341 ], [ 11.682334570014998, 44.616875178325586 ] ] } },
{ "type": "Feature", "properties": { "CITY_NAME": "MOLINELLA", "strokeColor": "#B3B3B3", "RGB": "179, 179, 179" }, "geometry": { "type": "LineString", "coordinates": [ [ 11.642630791985793, 44.656347932122735 ], [ 11.643322873534427, 44.655699673018233 ], [ 11.643758232975125, 44.655261383308101 ] ] } },
{ "type": "Feature", "properties": { "CITY_NAME": "MOLINELLA", "strokeColor": "#70ACCC", "RGB": "112, 172, 204" }, "geometry": { "type": "LineString", "coordinates": [ [ 11.668546110429917, 44.614231075478656 ], [ 11.667667000859257, 44.614300553525226 ], [ 11.666552444982996, 44.614397208357168 ] ] } },
{ "type": "Feature", "properties": { "CITY_NAME": "MOLINELLA", "strokeColor": "#70ACCC", "RGB": "112, 172, 204" }, "geometry": { "type": "LineString", "coordinates": [ [ 11.647309237851371, 44.653864244977065 ], [ 11.64740903518716, 44.653790221852802 ], [ 11.647776985654268, 44.653709857191814 ], [ 11.648179345409615, 44.653584985634872 ], [ 11.648439794598138, 44.653475354700618 ], [ 11.648511086940674, 44.653443725168977 ] ] } },
{ "type": "Feature", "properties": { "CITY_NAME": "MOLINELLA", "strokeColor": "#70ACCC", "RGB": "112, 172, 204" }, "geometry": { "type": "LineString", "coordinates": [ [ 11.679167951345038, 44.619529661577801 ], [ 11.679451829222929, 44.619335314491273 ], [ 11.679595586019909, 44.619198029724238 ], [ 11.67966153717612, 44.619103240819264 ], [ 11.679693438616278, 44.619010481084089 ], [ 11.679721484548226, 44.618823882752359 ], [ 11.679702140844869, 44.61855286722858 ], [ 11.679618630426795, 44.618207395228332 ] ] } },
{ "type": "Feature", "properties": { "CITY_NAME": "MOLINELLA", "strokeColor": "#B3B3B3", "RGB": "179, 179, 179" }, "geometry": { "type": "LineString", "coordinates": [ [ 11.658724074277783, 44.623297201559218 ], [ 11.658850660450987, 44.623259018136061 ] ] } },
{ "type": "Feature", "properties": { "CITY_NAME": "MOLINELLA", "strokeColor": "#70ACCC", "RGB": "112, 172, 204" }, "geometry": { "type": "LineString", "coordinates": [ [ 11.67591743742404, 44.616293759625961 ], [ 11.676038654882039, 44.616279031571125 ], [ 11.676367169356476, 44.616271988987705 ], [ 11.676525206761534, 44.616286252493495 ], [ 11.676628139188571, 44.616308911046211 ] ] } },
{ "type": "Feature", "properties": { "CITY_NAME": "MOLINELLA", "strokeColor": "#70ACCC", "RGB": "112, 172, 204" }, "geometry": { "type": "LineString", "coordinates": [ [ 11.64827430274109, 44.654111598149534 ], [ 11.647554085832665, 44.654253890739078 ], [ 11.647446919042489, 44.654263850489542 ] ] } },
{ "type": "Feature", "properties": { "CITY_NAME": "MOLINELLA", "strokeColor": "#70ACCC", "RGB": "112, 172, 204" }, "geometry": { "type": "LineString", "coordinates": [ [ 11.671355434294906, 44.623945665434583 ], [ 11.671448137695258, 44.624005540844976 ], [ 11.671546503456588, 44.624043850761836 ], [ 11.671640220442073, 44.624053680552144 ], [ 11.671816571302594, 44.624049768258644 ] ] } },
{ "type": "Feature", "properties": { "CITY_NAME": "MOLINELLA", "strokeColor": "#70ACCC", "RGB": "112, 172, 204" }, "geometry": { "type": "LineString", "coordinates": [ [ 11.658639912976179, 44.647002821985168 ], [ 11.658627164601546, 44.647114874194159 ], [ 11.658574465307984, 44.647221892088382 ], [ 11.658522002910516, 44.647294479434507 ], [ 11.657989344805786, 44.647815045511244 ], [ 11.65723427831672, 44.64853812547608 ], [ 11.656745826556017, 44.649003553166551 ], [ 11.656660734453602, 44.649067801431691 ], [ 11.655798083353929, 44.649866911773195 ], [ 11.655126383452524, 44.650533822746979 ], [ 11.654483323117354, 44.651176314492531 ], [ 11.654315453706371, 44.651369395986919 ], [ 11.654200976179274, 44.651472943199622 ], [ 11.653733225542258, 44.651955818967814 ], [ 11.653636506780382, 44.652039162810873 ], [ 11.653546057488867, 44.652095736355264 ], [ 11.653398062818514, 44.652153563106118 ], [ 11.653105908599045, 44.652229179853343 ], [ 11.653045601218851, 44.652257326862006 ] ] } }
]
}
