{
"type": "FeatureCollection",
"name": "MONTERENZIO",
"crs": { "type": "name", "properties": { "name": "urn:ogc:def:crs:OGC:1.3:CRS84" } },
"features": [
{ "type": "Feature", "properties": { "CITY_NAME": "MONTERENZIO", "strokeColor": "#B3B3B3", "RGB": "179, 179, 179" }, "geometry": { "type": "LineString", "coordinates": [ [ 11.388871378024016, 44.274229689024153 ], [ 11.388851632864791, 44.274121869706761 ] ] } },
{ "type": "Feature", "properties": { "CITY_NAME": "MONTERENZIO", "strokeColor": "#B3B3B3", "RGB": "179, 179, 179" }, "geometry": { "type": "LineString", "coordinates": [ [ 11.406687246530922, 44.331168964070216 ], [ 11.406827661449789, 44.331336279896689 ] ] } },
{ "type": "Feature", "properties": { "CITY_NAME": "MONTERENZIO", "strokeColor": "#B3B3B3", "RGB": "179, 179, 179" }, "geometry": { "type": "LineString", "coordinates": [ [ 11.40863817926464, 44.348851362012859 ], [ 11.40918948059733, 44.348564635834819 ], [ 11.409523119625478, 44.348411625284207 ] ] } },
{ "type": "Feature", "properties": { "CITY_NAME": "MONTERENZIO", "strokeColor": "#B3B3B3", "RGB": "179, 179, 179" }, "geometry": { "type": "LineString", "coordinates": [ [ 11.409523119625478, 44.348411625284207 ], [ 11.409442424740085, 44.348349705894272 ], [ 11.409418464366883, 44.348282102062406 ], [ 11.409331448996253, 44.347962939475472 ], [ 11.409342539979983, 44.347923427226412 ], [ 11.409737629163061, 44.347466286710876 ], [ 11.40982815405602, 44.347366095316168 ], [ 11.409817082409663, 44.347302750579878 ], [ 11.410061751180685, 44.34694270994008 ], [ 11.410054039451973, 44.346800482251574 ], [ 11.410057679214479, 44.34673992751069 ], [ 11.410077239465117, 44.346700237287138 ], [ 11.410296918611365, 44.346554642082445 ], [ 11.410404110685541, 44.346491897345857 ], [ 11.410520145673622, 44.346438015371497 ], [ 11.410641354676473, 44.346406413910067 ], [ 11.41074659140587, 44.346399896424202 ] ] } },
{ "type": "Feature", "properties": { "CITY_NAME": "MONTERENZIO", "strokeColor": "#B3B3B3", "RGB": "179, 179, 179" }, "geometry": { "type": "LineString", "coordinates": [ [ 11.406982832569151, 44.343999094327806 ], [ 11.407870566791242, 44.344067983259947 ] ] } },
{ "type": "Feature", "properties": { "CITY_NAME": "MONTERENZIO", "strokeColor": "#B3B3B3", "RGB": "179, 179, 179" }, "geometry": { "type": "LineString", "coordinates": [ [ 11.375680666923966, 44.254977070087598 ], [ 11.375684205096805, 44.254834980300224 ], [ 11.375759182699246, 44.254780164388201 ], [ 11.376055415768697, 44.254776218890512 ] ] } },
{ "type": "Feature", "properties": { "CITY_NAME": "MONTERENZIO", "strokeColor": "#B3B3B3", "RGB": "179, 179, 179" }, "geometry": { "type": "LineString", "coordinates": [ [ 11.405988113584883, 44.340590834596014 ], [ 11.406103727474916, 44.3405742347515 ], [ 11.406209552513005, 44.34054273085173 ], [ 11.406320478912416, 44.340496473606628 ], [ 11.406599231246172, 44.340314448368737 ], [ 11.406672536288593, 44.340271417313957 ], [ 11.406719810307738, 44.340267986347683 ], [ 11.406819619949584, 44.340335574434079 ], [ 11.40678966574662, 44.340471786880208 ], [ 11.406697372212012, 44.340714708166317 ], [ 11.406653501823488, 44.340843442748167 ], [ 11.406645384249551, 44.340902195848351 ], [ 11.406645492118997, 44.340947462238539 ], [ 11.406664606236536, 44.340995881347787 ], [ 11.406746701583831, 44.341081154370173 ] ] } },
{ "type": "Feature", "properties": { "CITY_NAME": "MONTERENZIO", "strokeColor": "#B3B3B3", "RGB": "179, 179, 179" }, "geometry": { "type": "LineString", "coordinates": [ [ 11.3989785898926, 44.305238213925378 ], [ 11.399150574181862, 44.305205268606564 ], [ 11.39926930581537, 44.305195327166452 ], [ 11.399375843155077, 44.305196564117395 ], [ 11.399438723383765, 44.305235125964252 ], [ 11.39945044966437, 44.305303914067593 ], [ 11.399445661866, 44.305365804682829 ], [ 11.399364440534537, 44.305503918925687 ], [ 11.399306867554035, 44.305646954008502 ], [ 11.399204572133049, 44.305754651150309 ], [ 11.399171452647883, 44.305877145474163 ], [ 11.399175078304021, 44.305969738949024 ] ] } },
{ "type": "Feature", "properties": { "CITY_NAME": "MONTERENZIO", "strokeColor": "#B3B3B3", "RGB": "179, 179, 179" }, "geometry": { "type": "LineString", "coordinates": [ [ 11.406084646601848, 44.332581399090103 ], [ 11.405976758000234, 44.33263131657467 ], [ 11.405825785256274, 44.332641208940657 ] ] } },
{ "type": "Feature", "properties": { "CITY_NAME": "MONTERENZIO", "strokeColor": "#B3B3B3", "RGB": "179, 179, 179" }, "geometry": { "type": "LineString", "coordinates": [ [ 11.406827661449789, 44.331336279896689 ], [ 11.406906018364214, 44.33139922381055 ], [ 11.407109650796682, 44.331658085501864 ], [ 11.407158469060477, 44.331749067355304 ], [ 11.407188455557499, 44.331953553709532 ], [ 11.407158732326426, 44.332153930718228 ], [ 11.407138744452912, 44.332209744529642 ] ] } },
{ "type": "Feature", "properties": { "CITY_NAME": "MONTERENZIO", "strokeColor": "#B3B3B3", "RGB": "179, 179, 179" }, "geometry": { "type": "LineString", "coordinates": [ [ 11.406605827615264, 44.347637828495259 ], [ 11.406416017688926, 44.347702209483394 ], [ 11.406276494856201, 44.347758504450049 ], [ 11.405978343621641, 44.347858906159949 ], [ 11.405860082873742, 44.347898670861191 ], [ 11.405773654115096, 44.347943618226623 ], [ 11.405718156390883, 44.347998740443558 ], [ 11.405700423496107, 44.348042942306535 ], [ 11.405700098883162, 44.348111006471647 ], [ 11.405766008722329, 44.348533884658956 ], [ 11.405775775072691, 44.348771067412173 ], [ 11.405796332535646, 44.349041690392575 ] ] } },
{ "type": "Feature", "properties": { "CITY_NAME": "MONTERENZIO", "strokeColor": "#B3B3B3", "RGB": "179, 179, 179" }, "geometry": { "type": "LineString", "coordinates": [ [ 11.407085555941059, 44.343597180995594 ], [ 11.407041058702429, 44.343736123631942 ], [ 11.406982832569151, 44.343999094327806 ] ] } },
{ "type": "Feature", "properties": { "CITY_NAME": "MONTERENZIO", "strokeColor": "#B3B3B3", "RGB": "179, 179, 179" }, "geometry": { "type": "LineString", "coordinates": [ [ 11.406080216637735, 44.349772663127496 ], [ 11.406037037636393, 44.349677582087871 ], [ 11.405977135511881, 44.349564047601973 ], [ 11.405938694578071, 44.34948383736441 ] ] } },
{ "type": "Feature", "properties": { "CITY_NAME": "MONTERENZIO", "strokeColor": "#B3B3B3", "RGB": "179, 179, 179" }, "geometry": { "type": "LineString", "coordinates": [ [ 11.407447059037251, 44.349080098993156 ], [ 11.40752812452061, 44.349068845592157 ], [ 11.407592215804042, 44.349079397404999 ], [ 11.407626225795147, 44.349091692739535 ], [ 11.407658560375113, 44.349117576163081 ], [ 11.40766829863051, 44.349137142655842 ], [ 11.407674293175949, 44.349174293982898 ], [ 11.407677447809775, 44.349251033649601 ], [ 11.407690254622354, 44.34929086907038 ], [ 11.407716682272042, 44.349336074554799 ], [ 11.407746573886293, 44.34938403294251 ], [ 11.407799619212927, 44.349424742801538 ], [ 11.407884628442318, 44.349482308635856 ], [ 11.408009993241052, 44.349543571377509 ], [ 11.408185520408237, 44.349629791114872 ], [ 11.40828743004753, 44.349663859425078 ], [ 11.408335806088857, 44.349672475445765 ], [ 11.408374907126829, 44.349672808312107 ], [ 11.408410614811165, 44.349672081106519 ], [ 11.408438232546551, 44.349664740980579 ] ] } },
{ "type": "Feature", "properties": { "CITY_NAME": "MONTERENZIO", "strokeColor": "#B3B3B3", "RGB": "179, 179, 179" }, "geometry": { "type": "LineString", "coordinates": [ [ 11.388860695794863, 44.274562129136754 ], [ 11.388895363315072, 44.274453425155521 ] ] } },
{ "type": "Feature", "properties": { "CITY_NAME": "MONTERENZIO", "strokeColor": "#B3B3B3", "RGB": "179, 179, 179" }, "geometry": { "type": "LineString", "coordinates": [ [ 11.405232549022962, 44.349040199207579 ], [ 11.405344073645741, 44.349191288098865 ], [ 11.405444455509121, 44.349337236113058 ], [ 11.405490887430508, 44.349394628980804 ], [ 11.405545921317675, 44.349439974025131 ], [ 11.405592966408001, 44.349465808237248 ], [ 11.405649163090803, 44.349481284558948 ], [ 11.405714321405306, 44.349493441741338 ], [ 11.405806958979817, 44.349498301927774 ], [ 11.405864808291248, 44.349495789099173 ], [ 11.405938694578071, 44.34948383736441 ] ] } },
{ "type": "Feature", "properties": { "CITY_NAME": "MONTERENZIO", "strokeColor": "#B3B3B3", "RGB": "179, 179, 179" }, "geometry": { "type": "LineString", "coordinates": [ [ 11.397035967687493, 44.301107666309193 ], [ 11.397043954578267, 44.301054643894552 ], [ 11.397074455438213, 44.3003990808255 ], [ 11.397097573912095, 44.30027294469086 ], [ 11.397129395168458, 44.300233929877386 ], [ 11.39730906868032, 44.300206726330757 ], [ 11.397509901574711, 44.300197443922102 ], [ 11.398031551422497, 44.300185316550049 ] ] } },
{ "type": "Feature", "properties": { "CITY_NAME": "MONTERENZIO", "strokeColor": "#B3B3B3", "RGB": "179, 179, 179" }, "geometry": { "type": "LineString", "coordinates": [ [ 11.407008662568558, 44.332588657088593 ], [ 11.406711739101027, 44.332607260846594 ], [ 11.406517220867476, 44.332615329882998 ], [ 11.40635499799186, 44.332619015905998 ], [ 11.406246864247194, 44.332577709960923 ], [ 11.406084646601848, 44.332581399090103 ] ] } },
{ "type": "Feature", "properties": { "CITY_NAME": "MONTERENZIO", "strokeColor": "#B3B3B3", "RGB": "179, 179, 179" }, "geometry": { "type": "LineString", "coordinates": [ [ 11.407138744452912, 44.332209744529642 ], [ 11.407008662568558, 44.332588657088593 ] ] } },
{ "type": "Feature", "properties": { "CITY_NAME": "MONTERENZIO", "strokeColor": "#B3B3B3", "RGB": "179, 179, 179" }, "geometry": { "type": "LineString", "coordinates": [ [ 11.406952487465308, 44.332759536835638 ], [ 11.407024808450354, 44.332763365068736 ], [ 11.407340403700644, 44.332716072799755 ], [ 11.407483374920618, 44.332682731055804 ], [ 11.407572089766397, 44.332646061686347 ], [ 11.407656198448011, 44.332584873069031 ], [ 11.407820063244998, 44.332399666063296 ], [ 11.407846026706347, 44.332331524621061 ] ] } },
{ "type": "Feature", "properties": { "CITY_NAME": "MONTERENZIO", "strokeColor": "#B3B3B3", "RGB": "179, 179, 179" }, "geometry": { "type": "LineString", "coordinates": [ [ 11.405232549022962, 44.349040199207579 ], [ 11.405165908044403, 44.348955978829025 ], [ 11.405094298209336, 44.348827739631503 ], [ 11.404961722157038, 44.348599862830319 ], [ 11.404865497858083, 44.34841131212125 ], [ 11.404736557773436, 44.348119417188883 ], [ 11.40462244914643, 44.347804872025208 ], [ 11.404518785211792, 44.347567405412612 ], [ 11.404315928926872, 44.347171091615756 ], [ 11.404216254730283, 44.347015471281523 ], [ 11.404128942844414, 44.34697547776851 ], [ 11.404018672248402, 44.346928679019207 ], [ 11.403987518177537, 44.346846000027568 ], [ 11.404006406391046, 44.346755139745376 ], [ 11.40416916221271, 44.346670609035591 ], [ 11.404299271889121, 44.346588498682728 ], [ 11.404213216708463, 44.346336695794811 ] ] } },
{ "type": "Feature", "properties": { "CITY_NAME": "MONTERENZIO", "strokeColor": "#B3B3B3", "RGB": "179, 179, 179" }, "geometry": { "type": "LineString", "coordinates": [ [ 11.406746701583831, 44.341081154370173 ], [ 11.406807028694857, 44.341404244472137 ], [ 11.406926362451133, 44.341711096339345 ], [ 11.407097035197841, 44.342045440394841 ], [ 11.407251374634697, 44.342364267502006 ], [ 11.407310806162963, 44.342512155151333 ], [ 11.407338688598792, 44.342655938386862 ], [ 11.407334563743852, 44.342784524672723 ], [ 11.407312342377645, 44.342930936336266 ], [ 11.407279802675459, 44.343055352128786 ], [ 11.407085555941059, 44.343597180995594 ] ] } },
{ "type": "Feature", "properties": { "CITY_NAME": "MONTERENZIO", "strokeColor": "#B3B3B3", "RGB": "179, 179, 179" }, "geometry": { "type": "LineString", "coordinates": [ [ 11.389541725736052, 44.275016701325114 ], [ 11.390253313623498, 44.275289365039498 ] ] } },
{ "type": "Feature", "properties": { "CITY_NAME": "MONTERENZIO", "strokeColor": "#B3B3B3", "RGB": "179, 179, 179" }, "geometry": { "type": "LineString", "coordinates": [ [ 11.404761409463434, 44.325796055813079 ], [ 11.404974729861735, 44.32585869328588 ], [ 11.405278135550407, 44.325966658356947 ], [ 11.405448982410746, 44.326049341457178 ], [ 11.405701758286032, 44.326291345285533 ] ] } },
{ "type": "Feature", "properties": { "CITY_NAME": "MONTERENZIO", "strokeColor": "#B3B3B3", "RGB": "179, 179, 179" }, "geometry": { "type": "LineString", "coordinates": [ [ 11.389085856461852, 44.276375547189012 ], [ 11.389074009016371, 44.276265954763545 ], [ 11.389118634797539, 44.27599694530911 ], [ 11.38918067604833, 44.275732772328809 ], [ 11.389263018081342, 44.275383580830855 ], [ 11.389335523734998, 44.275256819158244 ], [ 11.389436310167122, 44.275110914238361 ], [ 11.389541725736052, 44.275016701325114 ] ] } },
{ "type": "Feature", "properties": { "CITY_NAME": "MONTERENZIO", "strokeColor": "#B3B3B3", "RGB": "179, 179, 179" }, "geometry": { "type": "LineString", "coordinates": [ [ 11.406746701583831, 44.341081154370173 ], [ 11.407026474051623, 44.341052009759636 ], [ 11.407269200430392, 44.341018755340279 ], [ 11.408206488241134, 44.340868669282699 ], [ 11.40888029946521, 44.340770235020379 ], [ 11.408913579904983, 44.340778859647614 ], [ 11.408945031641903, 44.340796401391884 ], [ 11.408974005682921, 44.340817766674192 ], [ 11.409127228466472, 44.341053151014222 ], [ 11.409283612193438, 44.341312222254416 ], [ 11.409370156090342, 44.341431375972505 ], [ 11.409529733547213, 44.341640005323484 ], [ 11.409669077859744, 44.341800560869544 ] ] } },
{ "type": "Feature", "properties": { "CITY_NAME": "MONTERENZIO", "strokeColor": "#B3B3B3", "RGB": "179, 179, 179" }, "geometry": { "type": "LineString", "coordinates": [ [ 11.398957544477851, 44.302909600646451 ], [ 11.398817075123723, 44.302916799810809 ], [ 11.398315998297628, 44.302924360909778 ], [ 11.398128155223327, 44.302932254630498 ], [ 11.398000920064863, 44.302934856135018 ], [ 11.397828287906597, 44.302943621832171 ], [ 11.397536549974475, 44.302976835739024 ] ] } },
{ "type": "Feature", "properties": { "CITY_NAME": "MONTERENZIO", "strokeColor": "#B3B3B3", "RGB": "179, 179, 179" }, "geometry": { "type": "LineString", "coordinates": [ [ 11.406952487465308, 44.332759536835638 ], [ 11.406788991501447, 44.33304135362804 ], [ 11.406685014894421, 44.333145832623281 ], [ 11.406487343622304, 44.33329710609496 ] ] } },
{ "type": "Feature", "properties": { "CITY_NAME": "MONTERENZIO", "strokeColor": "#B3B3B3", "RGB": "179, 179, 179" }, "geometry": { "type": "LineString", "coordinates": [ [ 11.410335099963236, 44.348453791795187 ], [ 11.410031225564561, 44.348669758399303 ], [ 11.409523896994889, 44.349044408832178 ] ] } },
{ "type": "Feature", "properties": { "CITY_NAME": "MONTERENZIO", "strokeColor": "#B3B3B3", "RGB": "179, 179, 179" }, "geometry": { "type": "LineString", "coordinates": [ [ 11.376155743067866, 44.256360356137002 ], [ 11.376063872114516, 44.255752400478848 ], [ 11.376010136970542, 44.255644788139584 ], [ 11.375759423100378, 44.255399258732901 ], [ 11.375716640089884, 44.255333578898508 ], [ 11.375688656586707, 44.255252058400174 ], [ 11.37566166214733, 44.255041816434584 ], [ 11.375680666923966, 44.254977070087598 ] ] } },
{ "type": "Feature", "properties": { "CITY_NAME": "MONTERENZIO", "strokeColor": "#B3B3B3", "RGB": "179, 179, 179" }, "geometry": { "type": "LineString", "coordinates": [ [ 11.408438232546551, 44.349664740980579 ], [ 11.408538174013231, 44.349623736015573 ], [ 11.408757219187128, 44.349518743467435 ] ] } },
{ "type": "Feature", "properties": { "CITY_NAME": "MONTERENZIO", "strokeColor": "#B3B3B3", "RGB": "179, 179, 179" }, "geometry": { "type": "LineString", "coordinates": [ [ 11.397035967687493, 44.301107666309193 ], [ 11.396267464892395, 44.30118471983856 ] ] } },
{ "type": "Feature", "properties": { "CITY_NAME": "MONTERENZIO", "strokeColor": "#B3B3B3", "RGB": "179, 179, 179" }, "geometry": { "type": "LineString", "coordinates": [ [ 11.407085555941059, 44.343597180995594 ], [ 11.406749690220941, 44.343608727648842 ] ] } },
{ "type": "Feature", "properties": { "CITY_NAME": "MONTERENZIO", "strokeColor": "#B3B3B3", "RGB": "179, 179, 179" }, "geometry": { "type": "LineString", "coordinates": [ [ 11.407008662568558, 44.332588657088593 ], [ 11.406952487465308, 44.332759536835638 ] ] } },
{ "type": "Feature", "properties": { "CITY_NAME": "MONTERENZIO", "strokeColor": "#B3B3B3", "RGB": "179, 179, 179" }, "geometry": { "type": "LineString", "coordinates": [ [ 11.389541725736052, 44.275016701325114 ], [ 11.389562779113133, 44.27493862535573 ], [ 11.389584708411933, 44.274854988883568 ], [ 11.389629639418427, 44.274796772206258 ], [ 11.389685351131217, 44.274733352170315 ], [ 11.389777087081749, 44.274663853747356 ], [ 11.389819916368113, 44.274644694909611 ] ] } },
{ "type": "Feature", "properties": { "CITY_NAME": "MONTERENZIO", "strokeColor": "#B3B3B3", "RGB": "179, 179, 179" }, "geometry": { "type": "LineString", "coordinates": [ [ 11.390388556870585, 44.272215829077396 ], [ 11.391063342675764, 44.272247252295472 ], [ 11.391251102603681, 44.272233332901912 ], [ 11.391482196575474, 44.272199659773946 ], [ 11.391626283104548, 44.27216310938568 ], [ 11.391991179355671, 44.272071983877659 ], [ 11.392127814269276, 44.272037454373766 ], [ 11.392411884158026, 44.27198002623566 ] ] } },
{ "type": "Feature", "properties": { "CITY_NAME": "MONTERENZIO", "strokeColor": "#B3B3B3", "RGB": "179, 179, 179" }, "geometry": { "type": "LineString", "coordinates": [ [ 11.409283974972256, 44.350192776003077 ], [ 11.409362271062344, 44.350285185360349 ], [ 11.409457788004428, 44.350347515775475 ], [ 11.409551932967634, 44.350405112605685 ], [ 11.409686267359943, 44.350495815870055 ], [ 11.409775928684503, 44.35055886199838 ], [ 11.409841978435264, 44.350620008147807 ], [ 11.409895167789626, 44.350683201085353 ], [ 11.40991811009143, 44.350726179417094 ], [ 11.409945043404058, 44.350780384564871 ], [ 11.409979421080706, 44.35084396107608 ], [ 11.409991681037411, 44.350913343138203 ], [ 11.410006779285235, 44.350994571434249 ], [ 11.41001730908603, 44.351136595502773 ], [ 11.410026781942767, 44.351310183961225 ], [ 11.410038274270516, 44.351386605274314 ], [ 11.410068576218229, 44.351434705619887 ], [ 11.41010940024454, 44.351480791367806 ], [ 11.410161542115286, 44.351515934771854 ], [ 11.410241350017483, 44.35156475532083 ], [ 11.41042054632527, 44.351679819092219 ], [ 11.410468712595279, 44.351732282085841 ], [ 11.41049734283132, 44.351768518661515 ], [ 11.410528810172179, 44.351815987487875 ], [ 11.410557507830662, 44.351881337557359 ] ] } },
{ "type": "Feature", "properties": { "CITY_NAME": "MONTERENZIO", "strokeColor": "#B3B3B3", "RGB": "179, 179, 179" }, "geometry": { "type": "LineString", "coordinates": [ [ 11.404662856499883, 44.337637543493273 ], [ 11.404755730186297, 44.33755615653979 ], [ 11.404845608837366, 44.337469511057243 ], [ 11.405300584305582, 44.337143534838972 ] ] } },
{ "type": "Feature", "properties": { "CITY_NAME": "MONTERENZIO", "strokeColor": "#B3B3B3", "RGB": "179, 179, 179" }, "geometry": { "type": "LineString", "coordinates": [ [ 11.406084646601848, 44.332581399090103 ], [ 11.406061555508174, 44.33241326803833 ], [ 11.405967382231532, 44.332005185676579 ], [ 11.40596183422249, 44.331869469422138 ], [ 11.406027449654248, 44.331711125623457 ], [ 11.406114900107347, 44.331645278982641 ], [ 11.406362015253467, 44.331554833797703 ], [ 11.406827661449789, 44.331336279896689 ] ] } },
{ "type": "Feature", "properties": { "CITY_NAME": "MONTERENZIO", "strokeColor": "#B3B3B3", "RGB": "179, 179, 179" }, "geometry": { "type": "LineString", "coordinates": [ [ 11.404792795611286, 44.325493798263537 ], [ 11.404718353872616, 44.325250374102367 ], [ 11.404908522605066, 44.325227949386239 ], [ 11.405005797446401, 44.325456270065324 ], [ 11.404792795611286, 44.325493798263537 ] ] } },
{ "type": "Feature", "properties": { "CITY_NAME": "MONTERENZIO", "strokeColor": "#B3B3B3", "RGB": "179, 179, 179" }, "geometry": { "type": "LineString", "coordinates": [ [ 11.405555913360272, 44.328223698633543 ], [ 11.405460524426532, 44.328358859900803 ], [ 11.405276038771108, 44.328561210869353 ], [ 11.404949738371124, 44.328361013782846 ], [ 11.404709485458776, 44.328143578789785 ], [ 11.404396552386183, 44.327751907085215 ] ] } },
{ "type": "Feature", "properties": { "CITY_NAME": "MONTERENZIO", "strokeColor": "#B3B3B3", "RGB": "179, 179, 179" }, "geometry": { "type": "LineString", "coordinates": [ [ 11.388851632864791, 44.274121869706761 ], [ 11.388719515224835, 44.274101073577867 ], [ 11.388565224655425, 44.274066476148811 ], [ 11.388456669109969, 44.274039582469484 ], [ 11.388369305657587, 44.274013106025528 ], [ 11.388280047189058, 44.273974341529971 ], [ 11.388140541604587, 44.273898643141344 ], [ 11.388113689410028, 44.273860307039953 ], [ 11.388022030640382, 44.273749058243681 ], [ 11.387968181285876, 44.273668583496338 ], [ 11.387958747398637, 44.273608097886779 ], [ 11.387950972124548, 44.273542128147788 ], [ 11.387965167821008, 44.273474312414777 ], [ 11.387999516661187, 44.273417958030272 ], [ 11.388101927106696, 44.273244895538916 ], [ 11.388209479558437, 44.273036215373295 ], [ 11.388250031795058, 44.27295914788499 ], [ 11.388291646915475, 44.272908838081023 ], [ 11.388366895663513, 44.272855289446639 ], [ 11.388495146281578, 44.272790321835778 ], [ 11.388870470446991, 44.272665294011219 ], [ 11.388949164073759, 44.272639658329005 ], [ 11.388996425315527, 44.27261366750961 ], [ 11.389058974839315, 44.272536001682099 ], [ 11.389187203556778, 44.27238160104487 ], [ 11.389255811702542, 44.272310447033952 ], [ 11.389331103417412, 44.272258616409381 ], [ 11.389416726354064, 44.27221891064606 ], [ 11.389500658578665, 44.272195577712388 ], [ 11.389705661673714, 44.272186582849351 ], [ 11.389972473640547, 44.272198934146481 ], [ 11.390122914383198, 44.27220750916316 ], [ 11.390278524641744, 44.272211470713138 ], [ 11.390388556870585, 44.272215829077396 ] ] } },
{ "type": "Feature", "properties": { "CITY_NAME": "MONTERENZIO", "strokeColor": "#B3B3B3", "RGB": "179, 179, 179" }, "geometry": { "type": "LineString", "coordinates": [ [ 11.397536549974475, 44.302976835739024 ], [ 11.397495369746732, 44.30289392473081 ], [ 11.397025354755042, 44.301415753533178 ], [ 11.39701981801014, 44.301339307014302 ], [ 11.397035967687493, 44.301107666309193 ] ] } },
{ "type": "Feature", "properties": { "CITY_NAME": "MONTERENZIO", "strokeColor": "#B3B3B3", "RGB": "179, 179, 179" }, "geometry": { "type": "LineString", "coordinates": [ [ 11.397894443704025, 44.299743846347695 ], [ 11.398237474744665, 44.299792349477528 ], [ 11.398431156571194, 44.299808141810182 ], [ 11.398994270225629, 44.299858629606099 ], [ 11.399069661563919, 44.299895194844247 ], [ 11.399091249880678, 44.299940213584946 ], [ 11.399096052155702, 44.300111149365542 ], [ 11.399092448624449, 44.300251337058917 ], [ 11.399092307873097, 44.300387810335948 ], [ 11.399105232499407, 44.300442113895002 ], [ 11.399170710704487, 44.300502541419938 ], [ 11.399233333166141, 44.300535737739899 ], [ 11.399304545327745, 44.300557826766308 ], [ 11.399390051495875, 44.300529565893541 ], [ 11.399560398555481, 44.300362074637562 ], [ 11.399637613329588, 44.300305799086161 ], [ 11.399714042283691, 44.30027592279712 ], [ 11.399826212571142, 44.300256907002122 ], [ 11.399939727118351, 44.300255772170367 ] ] } },
{ "type": "Feature", "properties": { "CITY_NAME": "MONTERENZIO", "strokeColor": "#B3B3B3", "RGB": "179, 179, 179" }, "geometry": { "type": "LineString", "coordinates": [ [ 11.407846026706347, 44.332331524621061 ], [ 11.407890165621096, 44.332215675760018 ], [ 11.407138744452912, 44.332209744529642 ] ] } },
{ "type": "Feature", "properties": { "CITY_NAME": "MONTERENZIO", "strokeColor": "#B3B3B3", "RGB": "179, 179, 179" }, "geometry": { "type": "LineString", "coordinates": [ [ 11.409523119625478, 44.348411625284207 ], [ 11.409734614495402, 44.348335031887203 ], [ 11.409900892730874, 44.348259642901525 ], [ 11.409957941781306, 44.348244805698101 ], [ 11.410013825339128, 44.348245485032258 ], [ 11.410068395264952, 44.348258036111936 ], [ 11.410160173098975, 44.348298024406333 ], [ 11.41023428334692, 44.348346577257878 ], [ 11.410335099963236, 44.348453791795187 ] ] } },
{ "type": "Feature", "properties": { "CITY_NAME": "MONTERENZIO", "strokeColor": "#B3B3B3", "RGB": "179, 179, 179" }, "geometry": { "type": "LineString", "coordinates": [ [ 11.40678697367972, 44.347578616481172 ], [ 11.406605827615264, 44.347637828495259 ] ] } },
{ "type": "Feature", "properties": { "CITY_NAME": "MONTERENZIO", "strokeColor": "#B3B3B3", "RGB": "179, 179, 179" }, "geometry": { "type": "LineString", "coordinates": [ [ 11.408757219187128, 44.349518743467435 ], [ 11.408884642656497, 44.349467009510548 ], [ 11.40896068802042, 44.349442303756 ], [ 11.40900744245006, 44.349411416264815 ], [ 11.409022534663405, 44.349371009371488 ], [ 11.409027839920689, 44.349337013709295 ], [ 11.409017684789667, 44.34930728750669 ], [ 11.408986652680591, 44.349285894573335 ], [ 11.408953760445351, 44.349273575158684 ], [ 11.408911103181955, 44.349268231868834 ], [ 11.408829552146097, 44.349267637154682 ], [ 11.408724265751223, 44.349260183429699 ], [ 11.408655803685454, 44.3492519778653 ], [ 11.408606104254272, 44.34923830874007 ], [ 11.408577559309776, 44.349223076928482 ], [ 11.408540761428245, 44.349197283431735 ], [ 11.40851742384225, 44.349172910165244 ], [ 11.408514334399616, 44.349152076324344 ], [ 11.408520963808948, 44.349123138410341 ], [ 11.408536079440561, 44.349083296459099 ], [ 11.40855132866151, 44.349043867614967 ] ] } },
{ "type": "Feature", "properties": { "CITY_NAME": "MONTERENZIO", "strokeColor": "#B3B3B3", "RGB": "179, 179, 179" }, "geometry": { "type": "LineString", "coordinates": [ [ 11.405701758286032, 44.326291345285533 ], [ 11.405761941942488, 44.32635554807068 ], [ 11.406035727023147, 44.326444035670512 ], [ 11.406318633809283, 44.326482747443769 ] ] } },
{ "type": "Feature", "properties": { "CITY_NAME": "MONTERENZIO", "strokeColor": "#B3B3B3", "RGB": "179, 179, 179" }, "geometry": { "type": "LineString", "coordinates": [ [ 11.403248418302415, 44.322537601802544 ], [ 11.403076332049388, 44.322520407111256 ], [ 11.402841671871201, 44.322520908005558 ], [ 11.402670305310878, 44.322505363972049 ], [ 11.402422358960431, 44.322430483177413 ], [ 11.402282688624611, 44.322377173697234 ], [ 11.402152390382282, 44.322310415617835 ], [ 11.40189159459657, 44.322166251086848 ], [ 11.401563095206507, 44.322010518269558 ] ] } },
{ "type": "Feature", "properties": { "CITY_NAME": "MONTERENZIO", "strokeColor": "#B3B3B3", "RGB": "179, 179, 179" }, "geometry": { "type": "LineString", "coordinates": [ [ 11.404712133121524, 44.325507566521189 ], [ 11.404792795611286, 44.325493798263537 ] ] } },
{ "type": "Feature", "properties": { "CITY_NAME": "MONTERENZIO", "strokeColor": "#B3B3B3", "RGB": "179, 179, 179" }, "geometry": { "type": "LineString", "coordinates": [ [ 11.410970133377603, 44.352755784944236 ], [ 11.410878389702894, 44.352392772136874 ], [ 11.410824351433034, 44.352219111211113 ], [ 11.410797532425473, 44.352166659408489 ], [ 11.410722344725222, 44.352054314530335 ], [ 11.41064152137605, 44.351940964160406 ], [ 11.410557507830662, 44.351881337557359 ] ] } },
{ "type": "Feature", "properties": { "CITY_NAME": "MONTERENZIO", "strokeColor": "#B3B3B3", "RGB": "179, 179, 179" }, "geometry": { "type": "LineString", "coordinates": [ [ 11.40863817926464, 44.348851362012859 ], [ 11.408524667004192, 44.348758449143148 ], [ 11.40847771403746, 44.348692747243504 ], [ 11.408258617834758, 44.348230121285219 ], [ 11.408212757141456, 44.348099405250252 ], [ 11.408167539063717, 44.347915587217329 ] ] } }
]
}
