{
"type": "FeatureCollection",
"name": "MONZUNO",
"crs": { "type": "name", "properties": { "name": "urn:ogc:def:crs:OGC:1.3:CRS84" } },
"features": [
{ "type": "Feature", "properties": { "CITY_NAME": "MONZUNO", "strokeColor": "#70ACCC", "RGB": "112, 172, 204" }, "geometry": { "type": "LineString", "coordinates": [ [ 11.26466298938802, 44.280224802509636 ], [ 11.264714894819464, 44.280126859634613 ], [ 11.264810529070518, 44.280022908667462 ], [ 11.264907212537244, 44.279946003064559 ], [ 11.265079515532044, 44.279755384389098 ], [ 11.265198917514182, 44.2796374221302 ], [ 11.265275038568454, 44.279583479986172 ], [ 11.265351656647722, 44.279549250540356 ], [ 11.265475729003713, 44.279500966749104 ], [ 11.265577008767362, 44.279460603895487 ], [ 11.265675324906676, 44.279436739023062 ], [ 11.265733720463867, 44.279407268837026 ], [ 11.265782242904097, 44.279356074339958 ], [ 11.265896740910039, 44.279195270324372 ], [ 11.265976663962393, 44.279106976485302 ], [ 11.266347202313542, 44.278872269414904 ], [ 11.266619304587046, 44.278707828340593 ], [ 11.266868366048822, 44.278555658565459 ], [ 11.26717580632331, 44.278370534434707 ] ] } },
{ "type": "Feature", "properties": { "CITY_NAME": "MONZUNO", "strokeColor": "#70ACCC", "RGB": "112, 172, 204" }, "geometry": { "type": "LineString", "coordinates": [ [ 11.270413953787584, 44.27836828043705 ], [ 11.270344488940621, 44.278349840128932 ], [ 11.270164889849454, 44.278258983707765 ], [ 11.270023390700313, 44.278167847547763 ], [ 11.269999889604721, 44.278139482171063 ], [ 11.269899178563712, 44.278067691448101 ], [ 11.269730213751766, 44.277941012013855 ], [ 11.269607321903692, 44.277832194680471 ], [ 11.269476804619963, 44.277732763944023 ] ] } },
{ "type": "Feature", "properties": { "CITY_NAME": "MONZUNO", "strokeColor": "#70ACCC", "RGB": "112, 172, 204" }, "geometry": { "type": "LineString", "coordinates": [ [ 11.199541197038402, 44.273651723609916 ], [ 11.199489627139133, 44.27371293654722 ], [ 11.199463053546742, 44.273789114219191 ], [ 11.19947226234193, 44.273931963180381 ], [ 11.199539146492857, 44.274269129700357 ], [ 11.199568301713148, 44.274336566934771 ] ] } },
{ "type": "Feature", "properties": { "CITY_NAME": "MONZUNO", "strokeColor": "#70ACCC", "RGB": "112, 172, 204" }, "geometry": { "type": "LineString", "coordinates": [ [ 11.270487022223016, 44.278813005689067 ], [ 11.270503761044623, 44.278741435717379 ], [ 11.270531586104784, 44.278673046562417 ] ] } },
{ "type": "Feature", "properties": { "CITY_NAME": "MONZUNO", "strokeColor": "#70ACCC", "RGB": "112, 172, 204" }, "geometry": { "type": "LineString", "coordinates": [ [ 11.270037830233365, 44.280990164997462 ], [ 11.270073906051966, 44.281041469946871 ], [ 11.270108906626863, 44.281059951964131 ], [ 11.270164485435011, 44.28109719103081 ], [ 11.270272180857477, 44.281175381390781 ], [ 11.270378069382581, 44.281253602177081 ], [ 11.270418940103943, 44.281283824157697 ], [ 11.27045379400392, 44.281298655617164 ], [ 11.270488324340382, 44.281305284676677 ], [ 11.270518965965703, 44.281304692426374 ], [ 11.270562007154989, 44.281298387930839 ], [ 11.270586917922065, 44.281289698107365 ], [ 11.270629066073989, 44.281260609758405 ], [ 11.270649407049621, 44.281227383431613 ], [ 11.270660306514015, 44.281183394673121 ], [ 11.270658732451377, 44.281143295650239 ], [ 11.270627246449429, 44.281076411955965 ], [ 11.270592941609282, 44.28102964632469 ], [ 11.270553194410001, 44.280982072421871 ], [ 11.270476678561138, 44.280916963763445 ], [ 11.270431914247837, 44.280879516994787 ], [ 11.270381563385349, 44.280837616840252 ], [ 11.270334780170478, 44.280794734629069 ], [ 11.270306309146662, 44.280758795902024 ], [ 11.270286276290953, 44.280708102014259 ], [ 11.270259223398092, 44.280616496386301 ], [ 11.270236707549811, 44.280548516818563 ], [ 11.270201186398603, 44.280425146347454 ], [ 11.270164426520266, 44.280361998243329 ], [ 11.270122687109518, 44.280309890334593 ], [ 11.270055318295334, 44.280249140565253 ], [ 11.269995575656223, 44.280200992610219 ], [ 11.26991751939172, 44.280146796874448 ], [ 11.26986882972041, 44.280103913657385 ], [ 11.26982574796657, 44.2800198739032 ] ] } },
{ "type": "Feature", "properties": { "CITY_NAME": "MONZUNO", "strokeColor": "#70ACCC", "RGB": "112, 172, 204" }, "geometry": { "type": "LineString", "coordinates": [ [ 11.258093881233428, 44.317678626026407 ], [ 11.258250654915701, 44.317740248360231 ], [ 11.258414162839699, 44.317813602998292 ], [ 11.25854625453101, 44.317906050895914 ], [ 11.258679928099468, 44.318040127041492 ], [ 11.258759909162489, 44.318139994009613 ] ] } },
{ "type": "Feature", "properties": { "CITY_NAME": "MONZUNO", "strokeColor": "#70ACCC", "RGB": "112, 172, 204" }, "geometry": { "type": "LineString", "coordinates": [ [ 11.258171235949478, 44.315239378372866 ], [ 11.258260815268359, 44.315348933803399 ], [ 11.25845991253729, 44.315545633604124 ], [ 11.258484882526306, 44.315578225973404 ], [ 11.258494756195759, 44.315612247725433 ], [ 11.258487613156385, 44.315650297258586 ], [ 11.258450637108288, 44.315747437344747 ], [ 11.258448087152983, 44.315813456948675 ], [ 11.258456501058273, 44.315855576818443 ] ] } },
{ "type": "Feature", "properties": { "CITY_NAME": "MONZUNO", "strokeColor": "#70ACCC", "RGB": "112, 172, 204" }, "geometry": { "type": "LineString", "coordinates": [ [ 11.258750987544422, 44.315091166900622 ], [ 11.258434856102451, 44.315175363739932 ], [ 11.258171235949478, 44.315239378372866 ] ] } },
{ "type": "Feature", "properties": { "CITY_NAME": "MONZUNO", "strokeColor": "#70ACCC", "RGB": "112, 172, 204" }, "geometry": { "type": "LineString", "coordinates": [ [ 11.260000731182673, 44.319393079719916 ], [ 11.260062797076282, 44.319423935388244 ], [ 11.260106826711075, 44.319437750102921 ], [ 11.260162799624851, 44.319444939059707 ], [ 11.260226932432428, 44.319437339552913 ], [ 11.260281660206827, 44.319410707868698 ], [ 11.260334007817745, 44.319366740619486 ], [ 11.260423355985093, 44.319242724969868 ], [ 11.260520025081911, 44.319039493353095 ], [ 11.260525758903908, 44.318961912284415 ], [ 11.260547138726613, 44.318792892992079 ], [ 11.260567659136715, 44.318737824212882 ], [ 11.260637540876154, 44.318653584797516 ], [ 11.260733335695399, 44.318564307403747 ], [ 11.260951881375554, 44.31840804342982 ], [ 11.261042981666947, 44.318378100060492 ], [ 11.261133182504249, 44.318370048607029 ], [ 11.26116995137318, 44.318375746616461 ], [ 11.261196530739078, 44.318388014123755 ], [ 11.261207981439819, 44.318414234048639 ], [ 11.261203883473259, 44.318443476276123 ], [ 11.261186114805183, 44.318479350656894 ], [ 11.260985220383985, 44.318687239753437 ], [ 11.260939486892294, 44.318765561661053 ], [ 11.260923251502099, 44.318841513238773 ], [ 11.260907800435685, 44.319028647721389 ], [ 11.260906460540303, 44.319129843542321 ], [ 11.260911170584704, 44.319207229512202 ], [ 11.260920189990994, 44.319260837399 ], [ 11.260950882650471, 44.319336025298504 ], [ 11.261029848209686, 44.319494626304994 ], [ 11.261212498224719, 44.319773866101173 ], [ 11.261587581737595, 44.320408087119581 ], [ 11.261730223720901, 44.320640510706269 ] ] } },
{ "type": "Feature", "properties": { "CITY_NAME": "MONZUNO", "strokeColor": "#70ACCC", "RGB": "112, 172, 204" }, "geometry": { "type": "LineString", "coordinates": [ [ 11.26961816309236, 44.280195209277117 ], [ 11.269591501915505, 44.280222183422111 ], [ 11.269574552687949, 44.280250781284479 ], [ 11.269564791434275, 44.280278332370777 ], [ 11.269565762034475, 44.280302946754752 ], [ 11.269572619022561, 44.280339312622495 ], [ 11.269586521048765, 44.280370984789045 ], [ 11.269649470199107, 44.280454655794728 ], [ 11.269798593060196, 44.280660778635998 ], [ 11.269974553546687, 44.280905601338453 ], [ 11.270037830233365, 44.280990164997462 ] ] } },
{ "type": "Feature", "properties": { "CITY_NAME": "MONZUNO", "strokeColor": "#70ACCC", "RGB": "112, 172, 204" }, "geometry": { "type": "LineString", "coordinates": [ [ 11.269943751827288, 44.279941063701763 ], [ 11.269789661059342, 44.279838091253353 ], [ 11.269444170584986, 44.279602692570279 ], [ 11.269054473167964, 44.279346147651488 ], [ 11.268899079100741, 44.279239870623663 ] ] } },
{ "type": "Feature", "properties": { "CITY_NAME": "MONZUNO", "strokeColor": "#70ACCC", "RGB": "112, 172, 204" }, "geometry": { "type": "LineString", "coordinates": [ [ 11.270762364576441, 44.276768821711904 ], [ 11.270924322585335, 44.27672127746041 ] ] } },
{ "type": "Feature", "properties": { "CITY_NAME": "MONZUNO", "strokeColor": "#70ACCC", "RGB": "112, 172, 204" }, "geometry": { "type": "LineString", "coordinates": [ [ 11.271883606966711, 44.277915194715206 ], [ 11.271858757661429, 44.278273045962507 ], [ 11.271869504571356, 44.278325087540509 ], [ 11.271921265440277, 44.278382625811346 ], [ 11.272034108272232, 44.27843692200031 ], [ 11.272159773196721, 44.278486435356136 ] ] } },
{ "type": "Feature", "properties": { "CITY_NAME": "MONZUNO", "strokeColor": "#70ACCC", "RGB": "112, 172, 204" }, "geometry": { "type": "LineString", "coordinates": [ [ 11.196759992380487, 44.271884501079214 ], [ 11.196877438948224, 44.271713261390651 ], [ 11.197009471731732, 44.271509737391852 ], [ 11.197121749332947, 44.27140461429061 ] ] } },
{ "type": "Feature", "properties": { "CITY_NAME": "MONZUNO", "strokeColor": "#70ACCC", "RGB": "112, 172, 204" }, "geometry": { "type": "LineString", "coordinates": [ [ 11.256171671891657, 44.31676971442927 ], [ 11.256227038777087, 44.31703971267472 ], [ 11.256171786496648, 44.317257113793474 ] ] } },
{ "type": "Feature", "properties": { "CITY_NAME": "MONZUNO", "strokeColor": "#70ACCC", "RGB": "112, 172, 204" }, "geometry": { "type": "LineString", "coordinates": [ [ 11.257706772909211, 44.315374569463927 ], [ 11.257446861261586, 44.315535180618333 ], [ 11.256915434047484, 44.315823159793808 ], [ 11.256756334873987, 44.315853955142224 ] ] } },
{ "type": "Feature", "properties": { "CITY_NAME": "MONZUNO", "strokeColor": "#70ACCC", "RGB": "112, 172, 204" }, "geometry": { "type": "LineString", "coordinates": [ [ 11.256756334873987, 44.315853955142224 ], [ 11.256538530234311, 44.315882070865065 ] ] } },
{ "type": "Feature", "properties": { "CITY_NAME": "MONZUNO", "strokeColor": "#70ACCC", "RGB": "112, 172, 204" }, "geometry": { "type": "LineString", "coordinates": [ [ 11.255994423866246, 44.315905333947143 ], [ 11.255838143927878, 44.315810046139433 ] ] } },
{ "type": "Feature", "properties": { "CITY_NAME": "MONZUNO", "strokeColor": "#70ACCC", "RGB": "112, 172, 204" }, "geometry": { "type": "LineString", "coordinates": [ [ 11.272154491241757, 44.280978229602965 ], [ 11.272031741548867, 44.280994451283505 ], [ 11.271833378950545, 44.281005201987206 ], [ 11.271755736887599, 44.281003233074038 ], [ 11.271670814056153, 44.280999580487439 ] ] } },
{ "type": "Feature", "properties": { "CITY_NAME": "MONZUNO", "strokeColor": "#70ACCC", "RGB": "112, 172, 204" }, "geometry": { "type": "LineString", "coordinates": [ [ 11.264494617667051, 44.280582452224955 ], [ 11.264584628621749, 44.280551214006309 ], [ 11.264616119913702, 44.280493078088718 ], [ 11.264635563993844, 44.280308448481165 ], [ 11.26466298938802, 44.280224802509636 ] ] } },
{ "type": "Feature", "properties": { "CITY_NAME": "MONZUNO", "strokeColor": "#70ACCC", "RGB": "112, 172, 204" }, "geometry": { "type": "LineString", "coordinates": [ [ 11.26961816309236, 44.280195209277117 ], [ 11.269676776190371, 44.28013849364077 ], [ 11.269744440554097, 44.280083625484849 ] ] } },
{ "type": "Feature", "properties": { "CITY_NAME": "MONZUNO", "strokeColor": "#70ACCC", "RGB": "112, 172, 204" }, "geometry": { "type": "LineString", "coordinates": [ [ 11.201834740980551, 44.27954369386304 ], [ 11.202198099853513, 44.279189014255252 ], [ 11.202558190750157, 44.278839082522687 ] ] } },
{ "type": "Feature", "properties": { "CITY_NAME": "MONZUNO", "strokeColor": "#70ACCC", "RGB": "112, 172, 204" }, "geometry": { "type": "LineString", "coordinates": [ [ 11.199277251872306, 44.274595970599144 ], [ 11.19928937449353, 44.274550953977055 ], [ 11.199318841374369, 44.274504480602523 ], [ 11.199360279719032, 44.274461394882948 ], [ 11.199425263341602, 44.274415267258505 ], [ 11.199568301713148, 44.274336566934771 ] ] } },
{ "type": "Feature", "properties": { "CITY_NAME": "MONZUNO", "strokeColor": "#70ACCC", "RGB": "112, 172, 204" }, "geometry": { "type": "LineString", "coordinates": [ [ 11.271908188677919, 44.277561166891047 ], [ 11.271883606966711, 44.277915194715206 ] ] } },
{ "type": "Feature", "properties": { "CITY_NAME": "MONZUNO", "strokeColor": "#70ACCC", "RGB": "112, 172, 204" }, "geometry": { "type": "LineString", "coordinates": [ [ 11.266366933824674, 44.277860597487667 ], [ 11.266430085784718, 44.27786553967433 ], [ 11.266508020410278, 44.277871415462585 ], [ 11.266587551831979, 44.277871792947273 ], [ 11.266677504929108, 44.277861046580398 ], [ 11.266743876987951, 44.277847993623119 ], [ 11.266813236213698, 44.277818482568527 ], [ 11.26686821828547, 44.27779105570135 ], [ 11.266906944890991, 44.277763923651257 ], [ 11.266935741972256, 44.277713277848157 ], [ 11.266965651607597, 44.277644385410994 ], [ 11.267000668110622, 44.27756719894105 ], [ 11.267052351470175, 44.277500645231299 ], [ 11.267128691871623, 44.277417241848582 ], [ 11.267202216426078, 44.277354850341574 ], [ 11.267277685454548, 44.277296069041682 ], [ 11.26734311581799, 44.277258429555111 ], [ 11.267408404735033, 44.277217148472637 ], [ 11.267491684454665, 44.277173718481727 ], [ 11.267613369742056, 44.277142350266111 ], [ 11.267874030003187, 44.277059254803419 ], [ 11.26798300225207, 44.277026294926422 ], [ 11.268132950200499, 44.276978014595713 ], [ 11.26822035499738, 44.27694818020592 ], [ 11.268324080047796, 44.276919874303466 ], [ 11.268479509664754, 44.276873316697412 ], [ 11.268624312637758, 44.276832420377168 ], [ 11.268787033524692, 44.276787554062544 ], [ 11.268906552424051, 44.276747116597576 ] ] } },
{ "type": "Feature", "properties": { "CITY_NAME": "MONZUNO", "strokeColor": "#70ACCC", "RGB": "112, 172, 204" }, "geometry": { "type": "LineString", "coordinates": [ [ 11.270924322585335, 44.27672127746041 ], [ 11.271582689762072, 44.27654577481642 ], [ 11.271698902618214, 44.276550966498725 ] ] } },
{ "type": "Feature", "properties": { "CITY_NAME": "MONZUNO", "strokeColor": "#70ACCC", "RGB": "112, 172, 204" }, "geometry": { "type": "LineString", "coordinates": [ [ 11.272159773196721, 44.278486435356136 ], [ 11.272552269611767, 44.278601708292356 ] ] } },
{ "type": "Feature", "properties": { "CITY_NAME": "MONZUNO", "strokeColor": "#70ACCC", "RGB": "112, 172, 204" }, "geometry": { "type": "LineString", "coordinates": [ [ 11.259952187138671, 44.316093087981763 ], [ 11.25997151489605, 44.316034495779981 ], [ 11.260146887764748, 44.315685743036362 ], [ 11.260247052169941, 44.315624670018082 ], [ 11.260345221351177, 44.315607770102858 ], [ 11.260444050158069, 44.315608110973507 ], [ 11.260982129695218, 44.315740546487042 ], [ 11.261102071407603, 44.315744810741116 ], [ 11.261235900637415, 44.315720785701046 ], [ 11.26137738057173, 44.315662119112872 ], [ 11.261574548998736, 44.315572241068089 ], [ 11.261663888041175, 44.315543737425287 ], [ 11.261739140788222, 44.315543598004226 ], [ 11.261826548221398, 44.3155616420364 ], [ 11.2618818984139, 44.315594970516308 ] ] } },
{ "type": "Feature", "properties": { "CITY_NAME": "MONZUNO", "strokeColor": "#70ACCC", "RGB": "112, 172, 204" }, "geometry": { "type": "LineString", "coordinates": [ [ 11.256089588473152, 44.31636941941845 ], [ 11.256171671891657, 44.31676971442927 ] ] } },
{ "type": "Feature", "properties": { "CITY_NAME": "MONZUNO", "strokeColor": "#70ACCC", "RGB": "112, 172, 204" }, "geometry": { "type": "LineString", "coordinates": [ [ 11.255994423866246, 44.315905333947143 ], [ 11.256089588473152, 44.31636941941845 ] ] } },
{ "type": "Feature", "properties": { "CITY_NAME": "MONZUNO", "strokeColor": "#70ACCC", "RGB": "112, 172, 204" }, "geometry": { "type": "LineString", "coordinates": [ [ 11.269943751827288, 44.279941063701763 ], [ 11.270080723786387, 44.279931229022594 ], [ 11.270167330733704, 44.279931407508478 ], [ 11.270252421706148, 44.279938913806824 ], [ 11.270323447905501, 44.279955807032422 ], [ 11.270369379227393, 44.279976824696128 ], [ 11.270406257969858, 44.279997101363548 ], [ 11.270438158457559, 44.280028418215615 ], [ 11.27047932474972, 44.280065942840608 ], [ 11.270511797184575, 44.280111841064667 ], [ 11.270539219849695, 44.280166955118247 ], [ 11.270572980346028, 44.280245660308161 ], [ 11.270594836842635, 44.280342833056118 ], [ 11.270617887122476, 44.280424478199485 ], [ 11.270645378849981, 44.280481410333032 ], [ 11.270689987895716, 44.280560816223399 ], [ 11.270718564297416, 44.280599486033694 ], [ 11.270822175600804, 44.280711500795256 ], [ 11.270892086840064, 44.280792239044118 ], [ 11.270948913758073, 44.280861369008228 ], [ 11.271025371320675, 44.280971157992248 ], [ 11.271050338877222, 44.281009890497579 ] ] } },
{ "type": "Feature", "properties": { "CITY_NAME": "MONZUNO", "strokeColor": "#70ACCC", "RGB": "112, 172, 204" }, "geometry": { "type": "LineString", "coordinates": [ [ 11.269476804619963, 44.277732763944023 ], [ 11.269393558040347, 44.27758830095987 ], [ 11.269288376564553, 44.277421785586228 ], [ 11.269194717987681, 44.277241242374664 ], [ 11.269110511791469, 44.277071461429337 ], [ 11.26905187507937, 44.276955887284238 ] ] } },
{ "type": "Feature", "properties": { "CITY_NAME": "MONZUNO", "strokeColor": "#70ACCC", "RGB": "112, 172, 204" }, "geometry": { "type": "LineString", "coordinates": [ [ 11.270485095876122, 44.276838316691432 ], [ 11.270762364576441, 44.276768821711904 ] ] } },
{ "type": "Feature", "properties": { "CITY_NAME": "MONZUNO", "strokeColor": "#70ACCC", "RGB": "112, 172, 204" }, "geometry": { "type": "LineString", "coordinates": [ [ 11.271596824573155, 44.276950743987193 ], [ 11.272120063943346, 44.277036385048653 ], [ 11.272176519297799, 44.277064575824262 ], [ 11.272192769397543, 44.277108154986387 ], [ 11.272194779772811, 44.277160361407674 ], [ 11.272178432631186, 44.277189928099354 ], [ 11.272024776760928, 44.277354140227366 ], [ 11.271976351833709, 44.277410314941903 ], [ 11.271943626566292, 44.2774595529065 ], [ 11.271921797125207, 44.277510612299437 ], [ 11.271908188677919, 44.277561166891047 ] ] } },
{ "type": "Feature", "properties": { "CITY_NAME": "MONZUNO", "strokeColor": "#70ACCC", "RGB": "112, 172, 204" }, "geometry": { "type": "LineString", "coordinates": [ [ 11.273473730531366, 44.281262268161377 ], [ 11.273167209932813, 44.280969149029019 ], [ 11.273082361119576, 44.280928368152331 ], [ 11.272991531045673, 44.280912669468727 ], [ 11.272892857962681, 44.280910047777624 ], [ 11.272154491241757, 44.280978229602965 ] ] } },
{ "type": "Feature", "properties": { "CITY_NAME": "MONZUNO", "strokeColor": "#70ACCC", "RGB": "112, 172, 204" }, "geometry": { "type": "LineString", "coordinates": [ [ 11.256538530234311, 44.315882070865065 ], [ 11.25631184578922, 44.315897646958604 ], [ 11.255994423866246, 44.315905333947143 ] ] } },
{ "type": "Feature", "properties": { "CITY_NAME": "MONZUNO", "strokeColor": "#70ACCC", "RGB": "112, 172, 204" }, "geometry": { "type": "LineString", "coordinates": [ [ 11.259558497655631, 44.315198573918238 ], [ 11.259422157659266, 44.315665702236089 ], [ 11.259374118307147, 44.315819703786687 ], [ 11.259163688109311, 44.316349788183736 ], [ 11.259166489146189, 44.316414262360617 ] ] } },
{ "type": "Feature", "properties": { "CITY_NAME": "MONZUNO", "strokeColor": "#70ACCC", "RGB": "112, 172, 204" }, "geometry": { "type": "LineString", "coordinates": [ [ 11.259282346493888, 44.317083284833835 ], [ 11.259724965088033, 44.316932510874572 ], [ 11.259746445002117, 44.316867417489547 ], [ 11.259455255140674, 44.316456563702573 ] ] } },
{ "type": "Feature", "properties": { "CITY_NAME": "MONZUNO", "strokeColor": "#70ACCC", "RGB": "112, 172, 204" }, "geometry": { "type": "LineString", "coordinates": [ [ 11.269744440554097, 44.280083625484849 ], [ 11.26982574796657, 44.2800198739032 ] ] } },
{ "type": "Feature", "properties": { "CITY_NAME": "MONZUNO", "strokeColor": "#70ACCC", "RGB": "112, 172, 204" }, "geometry": { "type": "LineString", "coordinates": [ [ 11.26982574796657, 44.2800198739032 ], [ 11.269943751827288, 44.279941063701763 ] ] } },
{ "type": "Feature", "properties": { "CITY_NAME": "MONZUNO", "strokeColor": "#70ACCC", "RGB": "112, 172, 204" }, "geometry": { "type": "LineString", "coordinates": [ [ 11.271670814056153, 44.280999580487439 ], [ 11.271582826469317, 44.280982126182707 ], [ 11.271545467725518, 44.280958592305325 ], [ 11.271527093801348, 44.280922289143462 ], [ 11.271516011912066, 44.280703476800774 ], [ 11.27150173845896, 44.280633721083639 ], [ 11.271451875088005, 44.280530359854204 ], [ 11.271107748713039, 44.279988873629854 ], [ 11.271086125470299, 44.279925083514257 ], [ 11.271091629568303, 44.279881388388731 ], [ 11.271112317804706, 44.279792356118953 ], [ 11.271208585104409, 44.279527808237113 ], [ 11.271153185083286, 44.279347928083311 ], [ 11.27111453553429, 44.279291227916104 ], [ 11.271017158147609, 44.279217613621043 ], [ 11.270795750962796, 44.279055102213476 ], [ 11.270620263713244, 44.278937334356044 ], [ 11.270487022223016, 44.278813005689067 ] ] } },
{ "type": "Feature", "properties": { "CITY_NAME": "MONZUNO", "strokeColor": "#70ACCC", "RGB": "112, 172, 204" }, "geometry": { "type": "LineString", "coordinates": [ [ 11.19905709519924, 44.27467422206059 ], [ 11.199069293293039, 44.274670584028783 ], [ 11.1991516453625, 44.27464082871905 ], [ 11.19922862206591, 44.27461591781384 ], [ 11.199277251872306, 44.274595970599144 ] ] } },
{ "type": "Feature", "properties": { "CITY_NAME": "MONZUNO", "strokeColor": "#70ACCC", "RGB": "112, 172, 204" }, "geometry": { "type": "LineString", "coordinates": [ [ 11.195476443666559, 44.271417698186148 ], [ 11.195755031216644, 44.271569055428529 ], [ 11.196247593119427, 44.271785800519623 ], [ 11.196580750437816, 44.27191699559036 ] ] } },
{ "type": "Feature", "properties": { "CITY_NAME": "MONZUNO", "strokeColor": "#70ACCC", "RGB": "112, 172, 204" }, "geometry": { "type": "LineString", "coordinates": [ [ 11.196085711514366, 44.273364722679453 ], [ 11.196128593680232, 44.273296111440025 ], [ 11.19619401684146, 44.273186517548503 ], [ 11.19625007636632, 44.273066073377784 ], [ 11.196250915996902, 44.272999525791327 ], [ 11.196207539454999, 44.272957503640193 ], [ 11.196147156289651, 44.272924912320654 ], [ 11.19608185079462, 44.272899705293547 ], [ 11.196012135775222, 44.27285088290207 ], [ 11.195865177669093, 44.272719427428271 ], [ 11.195558458988465, 44.272417428409376 ], [ 11.195423307290232, 44.272289699400076 ], [ 11.195359074826397, 44.272229825456108 ], [ 11.195329033707793, 44.272183389015964 ], [ 11.195321917808412, 44.272141534499973 ], [ 11.195334395898552, 44.272100508732869 ], [ 11.195402079176647, 44.272063701696879 ], [ 11.195475699189346, 44.27204883127385 ], [ 11.195802174157821, 44.27205887361179 ], [ 11.195985700882154, 44.272064281158187 ], [ 11.196135745631651, 44.272062678152075 ], [ 11.196237667321446, 44.272051953380512 ], [ 11.19634069834061, 44.272023317512136 ], [ 11.19645736562695, 44.271982979240228 ], [ 11.196580750437816, 44.27191699559036 ] ] } },
{ "type": "Feature", "properties": { "CITY_NAME": "MONZUNO", "strokeColor": "#70ACCC", "RGB": "112, 172, 204" }, "geometry": { "type": "LineString", "coordinates": [ [ 11.196444043640952, 44.269217439002794 ], [ 11.19634712932938, 44.269240054104074 ], [ 11.196260222353809, 44.269283322856232 ], [ 11.196117282443993, 44.269377310424865 ], [ 11.19599260807515, 44.26946936200082 ], [ 11.195773254305392, 44.269682710030615 ], [ 11.195489526604735, 44.269984554333377 ], [ 11.195211889335235, 44.270279941878613 ], [ 11.194968055823031, 44.270515739582159 ], [ 11.194734909860303, 44.270722033171189 ], [ 11.1946685846656, 44.27079414380912 ], [ 11.194664249178768, 44.270844316600027 ], [ 11.194682842354865, 44.270910285403396 ], [ 11.194780406914541, 44.271005563046451 ], [ 11.195164096175995, 44.271236032844314 ], [ 11.195436600596864, 44.27139605067817 ], [ 11.195476443666559, 44.271417698186148 ] ] } },
{ "type": "Feature", "properties": { "CITY_NAME": "MONZUNO", "strokeColor": "#70ACCC", "RGB": "112, 172, 204" }, "geometry": { "type": "LineString", "coordinates": [ [ 11.269289555394142, 44.276650877651726 ], [ 11.269233469237857, 44.2764609845051 ], [ 11.269118482335692, 44.276147784468122 ], [ 11.26909374630306, 44.276068044168504 ], [ 11.26895748824689, 44.275765246390485 ], [ 11.268886917222222, 44.275620723751132 ], [ 11.268794787385888, 44.27547932403553 ], [ 11.268681291325517, 44.275298227439848 ], [ 11.26848786166444, 44.275002175672597 ], [ 11.268393754440323, 44.274900083696693 ] ] } },
{ "type": "Feature", "properties": { "CITY_NAME": "MONZUNO", "strokeColor": "#70ACCC", "RGB": "112, 172, 204" }, "geometry": { "type": "LineString", "coordinates": [ [ 11.258759909162489, 44.318139994009613 ], [ 11.258986605788436, 44.318403436617679 ], [ 11.259217827446601, 44.318670793679516 ], [ 11.259444170947939, 44.318900859850537 ], [ 11.259686397290791, 44.319136094829808 ], [ 11.25983787405154, 44.319273654227253 ], [ 11.259922300585753, 44.319343318805565 ], [ 11.260000731182673, 44.319393079719916 ] ] } },
{ "type": "Feature", "properties": { "CITY_NAME": "MONZUNO", "strokeColor": "#70ACCC", "RGB": "112, 172, 204" }, "geometry": { "type": "LineString", "coordinates": [ [ 11.258759909162489, 44.318139994009613 ], [ 11.258807995531059, 44.318322745402277 ], [ 11.258924622029033, 44.318627360614464 ] ] } },
{ "type": "Feature", "properties": { "CITY_NAME": "MONZUNO", "strokeColor": "#70ACCC", "RGB": "112, 172, 204" }, "geometry": { "type": "LineString", "coordinates": [ [ 11.258171235949478, 44.315239378372866 ], [ 11.257706772909211, 44.315374569463927 ] ] } },
{ "type": "Feature", "properties": { "CITY_NAME": "MONZUNO", "strokeColor": "#70ACCC", "RGB": "112, 172, 204" }, "geometry": { "type": "LineString", "coordinates": [ [ 11.198969533754434, 44.274700341428236 ], [ 11.19905709519924, 44.27467422206059 ] ] } },
{ "type": "Feature", "properties": { "CITY_NAME": "MONZUNO", "strokeColor": "#70ACCC", "RGB": "112, 172, 204" }, "geometry": { "type": "LineString", "coordinates": [ [ 11.199232701775498, 44.272957453890314 ], [ 11.199504611777963, 44.272783240721786 ], [ 11.19962039377096, 44.272615008464157 ], [ 11.199380042670033, 44.27222215958232 ], [ 11.199395218214788, 44.272071225310256 ], [ 11.199229560485463, 44.271720486973713 ] ] } },
{ "type": "Feature", "properties": { "CITY_NAME": "MONZUNO", "strokeColor": "#70ACCC", "RGB": "112, 172, 204" }, "geometry": { "type": "LineString", "coordinates": [ [ 11.261891892982101, 44.316238051916642 ], [ 11.261942815068227, 44.316192952589333 ], [ 11.261957615443668, 44.316110740790897 ], [ 11.261959883384776, 44.316043554533827 ], [ 11.26192691419301, 44.315731047782293 ], [ 11.261914779062794, 44.315680748997174 ], [ 11.26189562202946, 44.315633518847378 ], [ 11.2618818984139, 44.315594970516308 ] ] } },
{ "type": "Feature", "properties": { "CITY_NAME": "MONZUNO", "strokeColor": "#70ACCC", "RGB": "112, 172, 204" }, "geometry": { "type": "LineString", "coordinates": [ [ 11.196759992380487, 44.271884501079214 ], [ 11.19667500318228, 44.271884946943949 ], [ 11.196580750437816, 44.27191699559036 ] ] } },
{ "type": "Feature", "properties": { "CITY_NAME": "MONZUNO", "strokeColor": "#70ACCC", "RGB": "112, 172, 204" }, "geometry": { "type": "LineString", "coordinates": [ [ 11.26905187507937, 44.276955887284238 ], [ 11.268906552424051, 44.276747116597576 ] ] } },
{ "type": "Feature", "properties": { "CITY_NAME": "MONZUNO", "strokeColor": "#70ACCC", "RGB": "112, 172, 204" }, "geometry": { "type": "LineString", "coordinates": [ [ 11.268906552424051, 44.276747116597576 ], [ 11.26907850559102, 44.276707552755994 ], [ 11.269289555394142, 44.276650877651726 ] ] } },
{ "type": "Feature", "properties": { "CITY_NAME": "MONZUNO", "strokeColor": "#70ACCC", "RGB": "112, 172, 204" }, "geometry": { "type": "LineString", "coordinates": [ [ 11.199277251872306, 44.274595970599144 ], [ 11.199498860266296, 44.274531990049759 ], [ 11.199675909589303, 44.274502791349676 ], [ 11.19975727394444, 44.274483248612825 ], [ 11.199914833856621, 44.274419527092405 ], [ 11.200101387094934, 44.274315170278307 ] ] } },
{ "type": "Feature", "properties": { "CITY_NAME": "MONZUNO", "strokeColor": "#70ACCC", "RGB": "112, 172, 204" }, "geometry": { "type": "LineString", "coordinates": [ [ 11.26717580632331, 44.278370534434707 ], [ 11.267447729683646, 44.278190489333248 ], [ 11.267888897104006, 44.277922879757185 ], [ 11.268115406872386, 44.27779665226673 ], [ 11.268220567191481, 44.277758290537172 ], [ 11.268372332336449, 44.277709971993339 ], [ 11.268533543967365, 44.277672414859722 ], [ 11.268650528023112, 44.277661098340118 ], [ 11.26878038981288, 44.277653869693957 ], [ 11.268921329737427, 44.27765261293186 ], [ 11.269119047484345, 44.277671802096116 ], [ 11.269267724942088, 44.277684590473804 ], [ 11.269380635977068, 44.277707141977707 ], [ 11.269476804619963, 44.277732763944023 ] ] } },
{ "type": "Feature", "properties": { "CITY_NAME": "MONZUNO", "strokeColor": "#70ACCC", "RGB": "112, 172, 204" }, "geometry": { "type": "LineString", "coordinates": [ [ 11.269289555394142, 44.276650877651726 ], [ 11.269430636789489, 44.276655147022119 ], [ 11.269572283334247, 44.27667353771097 ], [ 11.269661496897305, 44.276691057442513 ], [ 11.26975866597469, 44.276727566282688 ], [ 11.269896820758952, 44.276796133334052 ], [ 11.269974479350825, 44.276842108386496 ], [ 11.270024142885399, 44.276864897589526 ], [ 11.270069950810358, 44.27688137948595 ], [ 11.270119046898724, 44.276891387732533 ], [ 11.270171640312743, 44.276898595844166 ], [ 11.270229326246559, 44.276897506446481 ], [ 11.270267079738124, 44.276894059383821 ], [ 11.270329685334126, 44.276880121326819 ], [ 11.270485095876122, 44.276838316691432 ] ] } },
{ "type": "Feature", "properties": { "CITY_NAME": "MONZUNO", "strokeColor": "#70ACCC", "RGB": "112, 172, 204" }, "geometry": { "type": "LineString", "coordinates": [ [ 11.258750987544422, 44.315091166900622 ], [ 11.259292157525666, 44.314961389432732 ], [ 11.259375501280717, 44.314967984931293 ], [ 11.25943529990611, 44.314980579471012 ], [ 11.259501001130261, 44.315010592884484 ], [ 11.259544712841379, 44.315058578076041 ], [ 11.259564740162674, 44.315125820008085 ], [ 11.259558497655631, 44.315198573918238 ] ] } }
]
}
