{
"type": "FeatureCollection",
"name": "PALAZZUOLO_SUL_SENIO",
"crs": { "type": "name", "properties": { "name": "urn:ogc:def:crs:OGC:1.3:CRS84" } },
"features": [
{ "type": "Feature", "properties": { "CITY_NAME": "PALAZZUOLO_SUL_SENIO", "strokeColor": "#B3B3B3", "RGB": "179, 179, 179" }, "geometry": { "type": "LineString", "coordinates": [ [ 11.546544557230986, 44.113177074091297 ], [ 11.546238013578266, 44.113118386699028 ], [ 11.545547660682768, 44.112885229791814 ] ] } },
{ "type": "Feature", "properties": { "CITY_NAME": "PALAZZUOLO_SUL_SENIO", "strokeColor": "#B3B3B3", "RGB": "179, 179, 179" }, "geometry": { "type": "LineString", "coordinates": [ [ 11.547743262986753, 44.112513062088205 ], [ 11.547986924974474, 44.112495782908866 ] ] } },
{ "type": "Feature", "properties": { "CITY_NAME": "PALAZZUOLO_SUL_SENIO", "strokeColor": "#B3B3B3", "RGB": "179, 179, 179" }, "geometry": { "type": "LineString", "coordinates": [ [ 11.53508196627496, 44.108661459157538 ], [ 11.535134329897611, 44.108880503043004 ], [ 11.535337779903942, 44.109027640080804 ], [ 11.536289821901992, 44.10929416713936 ], [ 11.537065799543488, 44.109663118147502 ], [ 11.537633498700004, 44.110020931560719 ], [ 11.537862347556906, 44.110256229996928 ], [ 11.537838072525112, 44.110327703703618 ] ] } },
{ "type": "Feature", "properties": { "CITY_NAME": "PALAZZUOLO_SUL_SENIO", "strokeColor": "#B3B3B3", "RGB": "179, 179, 179" }, "geometry": { "type": "LineString", "coordinates": [ [ 11.549354142911424, 44.112209366667599 ], [ 11.549433226290018, 44.112150101066447 ], [ 11.549442140955206, 44.111735369410965 ], [ 11.549618018343676, 44.111087318237871 ], [ 11.549813901074007, 44.110496215291057 ], [ 11.549824760337231, 44.110336536019148 ], [ 11.549844993830582, 44.110224899219055 ] ] } },
{ "type": "Feature", "properties": { "CITY_NAME": "PALAZZUOLO_SUL_SENIO", "strokeColor": "#B3B3B3", "RGB": "179, 179, 179" }, "geometry": { "type": "LineString", "coordinates": [ [ 11.550545080915471, 44.115288980910776 ], [ 11.549835362739094, 44.114401534727648 ], [ 11.549281036031468, 44.113969107945614 ] ] } },
{ "type": "Feature", "properties": { "CITY_NAME": "PALAZZUOLO_SUL_SENIO", "strokeColor": "#B3B3B3", "RGB": "179, 179, 179" }, "geometry": { "type": "LineString", "coordinates": [ [ 11.547648023625444, 44.113825625299526 ], [ 11.547688592589411, 44.113636409697968 ], [ 11.547710778465689, 44.113438513011609 ] ] } },
{ "type": "Feature", "properties": { "CITY_NAME": "PALAZZUOLO_SUL_SENIO", "strokeColor": "#B3B3B3", "RGB": "179, 179, 179" }, "geometry": { "type": "LineString", "coordinates": [ [ 11.547882375659869, 44.112906559867021 ], [ 11.547743262986753, 44.112513062088205 ] ] } },
{ "type": "Feature", "properties": { "CITY_NAME": "PALAZZUOLO_SUL_SENIO", "strokeColor": "#B3B3B3", "RGB": "179, 179, 179" }, "geometry": { "type": "LineString", "coordinates": [ [ 11.548223028568058, 44.112448554919048 ], [ 11.548281289883448, 44.11238115062833 ] ] } },
{ "type": "Feature", "properties": { "CITY_NAME": "PALAZZUOLO_SUL_SENIO", "strokeColor": "#B3B3B3", "RGB": "179, 179, 179" }, "geometry": { "type": "LineString", "coordinates": [ [ 11.548954980660657, 44.113742537246829 ], [ 11.549281036031468, 44.113969107945614 ] ] } },
{ "type": "Feature", "properties": { "CITY_NAME": "PALAZZUOLO_SUL_SENIO", "strokeColor": "#B3B3B3", "RGB": "179, 179, 179" }, "geometry": { "type": "LineString", "coordinates": [ [ 11.548859609455873, 44.112568478185558 ], [ 11.54886630303008, 44.112654613030216 ], [ 11.548913939148997, 44.112751617928772 ] ] } },
{ "type": "Feature", "properties": { "CITY_NAME": "PALAZZUOLO_SUL_SENIO", "strokeColor": "#B3B3B3", "RGB": "179, 179, 179" }, "geometry": { "type": "LineString", "coordinates": [ [ 11.547893716972508, 44.112988782760972 ], [ 11.548010402598589, 44.113431173090099 ] ] } },
{ "type": "Feature", "properties": { "CITY_NAME": "PALAZZUOLO_SUL_SENIO", "strokeColor": "#B3B3B3", "RGB": "179, 179, 179" }, "geometry": { "type": "LineString", "coordinates": [ [ 11.533611050537594, 44.10724771543191 ], [ 11.533910509380382, 44.10749132058293 ], [ 11.534545220190118, 44.10787121610884 ] ] } },
{ "type": "Feature", "properties": { "CITY_NAME": "PALAZZUOLO_SUL_SENIO", "strokeColor": "#B3B3B3", "RGB": "179, 179, 179" }, "geometry": { "type": "LineString", "coordinates": [ [ 11.545109796063477, 44.114741097754759 ], [ 11.545148583019776, 44.114695040556207 ], [ 11.545092092405584, 44.114348318724808 ] ] } },
{ "type": "Feature", "properties": { "CITY_NAME": "PALAZZUOLO_SUL_SENIO", "strokeColor": "#B3B3B3", "RGB": "179, 179, 179" }, "geometry": { "type": "LineString", "coordinates": [ [ 11.538387643597414, 44.116959392805079 ], [ 11.53796237597572, 44.117060034127419 ], [ 11.537307086296778, 44.117169708536224 ], [ 11.537025764552071, 44.117221753112368 ] ] } },
{ "type": "Feature", "properties": { "CITY_NAME": "PALAZZUOLO_SUL_SENIO", "strokeColor": "#B3B3B3", "RGB": "179, 179, 179" }, "geometry": { "type": "LineString", "coordinates": [ [ 11.545995412034248, 44.113981095411667 ], [ 11.546188517925593, 44.11409002309729 ] ] } },
{ "type": "Feature", "properties": { "CITY_NAME": "PALAZZUOLO_SUL_SENIO", "strokeColor": "#B3B3B3", "RGB": "179, 179, 179" }, "geometry": { "type": "LineString", "coordinates": [ [ 11.548336042799116, 44.113823246106222 ], [ 11.548376300013816, 44.113541830755779 ] ] } },
{ "type": "Feature", "properties": { "CITY_NAME": "PALAZZUOLO_SUL_SENIO", "strokeColor": "#B3B3B3", "RGB": "179, 179, 179" }, "geometry": { "type": "LineString", "coordinates": [ [ 11.547893716972508, 44.112988782760972 ], [ 11.546880290191059, 44.113185398328405 ], [ 11.546623323580167, 44.113186614272642 ], [ 11.546544557230986, 44.113177074091297 ] ] } },
{ "type": "Feature", "properties": { "CITY_NAME": "PALAZZUOLO_SUL_SENIO", "strokeColor": "#B3B3B3", "RGB": "179, 179, 179" }, "geometry": { "type": "LineString", "coordinates": [ [ 11.547893716972508, 44.112988782760972 ], [ 11.547882375659869, 44.112906559867021 ] ] } },
{ "type": "Feature", "properties": { "CITY_NAME": "PALAZZUOLO_SUL_SENIO", "strokeColor": "#B3B3B3", "RGB": "179, 179, 179" }, "geometry": { "type": "LineString", "coordinates": [ [ 11.55179208464412, 44.116755274898111 ], [ 11.552093111359898, 44.116625264295919 ], [ 11.552230096394721, 44.116658331404913 ], [ 11.552456554089646, 44.116855180975776 ], [ 11.552850285092596, 44.117173687077781 ], [ 11.553103583366633, 44.117308296805177 ], [ 11.553643847579123, 44.117641586103701 ], [ 11.553842550183512, 44.117809297725692 ] ] } },
{ "type": "Feature", "properties": { "CITY_NAME": "PALAZZUOLO_SUL_SENIO", "strokeColor": "#B3B3B3", "RGB": "179, 179, 179" }, "geometry": { "type": "LineString", "coordinates": [ [ 11.544852914601602, 44.112335248616006 ], [ 11.5449219013483, 44.112153947124945 ], [ 11.545019077630442, 44.112107992928102 ], [ 11.545899083924333, 44.112194382653861 ] ] } },
{ "type": "Feature", "properties": { "CITY_NAME": "PALAZZUOLO_SUL_SENIO", "strokeColor": "#B3B3B3", "RGB": "179, 179, 179" }, "geometry": { "type": "LineString", "coordinates": [ [ 11.542014897595381, 44.111906728618074 ], [ 11.54387781298486, 44.112883596532782 ] ] } },
{ "type": "Feature", "properties": { "CITY_NAME": "PALAZZUOLO_SUL_SENIO", "strokeColor": "#B3B3B3", "RGB": "179, 179, 179" }, "geometry": { "type": "LineString", "coordinates": [ [ 11.537025764552071, 44.117221753112368 ], [ 11.537054513745282, 44.117435985353929 ], [ 11.53718941165088, 44.117503436507761 ] ] } },
{ "type": "Feature", "properties": { "CITY_NAME": "PALAZZUOLO_SUL_SENIO", "strokeColor": "#B3B3B3", "RGB": "179, 179, 179" }, "geometry": { "type": "LineString", "coordinates": [ [ 11.547710778465689, 44.113438513011609 ], [ 11.548010402598589, 44.113431173090099 ] ] } },
{ "type": "Feature", "properties": { "CITY_NAME": "PALAZZUOLO_SUL_SENIO", "strokeColor": "#B3B3B3", "RGB": "179, 179, 179" }, "geometry": { "type": "LineString", "coordinates": [ [ 11.547710778465689, 44.113438513011609 ], [ 11.54712431013848, 44.11347823094485 ] ] } },
{ "type": "Feature", "properties": { "CITY_NAME": "PALAZZUOLO_SUL_SENIO", "strokeColor": "#B3B3B3", "RGB": "179, 179, 179" }, "geometry": { "type": "LineString", "coordinates": [ [ 11.550545080915471, 44.115288980910776 ], [ 11.551135588068936, 44.115973982657628 ], [ 11.55179208464412, 44.116755274898111 ] ] } },
{ "type": "Feature", "properties": { "CITY_NAME": "PALAZZUOLO_SUL_SENIO", "strokeColor": "#B3B3B3", "RGB": "179, 179, 179" }, "geometry": { "type": "LineString", "coordinates": [ [ 11.54174976065662, 44.11530586355083 ], [ 11.541213176975472, 44.115804156588993 ], [ 11.541001295300008, 44.115879322025158 ], [ 11.54080255902339, 44.115918971033118 ] ] } },
{ "type": "Feature", "properties": { "CITY_NAME": "PALAZZUOLO_SUL_SENIO", "strokeColor": "#B3B3B3", "RGB": "179, 179, 179" }, "geometry": { "type": "LineString", "coordinates": [ [ 11.547986924974474, 44.112495782908866 ], [ 11.548123684451111, 44.11246479525785 ], [ 11.548223028568058, 44.112448554919048 ] ] } },
{ "type": "Feature", "properties": { "CITY_NAME": "PALAZZUOLO_SUL_SENIO", "strokeColor": "#B3B3B3", "RGB": "179, 179, 179" }, "geometry": { "type": "LineString", "coordinates": [ [ 11.547743262986753, 44.112513062088205 ], [ 11.547606939032159, 44.1125065724951 ], [ 11.54755111705321, 44.112519318547747 ] ] } },
{ "type": "Feature", "properties": { "CITY_NAME": "PALAZZUOLO_SUL_SENIO", "strokeColor": "#B3B3B3", "RGB": "179, 179, 179" }, "geometry": { "type": "LineString", "coordinates": [ [ 11.549995650498429, 44.112405173686682 ], [ 11.549941811912923, 44.112638579932856 ], [ 11.549948636283091, 44.112736488671132 ] ] } },
{ "type": "Feature", "properties": { "CITY_NAME": "PALAZZUOLO_SUL_SENIO", "strokeColor": "#B3B3B3", "RGB": "179, 179, 179" }, "geometry": { "type": "LineString", "coordinates": [ [ 11.549374666596822, 44.112471020331263 ], [ 11.549354142911424, 44.112209366667599 ] ] } },
{ "type": "Feature", "properties": { "CITY_NAME": "PALAZZUOLO_SUL_SENIO", "strokeColor": "#B3B3B3", "RGB": "179, 179, 179" }, "geometry": { "type": "LineString", "coordinates": [ [ 11.54919636940293, 44.114063499216385 ], [ 11.54966302359308, 44.114404322883672 ], [ 11.550133427166628, 44.114999560635155 ] ] } },
{ "type": "Feature", "properties": { "CITY_NAME": "PALAZZUOLO_SUL_SENIO", "strokeColor": "#B3B3B3", "RGB": "179, 179, 179" }, "geometry": { "type": "LineString", "coordinates": [ [ 11.532822510848803, 44.106534058316626 ], [ 11.533611050537594, 44.10724771543191 ] ] } },
{ "type": "Feature", "properties": { "CITY_NAME": "PALAZZUOLO_SUL_SENIO", "strokeColor": "#B3B3B3", "RGB": "179, 179, 179" }, "geometry": { "type": "LineString", "coordinates": [ [ 11.547350854315507, 44.112276700951149 ], [ 11.547028285274646, 44.112282112071604 ], [ 11.546810944974746, 44.112358407622303 ], [ 11.546573263734293, 44.112407499997694 ], [ 11.546472630528173, 44.112446620079638 ] ] } },
{ "type": "Feature", "properties": { "CITY_NAME": "PALAZZUOLO_SUL_SENIO", "strokeColor": "#B3B3B3", "RGB": "179, 179, 179" }, "geometry": { "type": "LineString", "coordinates": [ [ 11.548376300013816, 44.113541830755779 ], [ 11.548629987831601, 44.113611194981267 ] ] } },
{ "type": "Feature", "properties": { "CITY_NAME": "PALAZZUOLO_SUL_SENIO", "strokeColor": "#B3B3B3", "RGB": "179, 179, 179" }, "geometry": { "type": "LineString", "coordinates": [ [ 11.546188517925593, 44.11409002309729 ], [ 11.546003015447779, 44.11415880258086 ], [ 11.545092092405584, 44.114348318724808 ] ] } },
{ "type": "Feature", "properties": { "CITY_NAME": "PALAZZUOLO_SUL_SENIO", "strokeColor": "#B3B3B3", "RGB": "179, 179, 179" }, "geometry": { "type": "LineString", "coordinates": [ [ 11.549374666596822, 44.112471020331263 ], [ 11.549995650498429, 44.112405173686682 ] ] } },
{ "type": "Feature", "properties": { "CITY_NAME": "PALAZZUOLO_SUL_SENIO", "strokeColor": "#B3B3B3", "RGB": "179, 179, 179" }, "geometry": { "type": "LineString", "coordinates": [ [ 11.547953492022808, 44.113849971870565 ], [ 11.547648023625444, 44.113825625299526 ] ] } },
{ "type": "Feature", "properties": { "CITY_NAME": "PALAZZUOLO_SUL_SENIO", "strokeColor": "#B3B3B3", "RGB": "179, 179, 179" }, "geometry": { "type": "LineString", "coordinates": [ [ 11.547882375659869, 44.112906559867021 ], [ 11.548181098561786, 44.112834089084402 ], [ 11.547986924974474, 44.112495782908866 ] ] } },
{ "type": "Feature", "properties": { "CITY_NAME": "PALAZZUOLO_SUL_SENIO", "strokeColor": "#B3B3B3", "RGB": "179, 179, 179" }, "geometry": { "type": "LineString", "coordinates": [ [ 11.54755111705321, 44.112519318547747 ], [ 11.547308658937562, 44.112575136278622 ] ] } },
{ "type": "Feature", "properties": { "CITY_NAME": "PALAZZUOLO_SUL_SENIO", "strokeColor": "#B3B3B3", "RGB": "179, 179, 179" }, "geometry": { "type": "LineString", "coordinates": [ [ 11.54879174685659, 44.112575655169692 ], [ 11.548859609455873, 44.112568478185558 ] ] } },
{ "type": "Feature", "properties": { "CITY_NAME": "PALAZZUOLO_SUL_SENIO", "strokeColor": "#B3B3B3", "RGB": "179, 179, 179" }, "geometry": { "type": "LineString", "coordinates": [ [ 11.546955735716869, 44.112691749392852 ], [ 11.547308658937562, 44.112575136278622 ] ] } },
{ "type": "Feature", "properties": { "CITY_NAME": "PALAZZUOLO_SUL_SENIO", "strokeColor": "#B3B3B3", "RGB": "179, 179, 179" }, "geometry": { "type": "LineString", "coordinates": [ [ 11.546472630528173, 44.112446620079638 ], [ 11.546547544615827, 44.112646209577726 ], [ 11.546557067625253, 44.112776604342052 ] ] } },
{ "type": "Feature", "properties": { "CITY_NAME": "PALAZZUOLO_SUL_SENIO", "strokeColor": "#B3B3B3", "RGB": "179, 179, 179" }, "geometry": { "type": "LineString", "coordinates": [ [ 11.54152546119451, 44.11163501799976 ], [ 11.542014897595381, 44.111906728618074 ] ] } },
{ "type": "Feature", "properties": { "CITY_NAME": "PALAZZUOLO_SUL_SENIO", "strokeColor": "#B3B3B3", "RGB": "179, 179, 179" }, "geometry": { "type": "LineString", "coordinates": [ [ 11.534545220190118, 44.10787121610884 ], [ 11.535405455519699, 44.108445351288282 ] ] } },
{ "type": "Feature", "properties": { "CITY_NAME": "PALAZZUOLO_SUL_SENIO", "strokeColor": "#B3B3B3", "RGB": "179, 179, 179" }, "geometry": { "type": "LineString", "coordinates": [ [ 11.547443498612116, 44.113971749084527 ], [ 11.547462053898613, 44.113907924847055 ], [ 11.547525023762937, 44.113815263194212 ] ] } },
{ "type": "Feature", "properties": { "CITY_NAME": "PALAZZUOLO_SUL_SENIO", "strokeColor": "#B3B3B3", "RGB": "179, 179, 179" }, "geometry": { "type": "LineString", "coordinates": [ [ 11.542051659111817, 44.112408484490125 ], [ 11.541923279761413, 44.112514017977041 ], [ 11.541751094147164, 44.112544450806631 ], [ 11.540808784399344, 44.112435093842777 ], [ 11.540544207537129, 44.112377146166999 ], [ 11.540223548414691, 44.112216709840524 ] ] } },
{ "type": "Feature", "properties": { "CITY_NAME": "PALAZZUOLO_SUL_SENIO", "strokeColor": "#B3B3B3", "RGB": "179, 179, 179" }, "geometry": { "type": "LineString", "coordinates": [ [ 11.550133427166628, 44.114999560635155 ], [ 11.549961669760641, 44.115085229948924 ], [ 11.550228976067903, 44.11541082356753 ], [ 11.550545080915471, 44.115288980910776 ] ] } },
{ "type": "Feature", "properties": { "CITY_NAME": "PALAZZUOLO_SUL_SENIO", "strokeColor": "#B3B3B3", "RGB": "179, 179, 179" }, "geometry": { "type": "LineString", "coordinates": [ [ 11.545675770844104, 44.112655683099447 ], [ 11.544852914601602, 44.112335248616006 ] ] } },
{ "type": "Feature", "properties": { "CITY_NAME": "PALAZZUOLO_SUL_SENIO", "strokeColor": "#B3B3B3", "RGB": "179, 179, 179" }, "geometry": { "type": "LineString", "coordinates": [ [ 11.54387781298486, 44.112883596532782 ], [ 11.545995412034248, 44.113981095411667 ] ] } },
{ "type": "Feature", "properties": { "CITY_NAME": "PALAZZUOLO_SUL_SENIO", "strokeColor": "#B3B3B3", "RGB": "179, 179, 179" }, "geometry": { "type": "LineString", "coordinates": [ [ 11.545092092405584, 44.114348318724808 ], [ 11.544220434733734, 44.114487965266186 ], [ 11.543133728286429, 44.114940609151638 ], [ 11.542036802597295, 44.115154856271275 ], [ 11.54174976065662, 44.11530586355083 ] ] } },
{ "type": "Feature", "properties": { "CITY_NAME": "PALAZZUOLO_SUL_SENIO", "strokeColor": "#B3B3B3", "RGB": "179, 179, 179" }, "geometry": { "type": "LineString", "coordinates": [ [ 11.548081709763812, 44.113857497243906 ], [ 11.547953492022808, 44.113849971870565 ] ] } },
{ "type": "Feature", "properties": { "CITY_NAME": "PALAZZUOLO_SUL_SENIO", "strokeColor": "#B3B3B3", "RGB": "179, 179, 179" }, "geometry": { "type": "LineString", "coordinates": [ [ 11.54919636940293, 44.114063499216385 ], [ 11.549281036031468, 44.113969107945614 ] ] } },
{ "type": "Feature", "properties": { "CITY_NAME": "PALAZZUOLO_SUL_SENIO", "strokeColor": "#B3B3B3", "RGB": "179, 179, 179" }, "geometry": { "type": "LineString", "coordinates": [ [ 11.548954980660657, 44.113742537246829 ], [ 11.548629987831601, 44.113611194981267 ] ] } },
{ "type": "Feature", "properties": { "CITY_NAME": "PALAZZUOLO_SUL_SENIO", "strokeColor": "#B3B3B3", "RGB": "179, 179, 179" }, "geometry": { "type": "LineString", "coordinates": [ [ 11.537025764552071, 44.117221753112368 ], [ 11.536670876413755, 44.117268386605794 ], [ 11.536354156443712, 44.117293036464766 ], [ 11.536020971121959, 44.117275780993893 ], [ 11.535917496321062, 44.117256945577658 ] ] } },
{ "type": "Feature", "properties": { "CITY_NAME": "PALAZZUOLO_SUL_SENIO", "strokeColor": "#B3B3B3", "RGB": "179, 179, 179" }, "geometry": { "type": "LineString", "coordinates": [ [ 11.549948636283091, 44.112736488671132 ], [ 11.550014719953992, 44.112854406607518 ], [ 11.550320604559444, 44.113390969291025 ], [ 11.550397365136464, 44.113473543835866 ] ] } },
{ "type": "Feature", "properties": { "CITY_NAME": "PALAZZUOLO_SUL_SENIO", "strokeColor": "#B3B3B3", "RGB": "179, 179, 179" }, "geometry": { "type": "LineString", "coordinates": [ [ 11.542051659111817, 44.112408484490125 ], [ 11.541179037814354, 44.112090317139597 ] ] } },
{ "type": "Feature", "properties": { "CITY_NAME": "PALAZZUOLO_SUL_SENIO", "strokeColor": "#B3B3B3", "RGB": "179, 179, 179" }, "geometry": { "type": "LineString", "coordinates": [ [ 11.54387781298486, 44.112883596532782 ], [ 11.543673308772378, 44.113075854624022 ] ] } },
{ "type": "Feature", "properties": { "CITY_NAME": "PALAZZUOLO_SUL_SENIO", "strokeColor": "#B3B3B3", "RGB": "179, 179, 179" }, "geometry": { "type": "LineString", "coordinates": [ [ 11.547953492022808, 44.113849971870565 ], [ 11.547966881509597, 44.113930094543534 ] ] } },
{ "type": "Feature", "properties": { "CITY_NAME": "PALAZZUOLO_SUL_SENIO", "strokeColor": "#B3B3B3", "RGB": "179, 179, 179" }, "geometry": { "type": "LineString", "coordinates": [ [ 11.547525023762937, 44.113815263194212 ], [ 11.547648023625444, 44.113825625299526 ] ] } },
{ "type": "Feature", "properties": { "CITY_NAME": "PALAZZUOLO_SUL_SENIO", "strokeColor": "#B3B3B3", "RGB": "179, 179, 179" }, "geometry": { "type": "LineString", "coordinates": [ [ 11.548128775211691, 44.113812719068882 ], [ 11.548081709763812, 44.113857497243906 ] ] } },
{ "type": "Feature", "properties": { "CITY_NAME": "PALAZZUOLO_SUL_SENIO", "strokeColor": "#B3B3B3", "RGB": "179, 179, 179" }, "geometry": { "type": "LineString", "coordinates": [ [ 11.545547660682768, 44.112885229791814 ], [ 11.543975113054525, 44.112262740208379 ] ] } },
{ "type": "Feature", "properties": { "CITY_NAME": "PALAZZUOLO_SUL_SENIO", "strokeColor": "#B3B3B3", "RGB": "179, 179, 179" }, "geometry": { "type": "LineString", "coordinates": [ [ 11.549538709931765, 44.114033663544944 ], [ 11.550173576484715, 44.113619527526545 ] ] } },
{ "type": "Feature", "properties": { "CITY_NAME": "PALAZZUOLO_SUL_SENIO", "strokeColor": "#B3B3B3", "RGB": "179, 179, 179" }, "geometry": { "type": "LineString", "coordinates": [ [ 11.548223028568058, 44.112448554919048 ], [ 11.548345384502541, 44.112515931624735 ], [ 11.548431735156564, 44.112586115041275 ], [ 11.548625209861504, 44.112561762828037 ], [ 11.54879174685659, 44.112575655169692 ] ] } },
{ "type": "Feature", "properties": { "CITY_NAME": "PALAZZUOLO_SUL_SENIO", "strokeColor": "#B3B3B3", "RGB": "179, 179, 179" }, "geometry": { "type": "LineString", "coordinates": [ [ 11.547743262986753, 44.112513062088205 ], [ 11.54770086633925, 44.112324002487824 ] ] } },
{ "type": "Feature", "properties": { "CITY_NAME": "PALAZZUOLO_SUL_SENIO", "strokeColor": "#B3B3B3", "RGB": "179, 179, 179" }, "geometry": { "type": "LineString", "coordinates": [ [ 11.545675770844104, 44.112655683099447 ], [ 11.545835367589991, 44.112573765646204 ], [ 11.546190433351299, 44.112501314966174 ], [ 11.546472630528173, 44.112446620079638 ] ] } },
{ "type": "Feature", "properties": { "CITY_NAME": "PALAZZUOLO_SUL_SENIO", "strokeColor": "#B3B3B3", "RGB": "179, 179, 179" }, "geometry": { "type": "LineString", "coordinates": [ [ 11.544852914601602, 44.112335248616006 ], [ 11.544143344238513, 44.112046851969104 ] ] } },
{ "type": "Feature", "properties": { "CITY_NAME": "PALAZZUOLO_SUL_SENIO", "strokeColor": "#B3B3B3", "RGB": "179, 179, 179" }, "geometry": { "type": "LineString", "coordinates": [ [ 11.542014897595381, 44.111906728618074 ], [ 11.541947581346164, 44.112031006395647 ], [ 11.542180620761238, 44.112229781841066 ], [ 11.542051659111817, 44.112408484490125 ] ] } },
{ "type": "Feature", "properties": { "CITY_NAME": "PALAZZUOLO_SUL_SENIO", "strokeColor": "#B3B3B3", "RGB": "179, 179, 179" }, "geometry": { "type": "LineString", "coordinates": [ [ 11.531293857566078, 44.105179055750412 ], [ 11.53131572645337, 44.105283655498198 ], [ 11.53163389878854, 44.105745401042952 ], [ 11.532005260988987, 44.106055432314662 ], [ 11.532822510848803, 44.106534058316626 ] ] } },
{ "type": "Feature", "properties": { "CITY_NAME": "PALAZZUOLO_SUL_SENIO", "strokeColor": "#B3B3B3", "RGB": "179, 179, 179" }, "geometry": { "type": "LineString", "coordinates": [ [ 11.548811775701012, 44.114070732371111 ], [ 11.548829236897992, 44.114037695734275 ], [ 11.548848253671284, 44.114012963885649 ], [ 11.548883699263936, 44.113951270601468 ] ] } },
{ "type": "Feature", "properties": { "CITY_NAME": "PALAZZUOLO_SUL_SENIO", "strokeColor": "#B3B3B3", "RGB": "179, 179, 179" }, "geometry": { "type": "LineString", "coordinates": [ [ 11.537364150946608, 44.109397038215441 ], [ 11.536431285191826, 44.109037973114127 ], [ 11.535405455519699, 44.108445351288282 ] ] } },
{ "type": "Feature", "properties": { "CITY_NAME": "PALAZZUOLO_SUL_SENIO", "strokeColor": "#B3B3B3", "RGB": "179, 179, 179" }, "geometry": { "type": "LineString", "coordinates": [ [ 11.548010402598589, 44.113431173090099 ], [ 11.548376300013816, 44.113541830755779 ] ] } },
{ "type": "Feature", "properties": { "CITY_NAME": "PALAZZUOLO_SUL_SENIO", "strokeColor": "#B3B3B3", "RGB": "179, 179, 179" }, "geometry": { "type": "LineString", "coordinates": [ [ 11.546955735716869, 44.112691749392852 ], [ 11.546741456288235, 44.112760301432665 ], [ 11.546557067625253, 44.112776604342052 ] ] } },
{ "type": "Feature", "properties": { "CITY_NAME": "PALAZZUOLO_SUL_SENIO", "strokeColor": "#B3B3B3", "RGB": "179, 179, 179" }, "geometry": { "type": "LineString", "coordinates": [ [ 11.548883699263936, 44.113951270601468 ], [ 11.548954980660657, 44.113742537246829 ] ] } },
{ "type": "Feature", "properties": { "CITY_NAME": "PALAZZUOLO_SUL_SENIO", "strokeColor": "#B3B3B3", "RGB": "179, 179, 179" }, "geometry": { "type": "LineString", "coordinates": [ [ 11.548859609455873, 44.112568478185558 ], [ 11.549374666596822, 44.112471020331263 ] ] } },
{ "type": "Feature", "properties": { "CITY_NAME": "PALAZZUOLO_SUL_SENIO", "strokeColor": "#B3B3B3", "RGB": "179, 179, 179" }, "geometry": { "type": "LineString", "coordinates": [ [ 11.550173576484715, 44.113619527526545 ], [ 11.550397365136464, 44.113473543835866 ] ] } },
{ "type": "Feature", "properties": { "CITY_NAME": "PALAZZUOLO_SUL_SENIO", "strokeColor": "#B3B3B3", "RGB": "179, 179, 179" }, "geometry": { "type": "LineString", "coordinates": [ [ 11.547966881509597, 44.113930094543534 ], [ 11.547956301651194, 44.114084971409767 ], [ 11.547813523993396, 44.114073874288344 ], [ 11.547802052445277, 44.114049723930009 ], [ 11.547628043891407, 44.114025168909649 ], [ 11.547443498612116, 44.113971749084527 ] ] } },
{ "type": "Feature", "properties": { "CITY_NAME": "PALAZZUOLO_SUL_SENIO", "strokeColor": "#B3B3B3", "RGB": "179, 179, 179" }, "geometry": { "type": "LineString", "coordinates": [ [ 11.542149445480572, 44.115492871232654 ], [ 11.543228982983681, 44.115297088463315 ], [ 11.544116174754665, 44.115076208320993 ], [ 11.544191771194772, 44.115011253114972 ], [ 11.544340347973781, 44.114820393535283 ], [ 11.544435125896571, 44.114764048863854 ], [ 11.544575402514532, 44.114745105181861 ], [ 11.545109796063477, 44.114741097754759 ] ] } },
{ "type": "Feature", "properties": { "CITY_NAME": "PALAZZUOLO_SUL_SENIO", "strokeColor": "#B3B3B3", "RGB": "179, 179, 179" }, "geometry": { "type": "LineString", "coordinates": [ [ 11.547350854315507, 44.112276700951149 ], [ 11.547574648078873, 44.112158724827324 ], [ 11.547861562207567, 44.112050636732796 ], [ 11.548095145234548, 44.111941479289584 ], [ 11.548465608322944, 44.111881236241835 ] ] } },
{ "type": "Feature", "properties": { "CITY_NAME": "PALAZZUOLO_SUL_SENIO", "strokeColor": "#B3B3B3", "RGB": "179, 179, 179" }, "geometry": { "type": "LineString", "coordinates": [ [ 11.548883699263936, 44.113951270601468 ], [ 11.54919636940293, 44.114063499216385 ] ] } },
{ "type": "Feature", "properties": { "CITY_NAME": "PALAZZUOLO_SUL_SENIO", "strokeColor": "#B3B3B3", "RGB": "179, 179, 179" }, "geometry": { "type": "LineString", "coordinates": [ [ 11.546557067625253, 44.112776604342052 ], [ 11.546576161731778, 44.113043918194762 ], [ 11.546544557230986, 44.113177074091297 ] ] } },
{ "type": "Feature", "properties": { "CITY_NAME": "PALAZZUOLO_SUL_SENIO", "strokeColor": "#B3B3B3", "RGB": "179, 179, 179" }, "geometry": { "type": "LineString", "coordinates": [ [ 11.544143344238513, 44.112046851969104 ], [ 11.543396430640065, 44.111708579407789 ], [ 11.542797938511947, 44.111324745199774 ] ] } },
{ "type": "Feature", "properties": { "CITY_NAME": "PALAZZUOLO_SUL_SENIO", "strokeColor": "#B3B3B3", "RGB": "179, 179, 179" }, "geometry": { "type": "LineString", "coordinates": [ [ 11.535405455519699, 44.108445351288282 ], [ 11.53508196627496, 44.108661459157538 ] ] } },
{ "type": "Feature", "properties": { "CITY_NAME": "PALAZZUOLO_SUL_SENIO", "strokeColor": "#B3B3B3", "RGB": "179, 179, 179" }, "geometry": { "type": "LineString", "coordinates": [ [ 11.537838072525112, 44.110327703703618 ], [ 11.537741587280369, 44.110373197087156 ], [ 11.537670392331259, 44.11037083886729 ], [ 11.537148030323523, 44.11017753117585 ] ] } },
{ "type": "Feature", "properties": { "CITY_NAME": "PALAZZUOLO_SUL_SENIO", "strokeColor": "#B3B3B3", "RGB": "179, 179, 179" }, "geometry": { "type": "LineString", "coordinates": [ [ 11.54712431013848, 44.11347823094485 ], [ 11.546771216249761, 44.113688708516726 ], [ 11.546188517925593, 44.11409002309729 ] ] } },
{ "type": "Feature", "properties": { "CITY_NAME": "PALAZZUOLO_SUL_SENIO", "strokeColor": "#B3B3B3", "RGB": "179, 179, 179" }, "geometry": { "type": "LineString", "coordinates": [ [ 11.531293857566078, 44.105179055750412 ], [ 11.531218167803591, 44.104817019249573 ] ] } },
{ "type": "Feature", "properties": { "CITY_NAME": "PALAZZUOLO_SUL_SENIO", "strokeColor": "#B3B3B3", "RGB": "179, 179, 179" }, "geometry": { "type": "LineString", "coordinates": [ [ 11.54770086633925, 44.112324002487824 ], [ 11.547350854315507, 44.112276700951149 ] ] } },
{ "type": "Feature", "properties": { "CITY_NAME": "PALAZZUOLO_SUL_SENIO", "strokeColor": "#B3B3B3", "RGB": "179, 179, 179" }, "geometry": { "type": "LineString", "coordinates": [ [ 11.545547660682768, 44.112885229791814 ], [ 11.545675770844104, 44.112655683099447 ] ] } },
{ "type": "Feature", "properties": { "CITY_NAME": "PALAZZUOLO_SUL_SENIO", "strokeColor": "#B3B3B3", "RGB": "179, 179, 179" }, "geometry": { "type": "LineString", "coordinates": [ [ 11.54080255902339, 44.115918971033118 ], [ 11.5404588144208, 44.115997070734231 ], [ 11.540305090330147, 44.116060374841403 ], [ 11.539036817374788, 44.116694457509126 ], [ 11.538649989432363, 44.116907366164426 ], [ 11.538387643597414, 44.116959392805079 ] ] } },
{ "type": "Feature", "properties": { "CITY_NAME": "PALAZZUOLO_SUL_SENIO", "strokeColor": "#B3B3B3", "RGB": "179, 179, 179" }, "geometry": { "type": "LineString", "coordinates": [ [ 11.548883699263936, 44.113951270601468 ], [ 11.548786165875125, 44.113902800439028 ], [ 11.548336042799116, 44.113823246106222 ] ] } },
{ "type": "Feature", "properties": { "CITY_NAME": "PALAZZUOLO_SUL_SENIO", "strokeColor": "#B3B3B3", "RGB": "179, 179, 179" }, "geometry": { "type": "LineString", "coordinates": [ [ 11.548336042799116, 44.113823246106222 ], [ 11.548128775211691, 44.113812719068882 ] ] } },
{ "type": "Feature", "properties": { "CITY_NAME": "PALAZZUOLO_SUL_SENIO", "strokeColor": "#B3B3B3", "RGB": "179, 179, 179" }, "geometry": { "type": "LineString", "coordinates": [ [ 11.547966881509597, 44.113930094543534 ], [ 11.548079515149494, 44.113933376149895 ], [ 11.548081709763812, 44.113857497243906 ] ] } },
{ "type": "Feature", "properties": { "CITY_NAME": "PALAZZUOLO_SUL_SENIO", "strokeColor": "#B3B3B3", "RGB": "179, 179, 179" }, "geometry": { "type": "LineString", "coordinates": [ [ 11.55179208464412, 44.116755274898111 ], [ 11.55239468434103, 44.118112297839865 ], [ 11.552958570604961, 44.118852091296084 ], [ 11.553437821439896, 44.119292812302419 ], [ 11.554204737605467, 44.120383333556525 ] ] } },
{ "type": "Feature", "properties": { "CITY_NAME": "PALAZZUOLO_SUL_SENIO", "strokeColor": "#B3B3B3", "RGB": "179, 179, 179" }, "geometry": { "type": "LineString", "coordinates": [ [ 11.54152546119451, 44.11163501799976 ], [ 11.539782430681875, 44.110707712720085 ], [ 11.538452343896896, 44.109963638738883 ], [ 11.537364150946608, 44.109397038215441 ] ] } }
]
}
