{
"type": "FeatureCollection",
"name": "PIANORO",
"crs": { "type": "name", "properties": { "name": "urn:ogc:def:crs:OGC:1.3:CRS84" } },
"features": [
{ "type": "Feature", "properties": { "CITY_NAME": "PIANORO", "strokeColor": "#70ACCC", "RGB": "112, 172, 204" }, "geometry": { "type": "LineString", "coordinates": [ [ 11.357200315441466, 44.436781578710402 ], [ 11.357449302321726, 44.43706191324587 ], [ 11.357650963710167, 44.437342198335564 ], [ 11.3578738483024, 44.437909739916648 ], [ 11.35803901520705, 44.438488056583523 ], [ 11.358174151079881, 44.439162913920931 ], [ 11.358074536375707, 44.439603205610403 ] ] } }
]
}
