{
"type": "FeatureCollection",
"name": "SAN_GIORGIO_DI_PIANO",
"crs": { "type": "name", "properties": { "name": "urn:ogc:def:crs:OGC:1.3:CRS84" } },
"features": [
{ "type": "Feature", "properties": { "CITY_NAME": "SAN_GIORGIO_DI_PIANO", "strokeColor": "#70ACCC", "RGB": "112, 172, 204" }, "geometry": { "type": "LineString", "coordinates": [ [ 11.370564261779871, 44.651434481723761 ], [ 11.370463352138611, 44.651240066322373 ], [ 11.369734975727143, 44.649881433051256 ] ] } },
{ "type": "Feature", "properties": { "CITY_NAME": "SAN_GIORGIO_DI_PIANO", "strokeColor": "#70ACCC", "RGB": "112, 172, 204" }, "geometry": { "type": "LineString", "coordinates": [ [ 11.374616729574491, 44.649400828460145 ], [ 11.374509740256244, 44.649172734637034 ], [ 11.375036993352154, 44.649025814872857 ] ] } },
{ "type": "Feature", "properties": { "CITY_NAME": "SAN_GIORGIO_DI_PIANO", "strokeColor": "#B3B3B3", "RGB": "179, 179, 179" }, "geometry": { "type": "LineString", "coordinates": [ [ 11.374605415621575, 44.645179015020624 ], [ 11.374437346699159, 44.644851815958418 ] ] } },
{ "type": "Feature", "properties": { "CITY_NAME": "SAN_GIORGIO_DI_PIANO", "strokeColor": "#70ACCC", "RGB": "112, 172, 204" }, "geometry": { "type": "LineString", "coordinates": [ [ 11.376315899610681, 44.64367582265816 ], [ 11.376207153560452, 44.643704284365924 ], [ 11.376138483471451, 44.643733443027266 ], [ 11.374916851444905, 44.644059904056874 ] ] } },
{ "type": "Feature", "properties": { "CITY_NAME": "SAN_GIORGIO_DI_PIANO", "strokeColor": "#B3B3B3", "RGB": "179, 179, 179" }, "geometry": { "type": "LineString", "coordinates": [ [ 11.369734975727143, 44.649881433051256 ], [ 11.370681527354105, 44.649651027867449 ] ] } },
{ "type": "Feature", "properties": { "CITY_NAME": "SAN_GIORGIO_DI_PIANO", "strokeColor": "#70ACCC", "RGB": "112, 172, 204" }, "geometry": { "type": "LineString", "coordinates": [ [ 11.378820173083991, 44.656461549245925 ], [ 11.378777436994444, 44.656401437131947 ], [ 11.37866362123818, 44.656186191160138 ], [ 11.378570942263957, 44.656016948734795 ], [ 11.378520470989972, 44.655965796622823 ] ] } },
{ "type": "Feature", "properties": { "CITY_NAME": "SAN_GIORGIO_DI_PIANO", "strokeColor": "#70ACCC", "RGB": "112, 172, 204" }, "geometry": { "type": "LineString", "coordinates": [ [ 11.374916851444905, 44.644059904056874 ], [ 11.3745610840789, 44.643366540199658 ] ] } },
{ "type": "Feature", "properties": { "CITY_NAME": "SAN_GIORGIO_DI_PIANO", "strokeColor": "#70ACCC", "RGB": "112, 172, 204" }, "geometry": { "type": "LineString", "coordinates": [ [ 11.374393389909132, 44.650147268560431 ], [ 11.37480125609793, 44.650023097626608 ], [ 11.374910615450805, 44.649981400927587 ], [ 11.375149273894952, 44.649871217142184 ] ] } },
{ "type": "Feature", "properties": { "CITY_NAME": "SAN_GIORGIO_DI_PIANO", "strokeColor": "#70ACCC", "RGB": "112, 172, 204" }, "geometry": { "type": "LineString", "coordinates": [ [ 11.369964575847053, 44.652363452681676 ], [ 11.370922396523257, 44.652100575881256 ] ] } },
{ "type": "Feature", "properties": { "CITY_NAME": "SAN_GIORGIO_DI_PIANO", "strokeColor": "#70ACCC", "RGB": "112, 172, 204" }, "geometry": { "type": "LineString", "coordinates": [ [ 11.373910674884302, 44.650276556056262 ], [ 11.374393389909132, 44.650147268560431 ] ] } },
{ "type": "Feature", "properties": { "CITY_NAME": "SAN_GIORGIO_DI_PIANO", "strokeColor": "#70ACCC", "RGB": "112, 172, 204" }, "geometry": { "type": "LineString", "coordinates": [ [ 11.37801841358017, 44.650958716940288 ], [ 11.378070210341802, 44.651011472029545 ], [ 11.378141659130694, 44.651059249851883 ], [ 11.378252595346634, 44.651117504678851 ] ] } },
{ "type": "Feature", "properties": { "CITY_NAME": "SAN_GIORGIO_DI_PIANO", "strokeColor": "#70ACCC", "RGB": "112, 172, 204" }, "geometry": { "type": "LineString", "coordinates": [ [ 11.375033040472566, 44.651348326581612 ], [ 11.375097257902585, 44.651441215534625 ], [ 11.375251345533249, 44.651835599979357 ] ] } },
{ "type": "Feature", "properties": { "CITY_NAME": "SAN_GIORGIO_DI_PIANO", "strokeColor": "#B3B3B3", "RGB": "179, 179, 179" }, "geometry": { "type": "LineString", "coordinates": [ [ 11.372119314857105, 44.647357836873475 ], [ 11.371734755524246, 44.647462577473746 ] ] } },
{ "type": "Feature", "properties": { "CITY_NAME": "SAN_GIORGIO_DI_PIANO", "strokeColor": "#B3B3B3", "RGB": "179, 179, 179" }, "geometry": { "type": "LineString", "coordinates": [ [ 11.372197565302249, 44.648393326223911 ], [ 11.371969093846705, 44.648454884573837 ] ] } },
{ "type": "Feature", "properties": { "CITY_NAME": "SAN_GIORGIO_DI_PIANO", "strokeColor": "#B3B3B3", "RGB": "179, 179, 179" }, "geometry": { "type": "LineString", "coordinates": [ [ 11.378065024110974, 44.647225661715076 ], [ 11.378736321773752, 44.647042854243011 ] ] } },
{ "type": "Feature", "properties": { "CITY_NAME": "SAN_GIORGIO_DI_PIANO", "strokeColor": "#70ACCC", "RGB": "112, 172, 204" }, "geometry": { "type": "LineString", "coordinates": [ [ 11.37123300414186, 44.652702874198496 ], [ 11.370665834698819, 44.652848984914542 ], [ 11.370620955759584, 44.652932561479219 ], [ 11.370869560473023, 44.653373390011829 ] ] } },
{ "type": "Feature", "properties": { "CITY_NAME": "SAN_GIORGIO_DI_PIANO", "strokeColor": "#B3B3B3", "RGB": "179, 179, 179" }, "geometry": { "type": "LineString", "coordinates": [ [ 11.372623184204851, 44.647063444759645 ], [ 11.372376153826618, 44.646583190695829 ] ] } },
{ "type": "Feature", "properties": { "CITY_NAME": "SAN_GIORGIO_DI_PIANO", "strokeColor": "#B3B3B3", "RGB": "179, 179, 179" }, "geometry": { "type": "LineString", "coordinates": [ [ 11.373182307538427, 44.647074815308677 ], [ 11.373044662010715, 44.647112808796592 ] ] } },
{ "type": "Feature", "properties": { "CITY_NAME": "SAN_GIORGIO_DI_PIANO", "strokeColor": "#B3B3B3", "RGB": "179, 179, 179" }, "geometry": { "type": "LineString", "coordinates": [ [ 11.370681527354105, 44.649651027867449 ], [ 11.371542172537406, 44.649441287584182 ] ] } },
{ "type": "Feature", "properties": { "CITY_NAME": "SAN_GIORGIO_DI_PIANO", "strokeColor": "#B3B3B3", "RGB": "179, 179, 179" }, "geometry": { "type": "LineString", "coordinates": [ [ 11.376323252928266, 44.6450694789661 ], [ 11.375518502284955, 44.645296185186595 ] ] } },
{ "type": "Feature", "properties": { "CITY_NAME": "SAN_GIORGIO_DI_PIANO", "strokeColor": "#B3B3B3", "RGB": "179, 179, 179" }, "geometry": { "type": "LineString", "coordinates": [ [ 11.374437346699159, 44.644851815958418 ], [ 11.374301532180544, 44.644578280508661 ], [ 11.374284667195109, 44.644500595947619 ], [ 11.374153821469465, 44.644195607950209 ] ] } },
{ "type": "Feature", "properties": { "CITY_NAME": "SAN_GIORGIO_DI_PIANO", "strokeColor": "#70ACCC", "RGB": "112, 172, 204" }, "geometry": { "type": "LineString", "coordinates": [ [ 11.375543179285316, 44.652655628719231 ], [ 11.376064814815722, 44.652550107855419 ] ] } },
{ "type": "Feature", "properties": { "CITY_NAME": "SAN_GIORGIO_DI_PIANO", "strokeColor": "#B3B3B3", "RGB": "179, 179, 179" }, "geometry": { "type": "LineString", "coordinates": [ [ 11.376036604180339, 44.648206441885549 ], [ 11.375412927754672, 44.648381417726746 ] ] } },
{ "type": "Feature", "properties": { "CITY_NAME": "SAN_GIORGIO_DI_PIANO", "strokeColor": "#70ACCC", "RGB": "112, 172, 204" }, "geometry": { "type": "LineString", "coordinates": [ [ 11.375234862188755, 44.64803236860547 ], [ 11.374359764978344, 44.64827519706693 ] ] } },
{ "type": "Feature", "properties": { "CITY_NAME": "SAN_GIORGIO_DI_PIANO", "strokeColor": "#70ACCC", "RGB": "112, 172, 204" }, "geometry": { "type": "LineString", "coordinates": [ [ 11.373463327463408, 44.643530889059058 ], [ 11.373398021054596, 44.643073356679331 ], [ 11.373376574672251, 44.643003164486551 ], [ 11.37328865347401, 44.641580973399563 ], [ 11.373298358643561, 44.641518802773625 ], [ 11.373401809146481, 44.641472362743514 ], [ 11.373672303251642, 44.641396164763229 ], [ 11.373788175987775, 44.641372781343293 ] ] } },
{ "type": "Feature", "properties": { "CITY_NAME": "SAN_GIORGIO_DI_PIANO", "strokeColor": "#B3B3B3", "RGB": "179, 179, 179" }, "geometry": { "type": "LineString", "coordinates": [ [ 11.37697317161112, 44.647931507160365 ], [ 11.376300704249331, 44.648129345455601 ] ] } },
{ "type": "Feature", "properties": { "CITY_NAME": "SAN_GIORGIO_DI_PIANO", "strokeColor": "#B3B3B3", "RGB": "179, 179, 179" }, "geometry": { "type": "LineString", "coordinates": [ [ 11.376663626270819, 44.647615131049463 ], [ 11.376509845328417, 44.647319149602232 ] ] } },
{ "type": "Feature", "properties": { "CITY_NAME": "SAN_GIORGIO_DI_PIANO", "strokeColor": "#B3B3B3", "RGB": "179, 179, 179" }, "geometry": { "type": "LineString", "coordinates": [ [ 11.377317329594984, 44.651688656634299 ], [ 11.377205032374846, 44.651569646115476 ], [ 11.377192856500759, 44.651191736941144 ], [ 11.37717488929059, 44.651044961906905 ] ] } },
{ "type": "Feature", "properties": { "CITY_NAME": "SAN_GIORGIO_DI_PIANO", "strokeColor": "#70ACCC", "RGB": "112, 172, 204" }, "geometry": { "type": "LineString", "coordinates": [ [ 11.372247443429806, 44.650756107789284 ], [ 11.373394629643816, 44.650437084105121 ], [ 11.373626877745378, 44.650356110874725 ], [ 11.373910674884302, 44.650276556056262 ] ] } },
{ "type": "Feature", "properties": { "CITY_NAME": "SAN_GIORGIO_DI_PIANO", "strokeColor": "#70ACCC", "RGB": "112, 172, 204" }, "geometry": { "type": "LineString", "coordinates": [ [ 11.375033040472566, 44.651348326581612 ], [ 11.377078084050476, 44.650968900331129 ] ] } },
{ "type": "Feature", "properties": { "CITY_NAME": "SAN_GIORGIO_DI_PIANO", "strokeColor": "#70ACCC", "RGB": "112, 172, 204" }, "geometry": { "type": "LineString", "coordinates": [ [ 11.38188419794132, 44.645028730214634 ], [ 11.381898278546636, 44.645052602385903 ], [ 11.381917708556713, 44.645074476927348 ], [ 11.381941949953235, 44.645093748400306 ], [ 11.381970332774195, 44.64510988433792 ], [ 11.382002069451982, 44.645122436649338 ], [ 11.382036282008897, 44.645131059057448 ], [ 11.382072023734526, 44.645135512948499 ], [ 11.382108304643131, 44.645135673142718 ], [ 11.382144122118389, 44.645131537157518 ], [ 11.382178482112471, 44.64512321936374 ] ] } },
{ "type": "Feature", "properties": { "CITY_NAME": "SAN_GIORGIO_DI_PIANO", "strokeColor": "#B3B3B3", "RGB": "179, 179, 179" }, "geometry": { "type": "LineString", "coordinates": [ [ 11.372324690544225, 44.647140092499157 ], [ 11.37209428009278, 44.646683396431612 ] ] } },
{ "type": "Feature", "properties": { "CITY_NAME": "SAN_GIORGIO_DI_PIANO", "strokeColor": "#70ACCC", "RGB": "112, 172, 204" }, "geometry": { "type": "LineString", "coordinates": [ [ 11.371084621343037, 44.652415148413112 ], [ 11.373224653926549, 44.651834312884056 ], [ 11.374769145630925, 44.651404126962255 ], [ 11.375033040472566, 44.651348326581612 ] ] } },
{ "type": "Feature", "properties": { "CITY_NAME": "SAN_GIORGIO_DI_PIANO", "strokeColor": "#70ACCC", "RGB": "112, 172, 204" }, "geometry": { "type": "LineString", "coordinates": [ [ 11.37123300414186, 44.652702874198496 ], [ 11.371481199145064, 44.65316319735787 ], [ 11.371586235233069, 44.653181301920014 ], [ 11.372755378935503, 44.652769286845022 ], [ 11.372841149276772, 44.652742083883119 ], [ 11.372922134360957, 44.652749494534682 ], [ 11.37298301757607, 44.652784602024134 ], [ 11.373005480936907, 44.652824888769004 ] ] } },
{ "type": "Feature", "properties": { "CITY_NAME": "SAN_GIORGIO_DI_PIANO", "strokeColor": "#B3B3B3", "RGB": "179, 179, 179" }, "geometry": { "type": "LineString", "coordinates": [ [ 11.372041210815745, 44.647216134876821 ], [ 11.372324690544225, 44.647140092499157 ] ] } },
{ "type": "Feature", "properties": { "CITY_NAME": "SAN_GIORGIO_DI_PIANO", "strokeColor": "#70ACCC", "RGB": "112, 172, 204" }, "geometry": { "type": "LineString", "coordinates": [ [ 11.384749950824, 44.644760461638761 ], [ 11.384519111566604, 44.644329185351502 ] ] } },
{ "type": "Feature", "properties": { "CITY_NAME": "SAN_GIORGIO_DI_PIANO", "strokeColor": "#B3B3B3", "RGB": "179, 179, 179" }, "geometry": { "type": "LineString", "coordinates": [ [ 11.376036604180339, 44.648206441885549 ], [ 11.375879313433655, 44.647914833108992 ] ] } },
{ "type": "Feature", "properties": { "CITY_NAME": "SAN_GIORGIO_DI_PIANO", "strokeColor": "#70ACCC", "RGB": "112, 172, 204" }, "geometry": { "type": "LineString", "coordinates": [ [ 11.372482746214391, 44.647258598857384 ], [ 11.373212293362645, 44.648735105689809 ], [ 11.3733142120381, 44.648945115972452 ] ] } },
{ "type": "Feature", "properties": { "CITY_NAME": "SAN_GIORGIO_DI_PIANO", "strokeColor": "#70ACCC", "RGB": "112, 172, 204" }, "geometry": { "type": "LineString", "coordinates": [ [ 11.371375979708624, 44.65098254796888 ], [ 11.370681527354105, 44.649651027867449 ] ] } },
{ "type": "Feature", "properties": { "CITY_NAME": "SAN_GIORGIO_DI_PIANO", "strokeColor": "#70ACCC", "RGB": "112, 172, 204" }, "geometry": { "type": "LineString", "coordinates": [ [ 11.374359764978344, 44.64827519706693 ], [ 11.374529830214657, 44.648625776934551 ] ] } },
{ "type": "Feature", "properties": { "CITY_NAME": "SAN_GIORGIO_DI_PIANO", "strokeColor": "#B3B3B3", "RGB": "179, 179, 179" }, "geometry": { "type": "LineString", "coordinates": [ [ 11.372376153826618, 44.646583190695829 ], [ 11.372080759130865, 44.646653986661711 ] ] } },
{ "type": "Feature", "properties": { "CITY_NAME": "SAN_GIORGIO_DI_PIANO", "strokeColor": "#70ACCC", "RGB": "112, 172, 204" }, "geometry": { "type": "LineString", "coordinates": [ [ 11.372247443429806, 44.650756107789284 ], [ 11.371542172537406, 44.649441287584182 ] ] } },
{ "type": "Feature", "properties": { "CITY_NAME": "SAN_GIORGIO_DI_PIANO", "strokeColor": "#70ACCC", "RGB": "112, 172, 204" }, "geometry": { "type": "LineString", "coordinates": [ [ 11.381644935088145, 44.644348080525674 ], [ 11.382867462305908, 44.643965563627994 ], [ 11.383518583199523, 44.643785948887647 ], [ 11.383675301297643, 44.643753672377073 ] ] } },
{ "type": "Feature", "properties": { "CITY_NAME": "SAN_GIORGIO_DI_PIANO", "strokeColor": "#B3B3B3", "RGB": "179, 179, 179" }, "geometry": { "type": "LineString", "coordinates": [ [ 11.376509845328417, 44.647319149602232 ], [ 11.376660386523483, 44.647258823994989 ] ] } },
{ "type": "Feature", "properties": { "CITY_NAME": "SAN_GIORGIO_DI_PIANO", "strokeColor": "#B3B3B3", "RGB": "179, 179, 179" }, "geometry": { "type": "LineString", "coordinates": [ [ 11.374104798499229, 44.645789365250735 ], [ 11.373255934161214, 44.646006814713054 ] ] } },
{ "type": "Feature", "properties": { "CITY_NAME": "SAN_GIORGIO_DI_PIANO", "strokeColor": "#B3B3B3", "RGB": "179, 179, 179" }, "geometry": { "type": "LineString", "coordinates": [ [ 11.373719884500177, 44.646943902044157 ], [ 11.373255934161214, 44.646006814713054 ] ] } },
{ "type": "Feature", "properties": { "CITY_NAME": "SAN_GIORGIO_DI_PIANO", "strokeColor": "#70ACCC", "RGB": "112, 172, 204" }, "geometry": { "type": "LineString", "coordinates": [ [ 11.36892015474964, 44.64839390136661 ], [ 11.368358585124838, 44.648576500737207 ], [ 11.368819230335648, 44.649385826298413 ], [ 11.369379232558511, 44.649213912427264 ] ] } },
{ "type": "Feature", "properties": { "CITY_NAME": "SAN_GIORGIO_DI_PIANO", "strokeColor": "#B3B3B3", "RGB": "179, 179, 179" }, "geometry": { "type": "LineString", "coordinates": [ [ 11.376300704249331, 44.648129345455601 ], [ 11.376119422986362, 44.647785532016641 ] ] } },
{ "type": "Feature", "properties": { "CITY_NAME": "SAN_GIORGIO_DI_PIANO", "strokeColor": "#70ACCC", "RGB": "112, 172, 204" }, "geometry": { "type": "LineString", "coordinates": [ [ 11.384052863133764, 44.644450920445344 ], [ 11.382903603499296, 44.644740008875949 ] ] } },
{ "type": "Feature", "properties": { "CITY_NAME": "SAN_GIORGIO_DI_PIANO", "strokeColor": "#B3B3B3", "RGB": "179, 179, 179" }, "geometry": { "type": "LineString", "coordinates": [ [ 11.373044662010715, 44.647112808796592 ], [ 11.372695748320151, 44.647202641824151 ] ] } },
{ "type": "Feature", "properties": { "CITY_NAME": "SAN_GIORGIO_DI_PIANO", "strokeColor": "#70ACCC", "RGB": "112, 172, 204" }, "geometry": { "type": "LineString", "coordinates": [ [ 11.371084621343037, 44.652415148413112 ], [ 11.37123300414186, 44.652702874198496 ] ] } },
{ "type": "Feature", "properties": { "CITY_NAME": "SAN_GIORGIO_DI_PIANO", "strokeColor": "#70ACCC", "RGB": "112, 172, 204" }, "geometry": { "type": "LineString", "coordinates": [ [ 11.375361543712726, 44.644965095903686 ], [ 11.374916851444905, 44.644059904056874 ] ] } },
{ "type": "Feature", "properties": { "CITY_NAME": "SAN_GIORGIO_DI_PIANO", "strokeColor": "#B3B3B3", "RGB": "179, 179, 179" }, "geometry": { "type": "LineString", "coordinates": [ [ 11.377006994161093, 44.650250648033136 ], [ 11.376979467873751, 44.65011249823452 ], [ 11.37678379196468, 44.649523894200989 ], [ 11.376768314745318, 44.649487701933218 ] ] } },
{ "type": "Feature", "properties": { "CITY_NAME": "SAN_GIORGIO_DI_PIANO", "strokeColor": "#70ACCC", "RGB": "112, 172, 204" }, "geometry": { "type": "LineString", "coordinates": [ [ 11.381225758930825, 44.643761648622487 ], [ 11.383613834203802, 44.642949857415267 ], [ 11.384057712144756, 44.64365762544535 ] ] } },
{ "type": "Feature", "properties": { "CITY_NAME": "SAN_GIORGIO_DI_PIANO", "strokeColor": "#70ACCC", "RGB": "112, 172, 204" }, "geometry": { "type": "LineString", "coordinates": [ [ 11.376768314745318, 44.649487701933218 ], [ 11.37764046288671, 44.649265179903708 ] ] } },
{ "type": "Feature", "properties": { "CITY_NAME": "SAN_GIORGIO_DI_PIANO", "strokeColor": "#70ACCC", "RGB": "112, 172, 204" }, "geometry": { "type": "LineString", "coordinates": [ [ 11.370973049645263, 44.651100905604544 ], [ 11.371375979708624, 44.65098254796888 ] ] } },
{ "type": "Feature", "properties": { "CITY_NAME": "SAN_GIORGIO_DI_PIANO", "strokeColor": "#70ACCC", "RGB": "112, 172, 204" }, "geometry": { "type": "LineString", "coordinates": [ [ 11.378520470989972, 44.655965796622823 ], [ 11.378474231960533, 44.655897422991238 ], [ 11.378360427478523, 44.655664759581725 ], [ 11.378044788919778, 44.654986749840816 ], [ 11.378010185101692, 44.65495866407587 ], [ 11.37796914117175, 44.654945252194871 ], [ 11.377862120970015, 44.654959441342832 ], [ 11.377395665574817, 44.655072287855837 ], [ 11.377198029094666, 44.654916034029704 ], [ 11.377029361452994, 44.654850836024359 ] ] } },
{ "type": "Feature", "properties": { "CITY_NAME": "SAN_GIORGIO_DI_PIANO", "strokeColor": "#70ACCC", "RGB": "112, 172, 204" }, "geometry": { "type": "LineString", "coordinates": [ [ 11.375493787897021, 44.652524464878404 ], [ 11.375543179285316, 44.652655628719231 ] ] } },
{ "type": "Feature", "properties": { "CITY_NAME": "SAN_GIORGIO_DI_PIANO", "strokeColor": "#B3B3B3", "RGB": "179, 179, 179" }, "geometry": { "type": "LineString", "coordinates": [ [ 11.372623184204851, 44.647063444759645 ], [ 11.372970734700992, 44.646972454678775 ] ] } },
{ "type": "Feature", "properties": { "CITY_NAME": "SAN_GIORGIO_DI_PIANO", "strokeColor": "#B3B3B3", "RGB": "179, 179, 179" }, "geometry": { "type": "LineString", "coordinates": [ [ 11.372482746214391, 44.647258598857384 ], [ 11.372119314857105, 44.647357836873475 ] ] } },
{ "type": "Feature", "properties": { "CITY_NAME": "SAN_GIORGIO_DI_PIANO", "strokeColor": "#B3B3B3", "RGB": "179, 179, 179" }, "geometry": { "type": "LineString", "coordinates": [ [ 11.370843737969581, 44.647533388907675 ], [ 11.370487312618119, 44.647631920755089 ], [ 11.370441780397652, 44.647612547055566 ], [ 11.370294820229113, 44.64734010532554 ], [ 11.370315872805662, 44.647306289127137 ], [ 11.370486823303578, 44.647261812451525 ] ] } },
{ "type": "Feature", "properties": { "CITY_NAME": "SAN_GIORGIO_DI_PIANO", "strokeColor": "#70ACCC", "RGB": "112, 172, 204" }, "geometry": { "type": "LineString", "coordinates": [ [ 11.375819023831856, 44.647780675106794 ], [ 11.375746535257511, 44.647890358257982 ], [ 11.375234862188755, 44.64803236860547 ] ] } },
{ "type": "Feature", "properties": { "CITY_NAME": "SAN_GIORGIO_DI_PIANO", "strokeColor": "#70ACCC", "RGB": "112, 172, 204" }, "geometry": { "type": "LineString", "coordinates": [ [ 11.374359764978344, 44.64827519706693 ], [ 11.37410219581227, 44.647748589546588 ], [ 11.373719884500177, 44.646943902044157 ] ] } },
{ "type": "Feature", "properties": { "CITY_NAME": "SAN_GIORGIO_DI_PIANO", "strokeColor": "#B3B3B3", "RGB": "179, 179, 179" }, "geometry": { "type": "LineString", "coordinates": [ [ 11.3733142120381, 44.648945115972452 ], [ 11.372901374474518, 44.64906825155164 ] ] } },
{ "type": "Feature", "properties": { "CITY_NAME": "SAN_GIORGIO_DI_PIANO", "strokeColor": "#B3B3B3", "RGB": "179, 179, 179" }, "geometry": { "type": "LineString", "coordinates": [ [ 11.374153821469465, 44.644195607950209 ], [ 11.374018124295189, 44.643819408299031 ], [ 11.373999544570887, 44.643736366921871 ], [ 11.374000924219589, 44.64361427758999 ], [ 11.374039147809718, 44.643515750911611 ] ] } },
{ "type": "Feature", "properties": { "CITY_NAME": "SAN_GIORGIO_DI_PIANO", "strokeColor": "#B3B3B3", "RGB": "179, 179, 179" }, "geometry": { "type": "LineString", "coordinates": [ [ 11.376663626270819, 44.647615131049463 ], [ 11.377495520903345, 44.647380744055496 ] ] } },
{ "type": "Feature", "properties": { "CITY_NAME": "SAN_GIORGIO_DI_PIANO", "strokeColor": "#70ACCC", "RGB": "112, 172, 204" }, "geometry": { "type": "LineString", "coordinates": [ [ 11.376969998269535, 44.653157604509815 ], [ 11.377414846105857, 44.653163991563538 ], [ 11.378827078075382, 44.653249257118283 ], [ 11.379606009567267, 44.653183999623096 ], [ 11.379735085949745, 44.653156258651997 ] ] } },
{ "type": "Feature", "properties": { "CITY_NAME": "SAN_GIORGIO_DI_PIANO", "strokeColor": "#B3B3B3", "RGB": "179, 179, 179" }, "geometry": { "type": "LineString", "coordinates": [ [ 11.3733142120381, 44.648945115972452 ], [ 11.374023975949795, 44.648751643758686 ] ] } },
{ "type": "Feature", "properties": { "CITY_NAME": "SAN_GIORGIO_DI_PIANO", "strokeColor": "#B3B3B3", "RGB": "179, 179, 179" }, "geometry": { "type": "LineString", "coordinates": [ [ 11.377050498434041, 44.650468982333571 ], [ 11.377006994161093, 44.650250648033136 ] ] } },
{ "type": "Feature", "properties": { "CITY_NAME": "SAN_GIORGIO_DI_PIANO", "strokeColor": "#70ACCC", "RGB": "112, 172, 204" }, "geometry": { "type": "LineString", "coordinates": [ [ 11.38188419794132, 44.645028730214634 ], [ 11.381694299389086, 44.645058387318407 ], [ 11.381455414714333, 44.645115199154304 ], [ 11.380357038698971, 44.645395002710394 ] ] } },
{ "type": "Feature", "properties": { "CITY_NAME": "SAN_GIORGIO_DI_PIANO", "strokeColor": "#70ACCC", "RGB": "112, 172, 204" }, "geometry": { "type": "LineString", "coordinates": [ [ 11.384519111566604, 44.644329185351502 ], [ 11.384052863133764, 44.644450920445344 ] ] } },
{ "type": "Feature", "properties": { "CITY_NAME": "SAN_GIORGIO_DI_PIANO", "strokeColor": "#B3B3B3", "RGB": "179, 179, 179" }, "geometry": { "type": "LineString", "coordinates": [ [ 11.372970734700992, 44.646972454678775 ], [ 11.37272787349918, 44.646497520628643 ], [ 11.372376153826618, 44.646583190695829 ] ] } },
{ "type": "Feature", "properties": { "CITY_NAME": "SAN_GIORGIO_DI_PIANO", "strokeColor": "#B3B3B3", "RGB": "179, 179, 179" }, "geometry": { "type": "LineString", "coordinates": [ [ 11.372080759130865, 44.646653986661711 ], [ 11.37209428009278, 44.646683396431612 ] ] } },
{ "type": "Feature", "properties": { "CITY_NAME": "SAN_GIORGIO_DI_PIANO", "strokeColor": "#B3B3B3", "RGB": "179, 179, 179" }, "geometry": { "type": "LineString", "coordinates": [ [ 11.376157787514416, 44.644741941062911 ], [ 11.376323252928266, 44.6450694789661 ] ] } },
{ "type": "Feature", "properties": { "CITY_NAME": "SAN_GIORGIO_DI_PIANO", "strokeColor": "#70ACCC", "RGB": "112, 172, 204" }, "geometry": { "type": "LineString", "coordinates": [ [ 11.37273672865145, 44.64376384031155 ], [ 11.373463327463408, 44.643530889059058 ] ] } },
{ "type": "Feature", "properties": { "CITY_NAME": "SAN_GIORGIO_DI_PIANO", "strokeColor": "#70ACCC", "RGB": "112, 172, 204" }, "geometry": { "type": "LineString", "coordinates": [ [ 11.382178482112471, 44.64512321936374 ], [ 11.382210531448028, 44.64511091761625 ], [ 11.382239290321197, 44.645095001658277 ], [ 11.382263964531726, 44.645075908479022 ], [ 11.382283875810698, 44.645054165372869 ], [ 11.382298476166104, 44.645030370734709 ], [ 11.382307362412304, 44.645005179352495 ], [ 11.382310290662284, 44.644979286800478 ], [ 11.382307179075154, 44.644953404174984 ], [ 11.382298114898969, 44.644928245343891 ] ] } },
{ "type": "Feature", "properties": { "CITY_NAME": "SAN_GIORGIO_DI_PIANO", "strokeColor": "#70ACCC", "RGB": "112, 172, 204" }, "geometry": { "type": "LineString", "coordinates": [ [ 11.371375979708624, 44.65098254796888 ], [ 11.372247443429806, 44.650756107789284 ] ] } },
{ "type": "Feature", "properties": { "CITY_NAME": "SAN_GIORGIO_DI_PIANO", "strokeColor": "#70ACCC", "RGB": "112, 172, 204" }, "geometry": { "type": "LineString", "coordinates": [ [ 11.379735085949745, 44.653156258651997 ], [ 11.379819308001252, 44.654896033887546 ], [ 11.379826651176479, 44.655355131267022 ], [ 11.379831578605318, 44.655451713978223 ], [ 11.379757042261678, 44.655538758983347 ], [ 11.379227743109659, 44.655744422350573 ], [ 11.379180038272725, 44.655759355068916 ] ] } },
{ "type": "Feature", "properties": { "CITY_NAME": "SAN_GIORGIO_DI_PIANO", "strokeColor": "#B3B3B3", "RGB": "179, 179, 179" }, "geometry": { "type": "LineString", "coordinates": [ [ 11.371542172537406, 44.649441287584182 ], [ 11.371739222941224, 44.649385579149111 ], [ 11.372546807030661, 44.649173024052558 ], [ 11.372901374474518, 44.64906825155164 ] ] } },
{ "type": "Feature", "properties": { "CITY_NAME": "SAN_GIORGIO_DI_PIANO", "strokeColor": "#70ACCC", "RGB": "112, 172, 204" }, "geometry": { "type": "LineString", "coordinates": [ [ 11.375251345533249, 44.651835599979357 ], [ 11.375354656612584, 44.652140951410288 ] ] } },
{ "type": "Feature", "properties": { "CITY_NAME": "SAN_GIORGIO_DI_PIANO", "strokeColor": "#70ACCC", "RGB": "112, 172, 204" }, "geometry": { "type": "LineString", "coordinates": [ [ 11.375354656612584, 44.652140951410288 ], [ 11.374485312561909, 44.652324805282049 ], [ 11.374530399240241, 44.652432514307435 ], [ 11.375395724101198, 44.652254155961977 ] ] } },
{ "type": "Feature", "properties": { "CITY_NAME": "SAN_GIORGIO_DI_PIANO", "strokeColor": "#70ACCC", "RGB": "112, 172, 204" }, "geometry": { "type": "LineString", "coordinates": [ [ 11.379644892353753, 44.652469462014501 ], [ 11.379785617163126, 44.652622072043407 ], [ 11.379830114445292, 44.653053235689896 ], [ 11.379735085949745, 44.653156258651997 ] ] } },
{ "type": "Feature", "properties": { "CITY_NAME": "SAN_GIORGIO_DI_PIANO", "strokeColor": "#70ACCC", "RGB": "112, 172, 204" }, "geometry": { "type": "LineString", "coordinates": [ [ 11.36892015474964, 44.64839390136661 ], [ 11.369379232558511, 44.649213912427264 ] ] } },
{ "type": "Feature", "properties": { "CITY_NAME": "SAN_GIORGIO_DI_PIANO", "strokeColor": "#70ACCC", "RGB": "112, 172, 204" }, "geometry": { "type": "LineString", "coordinates": [ [ 11.379614184786329, 44.652114573265443 ], [ 11.379644892353753, 44.652469462014501 ] ] } },
{ "type": "Feature", "properties": { "CITY_NAME": "SAN_GIORGIO_DI_PIANO", "strokeColor": "#B3B3B3", "RGB": "179, 179, 179" }, "geometry": { "type": "LineString", "coordinates": [ [ 11.372197565302249, 44.648393326223911 ], [ 11.372516453000415, 44.648311875279596 ], [ 11.372363549039243, 44.647989433643389 ] ] } },
{ "type": "Feature", "properties": { "CITY_NAME": "SAN_GIORGIO_DI_PIANO", "strokeColor": "#70ACCC", "RGB": "112, 172, 204" }, "geometry": { "type": "LineString", "coordinates": [ [ 11.384977857856901, 44.645164359436102 ], [ 11.384749950824, 44.644760461638761 ] ] } },
{ "type": "Feature", "properties": { "CITY_NAME": "SAN_GIORGIO_DI_PIANO", "strokeColor": "#70ACCC", "RGB": "112, 172, 204" }, "geometry": { "type": "LineString", "coordinates": [ [ 11.384268553273294, 44.64489206833759 ], [ 11.384749950824, 44.644760461638761 ] ] } },
{ "type": "Feature", "properties": { "CITY_NAME": "SAN_GIORGIO_DI_PIANO", "strokeColor": "#B3B3B3", "RGB": "179, 179, 179" }, "geometry": { "type": "LineString", "coordinates": [ [ 11.376768314745318, 44.649487701933218 ], [ 11.376709212553411, 44.649336834703597 ] ] } },
{ "type": "Feature", "properties": { "CITY_NAME": "SAN_GIORGIO_DI_PIANO", "strokeColor": "#70ACCC", "RGB": "112, 172, 204" }, "geometry": { "type": "LineString", "coordinates": [ [ 11.374359764978344, 44.64827519706693 ], [ 11.374052797167828, 44.648364832376515 ], [ 11.373881072692406, 44.648415694270213 ] ] } },
{ "type": "Feature", "properties": { "CITY_NAME": "SAN_GIORGIO_DI_PIANO", "strokeColor": "#B3B3B3", "RGB": "179, 179, 179" }, "geometry": { "type": "LineString", "coordinates": [ [ 11.375879313433655, 44.647914833108992 ], [ 11.375819023831856, 44.647780675106794 ] ] } },
{ "type": "Feature", "properties": { "CITY_NAME": "SAN_GIORGIO_DI_PIANO", "strokeColor": "#70ACCC", "RGB": "112, 172, 204" }, "geometry": { "type": "LineString", "coordinates": [ [ 11.365942068942292, 44.646179162502456 ], [ 11.365514191511403, 44.646385732720439 ], [ 11.365198577180211, 44.646516475240965 ], [ 11.364925432526702, 44.646586675499151 ] ] } },
{ "type": "Feature", "properties": { "CITY_NAME": "SAN_GIORGIO_DI_PIANO", "strokeColor": "#70ACCC", "RGB": "112, 172, 204" }, "geometry": { "type": "LineString", "coordinates": [ [ 11.367024411316661, 44.645572566667688 ], [ 11.365942068942292, 44.646179162502456 ] ] } },
{ "type": "Feature", "properties": { "CITY_NAME": "SAN_GIORGIO_DI_PIANO", "strokeColor": "#70ACCC", "RGB": "112, 172, 204" }, "geometry": { "type": "LineString", "coordinates": [ [ 11.377644951437352, 44.647733835858411 ], [ 11.378045918817437, 44.648518042497031 ], [ 11.378340429185863, 44.649088217030858 ] ] } },
{ "type": "Feature", "properties": { "CITY_NAME": "SAN_GIORGIO_DI_PIANO", "strokeColor": "#70ACCC", "RGB": "112, 172, 204" }, "geometry": { "type": "LineString", "coordinates": [ [ 11.378252595346634, 44.651117504678851 ], [ 11.379359182222336, 44.651370616130727 ], [ 11.379491729356788, 44.651429777721738 ], [ 11.379576385556186, 44.651516861854041 ], [ 11.379622188386346, 44.65162225653814 ], [ 11.379671975536557, 44.651981917606214 ], [ 11.379614184786329, 44.652114573265443 ] ] } },
{ "type": "Feature", "properties": { "CITY_NAME": "SAN_GIORGIO_DI_PIANO", "strokeColor": "#B3B3B3", "RGB": "179, 179, 179" }, "geometry": { "type": "LineString", "coordinates": [ [ 11.371734755524246, 44.647462577473746 ], [ 11.37049829552813, 44.647793460936917 ] ] } },
{ "type": "Feature", "properties": { "CITY_NAME": "SAN_GIORGIO_DI_PIANO", "strokeColor": "#70ACCC", "RGB": "112, 172, 204" }, "geometry": { "type": "LineString", "coordinates": [ [ 11.378205632968312, 44.64756555814165 ], [ 11.378065024110974, 44.647225661715076 ] ] } },
{ "type": "Feature", "properties": { "CITY_NAME": "SAN_GIORGIO_DI_PIANO", "strokeColor": "#70ACCC", "RGB": "112, 172, 204" }, "geometry": { "type": "LineString", "coordinates": [ [ 11.378065024110974, 44.647225661715076 ], [ 11.377724687145099, 44.646546570464039 ] ] } },
{ "type": "Feature", "properties": { "CITY_NAME": "SAN_GIORGIO_DI_PIANO", "strokeColor": "#B3B3B3", "RGB": "179, 179, 179" }, "geometry": { "type": "LineString", "coordinates": [ [ 11.378205632968312, 44.64756555814165 ], [ 11.377644951437352, 44.647733835858411 ] ] } },
{ "type": "Feature", "properties": { "CITY_NAME": "SAN_GIORGIO_DI_PIANO", "strokeColor": "#70ACCC", "RGB": "112, 172, 204" }, "geometry": { "type": "LineString", "coordinates": [ [ 11.375493787897021, 44.652524464878404 ], [ 11.376301829555448, 44.652371961883965 ], [ 11.376331371429739, 44.652352273538746 ], [ 11.376354976013248, 44.652327808801445 ], [ 11.376455772692912, 44.651680137455479 ], [ 11.376440423158357, 44.651646987999627 ], [ 11.376402078308633, 44.651626044681421 ], [ 11.376340932983426, 44.651622323145382 ], [ 11.375251345533249, 44.651835599979357 ] ] } },
{ "type": "Feature", "properties": { "CITY_NAME": "SAN_GIORGIO_DI_PIANO", "strokeColor": "#70ACCC", "RGB": "112, 172, 204" }, "geometry": { "type": "LineString", "coordinates": [ [ 11.373910674884302, 44.650276556056262 ], [ 11.374132357343827, 44.650686466140527 ], [ 11.37288106535479, 44.651039952089832 ] ] } },
{ "type": "Feature", "properties": { "CITY_NAME": "SAN_GIORGIO_DI_PIANO", "strokeColor": "#B3B3B3", "RGB": "179, 179, 179" }, "geometry": { "type": "LineString", "coordinates": [ [ 11.377006994161093, 44.650250648033136 ], [ 11.377406371629741, 44.650155318926195 ], [ 11.377519823704841, 44.650393007847093 ], [ 11.377708756672018, 44.650460216379635 ], [ 11.378208679146718, 44.6497461992439 ], [ 11.377956108331933, 44.649642404696451 ], [ 11.377860770464039, 44.649448454979471 ] ] } },
{ "type": "Feature", "properties": { "CITY_NAME": "SAN_GIORGIO_DI_PIANO", "strokeColor": "#70ACCC", "RGB": "112, 172, 204" }, "geometry": { "type": "LineString", "coordinates": [ [ 11.375033040472566, 44.651348326581612 ], [ 11.374393389909132, 44.650147268560431 ] ] } },
{ "type": "Feature", "properties": { "CITY_NAME": "SAN_GIORGIO_DI_PIANO", "strokeColor": "#70ACCC", "RGB": "112, 172, 204" }, "geometry": { "type": "LineString", "coordinates": [ [ 11.378252595346634, 44.651117504678851 ], [ 11.378139844338762, 44.651110635408337 ], [ 11.378070025785378, 44.651112261963696 ], [ 11.377988315653093, 44.651120514398336 ], [ 11.377850651712496, 44.651139456925868 ] ] } },
{ "type": "Feature", "properties": { "CITY_NAME": "SAN_GIORGIO_DI_PIANO", "strokeColor": "#B3B3B3", "RGB": "179, 179, 179" }, "geometry": { "type": "LineString", "coordinates": [ [ 11.372695748320151, 44.647202641824151 ], [ 11.372482746214391, 44.647258598857384 ] ] } },
{ "type": "Feature", "properties": { "CITY_NAME": "SAN_GIORGIO_DI_PIANO", "strokeColor": "#70ACCC", "RGB": "112, 172, 204" }, "geometry": { "type": "LineString", "coordinates": [ [ 11.37598449803907, 44.649523279880221 ], [ 11.376709212553411, 44.649336834703597 ] ] } },
{ "type": "Feature", "properties": { "CITY_NAME": "SAN_GIORGIO_DI_PIANO", "strokeColor": "#70ACCC", "RGB": "112, 172, 204" }, "geometry": { "type": "LineString", "coordinates": [ [ 11.37697317161112, 44.647931507160365 ], [ 11.377536820094861, 44.649067255500647 ] ] } },
{ "type": "Feature", "properties": { "CITY_NAME": "SAN_GIORGIO_DI_PIANO", "strokeColor": "#B3B3B3", "RGB": "179, 179, 179" }, "geometry": { "type": "LineString", "coordinates": [ [ 11.375518502284955, 44.645296185186595 ], [ 11.375016979837426, 44.645432637733407 ] ] } },
{ "type": "Feature", "properties": { "CITY_NAME": "SAN_GIORGIO_DI_PIANO", "strokeColor": "#70ACCC", "RGB": "112, 172, 204" }, "geometry": { "type": "LineString", "coordinates": [ [ 11.378520470989972, 44.655965796622823 ], [ 11.378275574056717, 44.656040549903423 ], [ 11.378118044147056, 44.656091262815117 ], [ 11.377956239099573, 44.656124691802006 ], [ 11.377683372684594, 44.656205897835449 ] ] } },
{ "type": "Feature", "properties": { "CITY_NAME": "SAN_GIORGIO_DI_PIANO", "strokeColor": "#70ACCC", "RGB": "112, 172, 204" }, "geometry": { "type": "LineString", "coordinates": [ [ 11.375655361033665, 44.648867390831882 ], [ 11.375036993352154, 44.649025814872857 ] ] } },
{ "type": "Feature", "properties": { "CITY_NAME": "SAN_GIORGIO_DI_PIANO", "strokeColor": "#B3B3B3", "RGB": "179, 179, 179" }, "geometry": { "type": "LineString", "coordinates": [ [ 11.370486823303578, 44.647261812451525 ], [ 11.370672787859917, 44.647212481093106 ], [ 11.370843737969581, 44.647533388907675 ] ] } },
{ "type": "Feature", "properties": { "CITY_NAME": "SAN_GIORGIO_DI_PIANO", "strokeColor": "#70ACCC", "RGB": "112, 172, 204" }, "geometry": { "type": "LineString", "coordinates": [ [ 11.375543179285316, 44.652655628719231 ], [ 11.375136823480164, 44.652742611745531 ], [ 11.375043630351328, 44.652785427956786 ], [ 11.374963272528969, 44.652847340237201 ], [ 11.37491281051182, 44.652903251529729 ], [ 11.374900886317501, 44.653054100319352 ], [ 11.374937550793948, 44.653190250953422 ] ] } },
{ "type": "Feature", "properties": { "CITY_NAME": "SAN_GIORGIO_DI_PIANO", "strokeColor": "#B3B3B3", "RGB": "179, 179, 179" }, "geometry": { "type": "LineString", "coordinates": [ [ 11.375412927754672, 44.648381417726746 ], [ 11.374529830214657, 44.648625776934551 ] ] } },
{ "type": "Feature", "properties": { "CITY_NAME": "SAN_GIORGIO_DI_PIANO", "strokeColor": "#B3B3B3", "RGB": "179, 179, 179" }, "geometry": { "type": "LineString", "coordinates": [ [ 11.376509845328417, 44.647319149602232 ], [ 11.376141803375333, 44.647414118572016 ] ] } },
{ "type": "Feature", "properties": { "CITY_NAME": "SAN_GIORGIO_DI_PIANO", "strokeColor": "#B3B3B3", "RGB": "179, 179, 179" }, "geometry": { "type": "LineString", "coordinates": [ [ 11.377644951437352, 44.647733835858411 ], [ 11.37697317161112, 44.647931507160365 ] ] } },
{ "type": "Feature", "properties": { "CITY_NAME": "SAN_GIORGIO_DI_PIANO", "strokeColor": "#B3B3B3", "RGB": "179, 179, 179" }, "geometry": { "type": "LineString", "coordinates": [ [ 11.376323252928266, 44.6450694789661 ], [ 11.376874269314563, 44.646197164154792 ], [ 11.376965197733098, 44.646364249885991 ] ] } },
{ "type": "Feature", "properties": { "CITY_NAME": "SAN_GIORGIO_DI_PIANO", "strokeColor": "#70ACCC", "RGB": "112, 172, 204" }, "geometry": { "type": "LineString", "coordinates": [ [ 11.373463327463408, 44.643530889059058 ], [ 11.373754321438302, 44.643437590420042 ], [ 11.373958085649432, 44.64343293055807 ] ] } },
{ "type": "Feature", "properties": { "CITY_NAME": "SAN_GIORGIO_DI_PIANO", "strokeColor": "#B3B3B3", "RGB": "179, 179, 179" }, "geometry": { "type": "LineString", "coordinates": [ [ 11.371734755524246, 44.647462577473746 ], [ 11.372197565302249, 44.648393326223911 ] ] } },
{ "type": "Feature", "properties": { "CITY_NAME": "SAN_GIORGIO_DI_PIANO", "strokeColor": "#B3B3B3", "RGB": "179, 179, 179" }, "geometry": { "type": "LineString", "coordinates": [ [ 11.374529830214657, 44.648625776934551 ], [ 11.374023975949795, 44.648751643758686 ] ] } },
{ "type": "Feature", "properties": { "CITY_NAME": "SAN_GIORGIO_DI_PIANO", "strokeColor": "#70ACCC", "RGB": "112, 172, 204" }, "geometry": { "type": "LineString", "coordinates": [ [ 11.369379232558511, 44.649213912427264 ], [ 11.370138770532257, 44.649003752655773 ], [ 11.369714066418789, 44.648238328137957 ], [ 11.369635988430408, 44.648192683859158 ], [ 11.36892015474964, 44.64839390136661 ] ] } },
{ "type": "Feature", "properties": { "CITY_NAME": "SAN_GIORGIO_DI_PIANO", "strokeColor": "#70ACCC", "RGB": "112, 172, 204" }, "geometry": { "type": "LineString", "coordinates": [ [ 11.375395724101198, 44.652254155961977 ], [ 11.375493787897021, 44.652524464878404 ] ] } },
{ "type": "Feature", "properties": { "CITY_NAME": "SAN_GIORGIO_DI_PIANO", "strokeColor": "#B3B3B3", "RGB": "179, 179, 179" }, "geometry": { "type": "LineString", "coordinates": [ [ 11.377434503261574, 44.645956742729851 ], [ 11.376751876165779, 44.644576894631747 ] ] } },
{ "type": "Feature", "properties": { "CITY_NAME": "SAN_GIORGIO_DI_PIANO", "strokeColor": "#B3B3B3", "RGB": "179, 179, 179" }, "geometry": { "type": "LineString", "coordinates": [ [ 11.377098461658287, 44.650747901562795 ], [ 11.377050498434041, 44.650468982333571 ] ] } },
{ "type": "Feature", "properties": { "CITY_NAME": "SAN_GIORGIO_DI_PIANO", "strokeColor": "#70ACCC", "RGB": "112, 172, 204" }, "geometry": { "type": "LineString", "coordinates": [ [ 11.380357038698971, 44.645395002710394 ], [ 11.380101697401795, 44.645427832255351 ], [ 11.378775023518456, 44.645673979256898 ], [ 11.377434503261574, 44.645956742729851 ] ] } },
{ "type": "Feature", "properties": { "CITY_NAME": "SAN_GIORGIO_DI_PIANO", "strokeColor": "#70ACCC", "RGB": "112, 172, 204" }, "geometry": { "type": "LineString", "coordinates": [ [ 11.382903603499296, 44.644740008875949 ], [ 11.382527164247026, 44.644837154306963 ], [ 11.382298114898969, 44.644928245343891 ] ] } },
{ "type": "Feature", "properties": { "CITY_NAME": "SAN_GIORGIO_DI_PIANO", "strokeColor": "#B3B3B3", "RGB": "179, 179, 179" }, "geometry": { "type": "LineString", "coordinates": [ [ 11.372119314857105, 44.647357836873475 ], [ 11.372041210815745, 44.647216134876821 ] ] } },
{ "type": "Feature", "properties": { "CITY_NAME": "SAN_GIORGIO_DI_PIANO", "strokeColor": "#B3B3B3", "RGB": "179, 179, 179" }, "geometry": { "type": "LineString", "coordinates": [ [ 11.372695748320151, 44.647202641824151 ], [ 11.372623184204851, 44.647063444759645 ] ] } },
{ "type": "Feature", "properties": { "CITY_NAME": "SAN_GIORGIO_DI_PIANO", "strokeColor": "#B3B3B3", "RGB": "179, 179, 179" }, "geometry": { "type": "LineString", "coordinates": [ [ 11.373044662010715, 44.647112808796592 ], [ 11.372970734700992, 44.646972454678775 ] ] } },
{ "type": "Feature", "properties": { "CITY_NAME": "SAN_GIORGIO_DI_PIANO", "strokeColor": "#70ACCC", "RGB": "112, 172, 204" }, "geometry": { "type": "LineString", "coordinates": [ [ 11.37764046288671, 44.649265179903708 ], [ 11.378340429185863, 44.649088217030858 ] ] } },
{ "type": "Feature", "properties": { "CITY_NAME": "SAN_GIORGIO_DI_PIANO", "strokeColor": "#70ACCC", "RGB": "112, 172, 204" }, "geometry": { "type": "LineString", "coordinates": [ [ 11.377724687145099, 44.646546570464039 ], [ 11.377555609060527, 44.646203174806132 ] ] } },
{ "type": "Feature", "properties": { "CITY_NAME": "SAN_GIORGIO_DI_PIANO", "strokeColor": "#70ACCC", "RGB": "112, 172, 204" }, "geometry": { "type": "LineString", "coordinates": [ [ 11.379180038272725, 44.655759355068916 ], [ 11.378520470989972, 44.655965796622823 ] ] } },
{ "type": "Feature", "properties": { "CITY_NAME": "SAN_GIORGIO_DI_PIANO", "strokeColor": "#70ACCC", "RGB": "112, 172, 204" }, "geometry": { "type": "LineString", "coordinates": [ [ 11.385479971557919, 44.644077422351756 ], [ 11.384519111566604, 44.644329185351502 ] ] } },
{ "type": "Feature", "properties": { "CITY_NAME": "SAN_GIORGIO_DI_PIANO", "strokeColor": "#70ACCC", "RGB": "112, 172, 204" }, "geometry": { "type": "LineString", "coordinates": [ [ 11.372996901107907, 44.644498053313832 ], [ 11.372897962606977, 44.644240671323082 ], [ 11.37273672865145, 44.64376384031155 ] ] } },
{ "type": "Feature", "properties": { "CITY_NAME": "SAN_GIORGIO_DI_PIANO", "strokeColor": "#B3B3B3", "RGB": "179, 179, 179" }, "geometry": { "type": "LineString", "coordinates": [ [ 11.376709212553411, 44.649336834703597 ], [ 11.376133193580472, 44.648242639137301 ], [ 11.376036604180339, 44.648206441885549 ] ] } },
{ "type": "Feature", "properties": { "CITY_NAME": "SAN_GIORGIO_DI_PIANO", "strokeColor": "#B3B3B3", "RGB": "179, 179, 179" }, "geometry": { "type": "LineString", "coordinates": [ [ 11.376300704249331, 44.648129345455601 ], [ 11.376036604180339, 44.648206441885549 ] ] } },
{ "type": "Feature", "properties": { "CITY_NAME": "SAN_GIORGIO_DI_PIANO", "strokeColor": "#70ACCC", "RGB": "112, 172, 204" }, "geometry": { "type": "LineString", "coordinates": [ [ 11.384057712144756, 44.64365762544535 ], [ 11.384971736361017, 44.643422770144333 ] ] } },
{ "type": "Feature", "properties": { "CITY_NAME": "SAN_GIORGIO_DI_PIANO", "strokeColor": "#B3B3B3", "RGB": "179, 179, 179" }, "geometry": { "type": "LineString", "coordinates": [ [ 11.372041210815745, 44.647216134876821 ], [ 11.370843737969581, 44.647533388907675 ] ] } },
{ "type": "Feature", "properties": { "CITY_NAME": "SAN_GIORGIO_DI_PIANO", "strokeColor": "#70ACCC", "RGB": "112, 172, 204" }, "geometry": { "type": "LineString", "coordinates": [ [ 11.369532733601737, 44.649500252387746 ], [ 11.369379232558511, 44.649213912427264 ] ] } },
{ "type": "Feature", "properties": { "CITY_NAME": "SAN_GIORGIO_DI_PIANO", "strokeColor": "#70ACCC", "RGB": "112, 172, 204" }, "geometry": { "type": "LineString", "coordinates": [ [ 11.37273672865145, 44.64376384031155 ], [ 11.372337828903332, 44.642688354133675 ], [ 11.372645271175525, 44.642607984177978 ] ] } },
{ "type": "Feature", "properties": { "CITY_NAME": "SAN_GIORGIO_DI_PIANO", "strokeColor": "#B3B3B3", "RGB": "179, 179, 179" }, "geometry": { "type": "LineString", "coordinates": [ [ 11.376119422986362, 44.647785532016641 ], [ 11.376663626270819, 44.647615131049463 ] ] } },
{ "type": "Feature", "properties": { "CITY_NAME": "SAN_GIORGIO_DI_PIANO", "strokeColor": "#B3B3B3", "RGB": "179, 179, 179" }, "geometry": { "type": "LineString", "coordinates": [ [ 11.377495520903345, 44.647380744055496 ], [ 11.378065024110974, 44.647225661715076 ] ] } },
{ "type": "Feature", "properties": { "CITY_NAME": "SAN_GIORGIO_DI_PIANO", "strokeColor": "#70ACCC", "RGB": "112, 172, 204" }, "geometry": { "type": "LineString", "coordinates": [ [ 11.36870683408662, 44.648012855443476 ], [ 11.36892015474964, 44.64839390136661 ] ] } },
{ "type": "Feature", "properties": { "CITY_NAME": "SAN_GIORGIO_DI_PIANO", "strokeColor": "#B3B3B3", "RGB": "179, 179, 179" }, "geometry": { "type": "LineString", "coordinates": [ [ 11.377555609060527, 44.646203174806132 ], [ 11.377434503261574, 44.645956742729851 ] ] } },
{ "type": "Feature", "properties": { "CITY_NAME": "SAN_GIORGIO_DI_PIANO", "strokeColor": "#70ACCC", "RGB": "112, 172, 204" }, "geometry": { "type": "LineString", "coordinates": [ [ 11.375149273894952, 44.649871217142184 ], [ 11.375575283350017, 44.649659769561858 ], [ 11.37598449803907, 44.649523279880221 ] ] } },
{ "type": "Feature", "properties": { "CITY_NAME": "SAN_GIORGIO_DI_PIANO", "strokeColor": "#70ACCC", "RGB": "112, 172, 204" }, "geometry": { "type": "LineString", "coordinates": [ [ 11.38200730216311, 44.64483564297597 ], [ 11.381975201351672, 44.644847639659943 ], [ 11.381946304936452, 44.644863244238863 ], [ 11.381921400031947, 44.644882031581787 ], [ 11.38190116553529, 44.644903489692744 ], [ 11.381886156262613, 44.644927032644681 ], [ 11.3818767797096, 44.644952018168567 ], [ 11.381873290450848, 44.644977764874625 ], [ 11.381875787095719, 44.645003570320313 ], [ 11.38188419794132, 44.645028730214634 ] ] } },
{ "type": "Feature", "properties": { "CITY_NAME": "SAN_GIORGIO_DI_PIANO", "strokeColor": "#B3B3B3", "RGB": "179, 179, 179" }, "geometry": { "type": "LineString", "coordinates": [ [ 11.372324690544225, 44.647140092499157 ], [ 11.372623184204851, 44.647063444759645 ] ] } },
{ "type": "Feature", "properties": { "CITY_NAME": "SAN_GIORGIO_DI_PIANO", "strokeColor": "#B3B3B3", "RGB": "179, 179, 179" }, "geometry": { "type": "LineString", "coordinates": [ [ 11.37209428009278, 44.646683396431612 ], [ 11.371441717127183, 44.646847945473667 ], [ 11.371346732332764, 44.646661042548082 ], [ 11.372000256158445, 44.646496598311877 ], [ 11.372080759130865, 44.646653986661711 ] ] } }
]
}
